{
"type": "FeatureCollection",
"name": "Connecticut_counties_2023",
"crs": { "type": "name", "properties": { "name": "urn:ogc:def:crs:OGC:1.3:CRS84" } },
"features": [
{ "type": "Feature", "properties": { "STATEFP": "09", "COUNTYFP": "140", "COUNTYNS": "02830249", "GEOIDFQ": "0500000US09140", "GEOID": "09140", "NAME": "Naugatuck Valley", "NAMELSAD": "Naugatuck Valley Planning Region", "STUSPS": "CT", "STATE_NAME": "Connecticut", "LSAD": "PL", "ALAND": 1069106360.0, "AWATER": 22747873.0, "STATE_NAME_HYPHEN": "Connecticut" }, "geometry": { "type": "MultiPolygon", "coordinates": [ [ [ [ -73.32705, 41.484879 ], [ -73.326458, 41.483839 ], [ -73.322666, 41.480767 ], [ -73.320906, 41.477007 ], [ -73.312777, 41.469935 ], [ -73.310473, 41.468815 ], [ -73.305033, 41.471151 ], [ -73.302761, 41.471439 ], [ -73.300601, 41.470847 ], [ -73.299593, 41.470111 ], [ -73.298265, 41.467631 ], [ -73.298313, 41.464767 ], [ -73.299833, 41.460783 ], [ -73.29986, 41.458434 ], [ -73.300793, 41.455903 ], [ -73.300073, 41.452479 ], [ -73.298403, 41.448916 ], [ -73.293948, 41.447355 ], [ -73.291263, 41.448108 ], [ -73.287798, 41.450315 ], [ -73.283195, 41.451612 ], [ -73.278253, 41.452635 ], [ -73.273696, 41.451645 ], [ -73.270243, 41.448005 ], [ -73.267493, 41.443581 ], [ -73.265857, 41.437073 ], [ -73.263678, 41.434532 ], [ -73.259205, 41.433329 ], [ -73.25695, 41.433852 ], [ -73.25119, 41.437772 ], [ -73.247977, 41.439005 ], [ -73.24752, 41.439193 ], [ -73.245259, 41.439895 ], [ -73.244334, 41.439558 ], [ -73.242344, 41.436072 ], [ -73.242289, 41.429841 ], [ -73.238411, 41.426253 ], [ -73.236771, 41.426187 ], [ -73.235911, 41.426153 ], [ -73.229969, 41.429124 ], [ -73.226479, 41.430309 ], [ -73.218235, 41.42907 ], [ -73.217135, 41.42837 ], [ -73.214435, 41.42507 ], [ -73.211835, 41.42277 ], [ -73.207688, 41.420544 ], [ -73.201557, 41.415796 ], [ -73.199757, 41.413196 ], [ -73.196757, 41.411396 ], [ -73.190257, 41.410296 ], [ -73.186557, 41.408596 ], [ -73.184857, 41.406296 ], [ -73.185357, 41.402196 ], [ -73.187557, 41.399596 ], [ -73.187957, 41.397296 ], [ -73.183269, 41.391711 ], [ -73.181168, 41.389611 ], [ -73.173356, 41.383596 ], [ -73.172662, 41.383442 ], [ -73.171588, 41.383887 ], [ -73.166556, 41.383196 ], [ -73.161253, 41.383853 ], [ -73.158656, 41.383396 ], [ -73.158832, 41.379684 ], [ -73.157055, 41.376696 ], [ -73.15965, 41.374905 ], [ -73.159442, 41.372914 ], [ -73.17058, 41.357898 ], [ -73.170657, 41.357934 ], [ -73.176814, 41.337587 ], [ -73.178877, 41.334744 ], [ -73.180615, 41.332973 ], [ -73.184718, 41.326495 ], [ -73.188163, 41.321934 ], [ -73.189299, 41.320431 ], [ -73.189779, 41.319581 ], [ -73.20336, 41.301292 ], [ -73.2048, 41.29936 ], [ -73.200807, 41.294944 ], [ -73.198299, 41.293093 ], [ -73.190988, 41.285799 ], [ -73.179032, 41.273731 ], [ -73.178639, 41.272636 ], [ -73.173596, 41.268606 ], [ -73.164912, 41.268795 ], [ -73.155573, 41.269096 ], [ -73.155266, 41.269087 ], [ -73.147367, 41.256222 ], [ -73.146882, 41.255367 ], [ -73.143896, 41.257159 ], [ -73.120241, 41.264679 ], [ -73.113576, 41.266824 ], [ -73.108295, 41.268582 ], [ -73.106049, 41.26705 ], [ -73.107081, 41.264074 ], [ -73.104616, 41.263556 ], [ -73.102952, 41.261643 ], [ -73.103076, 41.259612 ], [ -73.098359, 41.25928 ], [ -73.095265, 41.258052 ], [ -73.094558, 41.256214 ], [ -73.090872, 41.257082 ], [ -73.086752, 41.254596 ], [ -73.087852, 41.260096 ], [ -73.087752, 41.265296 ], [ -73.088652, 41.271696 ], [ -73.086852, 41.276596 ], [ -73.083752, 41.281496 ], [ -73.08153, 41.282856 ], [ -73.078852, 41.284496 ], [ -73.075451, 41.285749 ], [ -73.071251, 41.287296 ], [ -73.068751, 41.289196 ], [ -73.065251, 41.294896 ], [ -73.065051, 41.297596 ], [ -73.067851, 41.300996 ], [ -73.066414, 41.302949 ], [ -73.065454, 41.304835 ], [ -73.061746, 41.310079 ], [ -73.057922, 41.312061 ], [ -73.057189, 41.312167 ], [ -73.056149, 41.311974 ], [ -73.054627, 41.311568 ], [ -73.053196, 41.311143 ], [ -73.04911, 41.3113 ], [ -73.040707, 41.313891 ], [ -73.04042, 41.318545 ], [ -73.039141, 41.326654 ], [ -73.038934, 41.32801 ], [ -73.039981, 41.332357 ], [ -73.041881, 41.337578 ], [ -73.042943, 41.338823 ], [ -73.043718, 41.34232 ], [ -73.046334, 41.346078 ], [ -73.046445, 41.352086 ], [ -73.047162, 41.360531 ], [ -73.04907, 41.381053 ], [ -73.048203, 41.391499 ], [ -73.047608, 41.395611 ], [ -73.047543, 41.395834 ], [ -73.046409, 41.401691 ], [ -73.041651, 41.420896 ], [ -73.029459, 41.419492 ], [ -73.02522, 41.434567 ], [ -73.024956, 41.438292 ], [ -73.02497, 41.451232 ], [ -73.025751, 41.459596 ], [ -73.004229, 41.462557 ], [ -73.003347, 41.462718 ], [ -73.001954, 41.466748 ], [ -73.000856, 41.469923 ], [ -73.0013, 41.471062 ], [ -72.989758, 41.468871 ], [ -72.985445, 41.469043 ], [ -72.966192, 41.46625 ], [ -72.952392, 41.464589 ], [ -72.949746, 41.464395 ], [ -72.948048, 41.464097 ], [ -72.940972, 41.46342 ], [ -72.935943, 41.462699 ], [ -72.926745, 41.4603 ], [ -72.917991, 41.459863 ], [ -72.916619, 41.459558 ], [ -72.908387, 41.456253 ], [ -72.902143, 41.45398 ], [ -72.900098, 41.452988 ], [ -72.887675, 41.44826 ], [ -72.886667, 41.447957 ], [ -72.879647, 41.45627 ], [ -72.878127, 41.457515 ], [ -72.876644, 41.459675 ], [ -72.87738, 41.461182 ], [ -72.87351, 41.46603 ], [ -72.871264, 41.469466 ], [ -72.864812, 41.47816 ], [ -72.857451, 41.488037 ], [ -72.852701, 41.494347 ], [ -72.853268, 41.494564 ], [ -72.848378, 41.5001 ], [ -72.846332, 41.502756 ], [ -72.848609, 41.509851 ], [ -72.849571, 41.514593 ], [ -72.850299, 41.515731 ], [ -72.853734, 41.522135 ], [ -72.853083, 41.524925 ], [ -72.85739, 41.526363 ], [ -72.857767, 41.526368 ], [ -72.85793, 41.527167 ], [ -72.861235, 41.528102 ], [ -72.85883, 41.53237 ], [ -72.857977, 41.534546 ], [ -72.853606, 41.533478 ], [ -72.851689, 41.540286 ], [ -72.853147, 41.546412 ], [ -72.86781, 41.549028 ], [ -72.868227, 41.552236 ], [ -72.869514, 41.554531 ], [ -72.871916, 41.554873 ], [ -72.873956, 41.559154 ], [ -72.879791, 41.562751 ], [ -72.879256, 41.563152 ], [ -72.883885, 41.563812 ], [ -72.890074, 41.563204 ], [ -72.903213, 41.561747 ], [ -72.90347, 41.561708 ], [ -72.915648, 41.560396 ], [ -72.926399, 41.558919 ], [ -72.928538, 41.558891 ], [ -72.94635, 41.556797 ], [ -72.945103, 41.55969 ], [ -72.944682, 41.562862 ], [ -72.942615, 41.571126 ], [ -72.938046, 41.590597 ], [ -72.93376, 41.607108 ], [ -72.933644, 41.607794 ], [ -72.935207, 41.619419 ], [ -72.938147, 41.640297 ], [ -72.938501, 41.644311 ], [ -72.928604, 41.645454 ], [ -72.927779, 41.640725 ], [ -72.921954, 41.64114 ], [ -72.923911, 41.645492 ], [ -72.91012, 41.647115 ], [ -72.903011, 41.647495 ], [ -72.883388, 41.649468 ], [ -72.885109, 41.657985 ], [ -72.886473, 41.663003 ], [ -72.886663, 41.666008 ], [ -72.887507, 41.669279 ], [ -72.888526, 41.67516 ], [ -72.889214, 41.678075 ], [ -72.89032, 41.684057 ], [ -72.891896, 41.69254 ], [ -72.892883, 41.696693 ], [ -72.89375, 41.699575 ], [ -72.893714, 41.699581 ], [ -72.894992, 41.708452 ], [ -72.895641, 41.712404 ], [ -72.897031, 41.717272 ], [ -72.89827, 41.723177 ], [ -72.905025, 41.722177 ], [ -72.914476, 41.721513 ], [ -72.926951, 41.720376 ], [ -72.930485, 41.719841 ], [ -72.943081, 41.718836 ], [ -72.944088, 41.718082 ], [ -72.94809, 41.717601 ], [ -72.95927, 41.716682 ], [ -72.971476, 41.715618 ], [ -72.978934, 41.71459 ], [ -72.99855, 41.712498 ], [ -72.99895, 41.714398 ], [ -73.036879, 41.710195 ], [ -73.055262, 41.70816 ], [ -73.062917, 41.707578 ], [ -73.068402, 41.707093 ], [ -73.076701, 41.703024 ], [ -73.083702, 41.699271 ], [ -73.086845, 41.698091 ], [ -73.099265, 41.692685 ], [ -73.105985, 41.689372 ], [ -73.115318, 41.684919 ], [ -73.117748, 41.684009 ], [ -73.121726, 41.681871 ], [ -73.134716, 41.675557 ], [ -73.138736, 41.674102 ], [ -73.141354, 41.672749 ], [ -73.141531, 41.672709 ], [ -73.142031, 41.672294 ], [ -73.167122, 41.669661 ], [ -73.170756, 41.669196 ], [ -73.184279, 41.66856 ], [ -73.195295, 41.668197 ], [ -73.207988, 41.667363 ], [ -73.224726, 41.666527 ], [ -73.231631, 41.666183 ], [ -73.232462, 41.665998 ], [ -73.261446, 41.664641 ], [ -73.259172, 41.647036 ], [ -73.253509, 41.604532 ], [ -73.267336, 41.603199 ], [ -73.266536, 41.597215 ], [ -73.261198, 41.562607 ], [ -73.260904, 41.557223 ], [ -73.258027, 41.536936 ], [ -73.25401, 41.518902 ], [ -73.252265, 41.512134 ], [ -73.254471, 41.511999 ], [ -73.30739, 41.506064 ], [ -73.318889, 41.505189 ], [ -73.320519, 41.503981 ], [ -73.321197, 41.500727 ], [ -73.323114, 41.497903 ], [ -73.325508, 41.495306 ], [ -73.326842, 41.492703 ], [ -73.324874, 41.489567 ], [ -73.326842, 41.485967 ], [ -73.32705, 41.484879 ] ] ] ] } },
{ "type": "Feature", "properties": { "STATEFP": "09", "COUNTYFP": "110", "COUNTYNS": "02830244", "GEOIDFQ": "0500000US09110", "GEOID": "09110", "NAME": "Capitol", "NAMELSAD": "Capitol Planning Region", "STUSPS": "CT", "STATE_NAME": "Connecticut", "LSAD": "PL", "ALAND": 2660820519.0, "AWATER": 48788205.0, "STATE_NAME_HYPHEN": "Connecticut" }, "geometry": { "type": "MultiPolygon", "coordinates": [ [ [ [ -72.953651, 41.84668 ], [ -72.951187, 41.842697 ], [ -72.946526, 41.843628 ], [ -72.942245, 41.843445 ], [ -72.939095, 41.842506 ], [ -72.936502, 41.840263 ], [ -72.939559, 41.83169 ], [ -72.949024, 41.806431 ], [ -72.925901, 41.809161 ], [ -72.924133, 41.808723 ], [ -72.921183, 41.807117 ], [ -72.921391, 41.805194 ], [ -72.924253, 41.804794 ], [ -72.927414, 41.803707 ], [ -72.928104, 41.80284 ], [ -72.92688, 41.799805 ], [ -72.925523, 41.798702 ], [ -72.924659, 41.792615 ], [ -72.924542, 41.789574 ], [ -72.924946, 41.787785 ], [ -72.923087, 41.785217 ], [ -72.922256, 41.783047 ], [ -72.920328, 41.779381 ], [ -72.919023, 41.778299 ], [ -72.917652, 41.777739 ], [ -72.90848, 41.776043 ], [ -72.904927, 41.75809 ], [ -72.904246, 41.750236 ], [ -72.90289, 41.745336 ], [ -72.902625, 41.743569 ], [ -72.902002, 41.739571 ], [ -72.89983, 41.732046 ], [ -72.89827, 41.723177 ], [ -72.897031, 41.717272 ], [ -72.895641, 41.712404 ], [ -72.894992, 41.708452 ], [ -72.893714, 41.699581 ], [ -72.89375, 41.699575 ], [ -72.892883, 41.696693 ], [ -72.891896, 41.69254 ], [ -72.89032, 41.684057 ], [ -72.889214, 41.678075 ], [ -72.888526, 41.67516 ], [ -72.887507, 41.669279 ], [ -72.886663, 41.666008 ], [ -72.886473, 41.663003 ], [ -72.885109, 41.657985 ], [ -72.883388, 41.649468 ], [ -72.903011, 41.647495 ], [ -72.91012, 41.647115 ], [ -72.923911, 41.645492 ], [ -72.921954, 41.64114 ], [ -72.927779, 41.640725 ], [ -72.928604, 41.645454 ], [ -72.938501, 41.644311 ], [ -72.938147, 41.640297 ], [ -72.935207, 41.619419 ], [ -72.933644, 41.607794 ], [ -72.93376, 41.607108 ], [ -72.938046, 41.590597 ], [ -72.942615, 41.571126 ], [ -72.944682, 41.562862 ], [ -72.945103, 41.55969 ], [ -72.94635, 41.556797 ], [ -72.928538, 41.558891 ], [ -72.926399, 41.558919 ], [ -72.915648, 41.560396 ], [ -72.90347, 41.561708 ], [ -72.903213, 41.561747 ], [ -72.890074, 41.563204 ], [ -72.883885, 41.563812 ], [ -72.879256, 41.563152 ], [ -72.879791, 41.562751 ], [ -72.873956, 41.559154 ], [ -72.871916, 41.554873 ], [ -72.869514, 41.554531 ], [ -72.868227, 41.552236 ], [ -72.86781, 41.549028 ], [ -72.853147, 41.546412 ], [ -72.851736, 41.545974 ], [ -72.84428, 41.544725 ], [ -72.845149, 41.547411 ], [ -72.845731, 41.553346 ], [ -72.846005, 41.55485 ], [ -72.848541, 41.567329 ], [ -72.840244, 41.569098 ], [ -72.827644, 41.570999 ], [ -72.829644, 41.562397 ], [ -72.825743, 41.564298 ], [ -72.826141, 41.555897 ], [ -72.825142, 41.555397 ], [ -72.821243, 41.554195 ], [ -72.819145, 41.554298 ], [ -72.80996, 41.562284 ], [ -72.809243, 41.561997 ], [ -72.805243, 41.566598 ], [ -72.801243, 41.573098 ], [ -72.779721, 41.575936 ], [ -72.768079, 41.577313 ], [ -72.767821, 41.577339 ], [ -72.752181, 41.578894 ], [ -72.752941, 41.592497 ], [ -72.74284, 41.594398 ], [ -72.73167, 41.595803 ], [ -72.72994, 41.601498 ], [ -72.727041, 41.602398 ], [ -72.714538, 41.60431 ], [ -72.715924, 41.606424 ], [ -72.7151, 41.608074 ], [ -72.713644, 41.610736 ], [ -72.712567, 41.616684 ], [ -72.711274, 41.617693 ], [ -72.713079, 41.619286 ], [ -72.713287, 41.620839 ], [ -72.715527, 41.622821 ], [ -72.7155, 41.625573 ], [ -72.713897, 41.627705 ], [ -72.688425, 41.631399 ], [ -72.675884, 41.633093 ], [ -72.67587, 41.633095 ], [ -72.650837, 41.636899 ], [ -72.648764, 41.637097 ], [ -72.647136, 41.637199 ], [ -72.634036, 41.639199 ], [ -72.627836, 41.640199 ], [ -72.630524, 41.633282 ], [ -72.605047, 41.635977 ], [ -72.577189, 41.639002 ], [ -72.559926, 41.640955 ], [ -72.54423, 41.642696 ], [ -72.534583, 41.643879 ], [ -72.532132, 41.643999 ], [ -72.521832, 41.645499 ], [ -72.505431, 41.646999 ], [ -72.504875, 41.645534 ], [ -72.481842, 41.60818 ], [ -72.481537, 41.607741 ], [ -72.476921, 41.599987 ], [ -72.474342, 41.595157 ], [ -72.469042, 41.587316 ], [ -72.46673, 41.583899 ], [ -72.420029, 41.590098 ], [ -72.417229, 41.590598 ], [ -72.415331, 41.59373 ], [ -72.410629, 41.601798 ], [ -72.410367, 41.602581 ], [ -72.408479, 41.602325 ], [ -72.406057, 41.598789 ], [ -72.401274, 41.595631 ], [ -72.397283, 41.594743 ], [ -72.393324, 41.592608 ], [ -72.393137, 41.592509 ], [ -72.385582, 41.589591 ], [ -72.38415, 41.588652 ], [ -72.383859, 41.59078 ], [ -72.382369, 41.592066 ], [ -72.382035, 41.593807 ], [ -72.380517, 41.595465 ], [ -72.377613, 41.596237 ], [ -72.376595, 41.597701 ], [ -72.376128, 41.600283 ], [ -72.37498, 41.60144 ], [ -72.371366, 41.599484 ], [ -72.36782, 41.6002 ], [ -72.365217, 41.59978 ], [ -72.363719, 41.601159 ], [ -72.361591, 41.600791 ], [ -72.358885, 41.598284 ], [ -72.355851, 41.59761 ], [ -72.353111, 41.598855 ], [ -72.352374, 41.59905 ], [ -72.343348, 41.599325 ], [ -72.328095, 41.605471 ], [ -72.32451, 41.61857 ], [ -72.327018, 41.625098 ], [ -72.329226, 41.629597 ], [ -72.334226, 41.643598 ], [ -72.303643, 41.653982 ], [ -72.303238, 41.65427 ], [ -72.290511, 41.663302 ], [ -72.286287, 41.666423 ], [ -72.278669, 41.671975 ], [ -72.268418, 41.671137 ], [ -72.268421, 41.672209 ], [ -72.267503, 41.673685 ], [ -72.267489, 41.675594 ], [ -72.266141, 41.677273 ], [ -72.267253, 41.678047 ], [ -72.267858, 41.681532 ], [ -72.269598, 41.684737 ], [ -72.269392, 41.685708 ], [ -72.272157, 41.688618 ], [ -72.274762, 41.690682 ], [ -72.274204, 41.692217 ], [ -72.273596, 41.69293 ], [ -72.270824, 41.691453 ], [ -72.268825, 41.692391 ], [ -72.266564, 41.690673 ], [ -72.26576, 41.690891 ], [ -72.263936, 41.691834 ], [ -72.263562, 41.693261 ], [ -72.261279, 41.695346 ], [ -72.260728, 41.698645 ], [ -72.258421, 41.698439 ], [ -72.257724, 41.699789 ], [ -72.254092, 41.700499 ], [ -72.252007, 41.699078 ], [ -72.250045, 41.699653 ], [ -72.251354, 41.701223 ], [ -72.251249, 41.703324 ], [ -72.247446, 41.704108 ], [ -72.245981, 41.703719 ], [ -72.244021, 41.706529 ], [ -72.247302, 41.706928 ], [ -72.247677, 41.708766 ], [ -72.246571, 41.708268 ], [ -72.245701, 41.710951 ], [ -72.243264, 41.712253 ], [ -72.244965, 41.713878 ], [ -72.24413, 41.714381 ], [ -72.242847, 41.713257 ], [ -72.239559, 41.714191 ], [ -72.242814, 41.716446 ], [ -72.244311, 41.717145 ], [ -72.245285, 41.720486 ], [ -72.246596, 41.722901 ], [ -72.249523, 41.724466 ], [ -72.252994, 41.724921 ], [ -72.252083, 41.727062 ], [ -72.252643, 41.728202 ], [ -72.227342, 41.728073 ], [ -72.216443, 41.728035 ], [ -72.209542, 41.728036 ], [ -72.198126, 41.728176 ], [ -72.198917, 41.731446 ], [ -72.194969, 41.72997 ], [ -72.192104, 41.730413 ], [ -72.191289, 41.733015 ], [ -72.192505, 41.734525 ], [ -72.194002, 41.734772 ], [ -72.195689, 41.73703 ], [ -72.195644, 41.739611 ], [ -72.192581, 41.744568 ], [ -72.188771, 41.747626 ], [ -72.189404, 41.750097 ], [ -72.186654, 41.751211 ], [ -72.185886, 41.75235 ], [ -72.187985, 41.753741 ], [ -72.187656, 41.755181 ], [ -72.186977, 41.755427 ], [ -72.185142, 41.755681 ], [ -72.183197, 41.756117 ], [ -72.17787, 41.75537 ], [ -72.177986, 41.752657 ], [ -72.176037, 41.751436 ], [ -72.175955, 41.749857 ], [ -72.174126, 41.751184 ], [ -72.171648, 41.748467 ], [ -72.168484, 41.752231 ], [ -72.165811, 41.751706 ], [ -72.164859, 41.750002 ], [ -72.160801, 41.750123 ], [ -72.157626, 41.751804 ], [ -72.156321, 41.753491 ], [ -72.156719, 41.753719 ], [ -72.157856, 41.765646 ], [ -72.159342, 41.781159 ], [ -72.163218, 41.822034 ], [ -72.163211, 41.822222 ], [ -72.164498, 41.834913 ], [ -72.166006, 41.834883 ], [ -72.169019, 41.834902 ], [ -72.200292, 41.835046 ], [ -72.217719, 41.835184 ], [ -72.2171, 41.8723 ], [ -72.2169, 41.884464 ], [ -72.216456, 41.888062 ], [ -72.216306, 41.892818 ], [ -72.21665, 41.918662 ], [ -72.21726, 41.949353 ], [ -72.21698, 41.958161 ], [ -72.234898, 41.957583 ], [ -72.223283, 41.981666 ], [ -72.21642, 41.996418 ], [ -72.214894, 42.000095 ], [ -72.2050808, 42.0310868 ], [ -72.2412902, 42.0315261 ], [ -72.249523, 42.031626 ], [ -72.2706561, 42.0317138 ], [ -72.317148, 42.031907 ], [ -72.3212668, 42.0319688 ], [ -72.3218211, 42.0319771 ], [ -72.3669918, 42.0326543 ], [ -72.3974334, 42.0331107 ], [ -72.4414941, 42.0337713 ], [ -72.45668, 42.033999 ], [ -72.4582913, 42.0340057 ], [ -72.4596912, 42.0340115 ], [ -72.4601204, 42.0340133 ], [ -72.5092041, 42.0342166 ], [ -72.5246153, 42.0342804 ], [ -72.528131, 42.034295 ], [ -72.5314944, 42.0339852 ], [ -72.5501112, 42.0322705 ], [ -72.5528582, 42.0320175 ], [ -72.5530546, 42.0319994 ], [ -72.5609587, 42.0312714 ], [ -72.5609752, 42.0312698 ], [ -72.5634268, 42.031044 ], [ -72.573231, 42.030141 ], [ -72.574189300000015, 42.0295675 ], [ -72.582332, 42.024695 ], [ -72.5898263, 42.024695 ], [ -72.590233, 42.024695 ], [ -72.606933, 42.024995 ], [ -72.6069561, 42.0251287 ], [ -72.607933, 42.030795 ], [ -72.607991, 42.0307976 ], [ -72.6169036, 42.0312027 ], [ -72.6169046, 42.0312028 ], [ -72.643134, 42.032395 ], [ -72.6729634, 42.0348772 ], [ -72.6860801, 42.0359686 ], [ -72.695927, 42.036788 ], [ -72.699403, 42.0367536 ], [ -72.7128274, 42.0366207 ], [ -72.714558, 42.0366036 ], [ -72.7192528, 42.0365571 ], [ -72.755838, 42.036195 ], [ -72.757538, 42.033295 ], [ -72.753538, 42.032095 ], [ -72.751738, 42.030195 ], [ -72.754038, 42.025395 ], [ -72.757467, 42.020947 ], [ -72.758151, 42.020865 ], [ -72.760558, 42.021846 ], [ -72.762151, 42.021527 ], [ -72.76231, 42.019775 ], [ -72.761354, 42.018183 ], [ -72.759738, 42.016995 ], [ -72.761238, 42.014595 ], [ -72.763238, 42.012795 ], [ -72.763265, 42.009742 ], [ -72.766139, 42.007695 ], [ -72.766739, 42.002995 ], [ -72.7706453, 42.0025731 ], [ -72.7747594, 42.0021288 ], [ -72.7949002, 41.9999537 ], [ -72.816741, 41.997595 ], [ -72.8167357, 41.9976589 ], [ -72.813541, 42.036494 ], [ -72.8349699, 42.0367491 ], [ -72.847142, 42.036894 ], [ -72.863619, 42.037709 ], [ -72.8636384, 42.0377092 ], [ -72.863819, 42.035383 ], [ -72.873001, 42.011628 ], [ -72.874543, 42.008822 ], [ -72.87762, 42.000161 ], [ -72.877615, 41.998991 ], [ -72.878714, 41.995878 ], [ -72.879489, 41.99421 ], [ -72.886558, 41.974725 ], [ -72.88661, 41.974527 ], [ -72.88706, 41.973121 ], [ -72.902244, 41.931995 ], [ -72.902968, 41.931361 ], [ -72.905945, 41.921696 ], [ -72.906645, 41.920196 ], [ -72.915346, 41.896797 ], [ -72.940647, 41.895196 ], [ -72.943894, 41.884815 ], [ -72.946178, 41.877234 ], [ -72.946342, 41.874027 ], [ -72.95364, 41.853919 ], [ -72.953651, 41.84668 ] ] ] ] } },
{ "type": "Feature", "properties": { "STATEFP": "09", "COUNTYFP": "180", "COUNTYNS": "02830253", "GEOIDFQ": "0500000US09180", "GEOID": "09180", "NAME": "Southeastern Connecticut", "NAMELSAD": "Southeastern Connecticut Planning Region", "STUSPS": "CT", "STATE_NAME": "Connecticut", "LSAD": "PL", "ALAND": 1549162983.0, "AWATER": 216462800.0, "STATE_NAME_HYPHEN": "Connecticut" }, "geometry": { "type": "MultiPolygon", "coordinates": [ [ [ [ -72.225325, 41.293303 ], [ -72.223899, 41.293464 ], [ -72.223756, 41.294857 ], [ -72.225226, 41.295258 ], [ -72.225931, 41.293839 ], [ -72.225325, 41.293303 ] ] ], [ [ [ -72.45185, 41.558567 ], [ -72.449059, 41.553937 ], [ -72.448737, 41.553534 ], [ -72.447945, 41.552864 ], [ -72.446554, 41.550657 ], [ -72.446853, 41.550377 ], [ -72.443946, 41.546422 ], [ -72.432675, 41.527946 ], [ -72.430767, 41.524567 ], [ -72.383057, 41.529 ], [ -72.381298, 41.529229 ], [ -72.374528, 41.529909 ], [ -72.361634, 41.530818 ], [ -72.358576, 41.531436 ], [ -72.344985, 41.532456 ], [ -72.344566, 41.532417 ], [ -72.323394, 41.53425 ], [ -72.322931, 41.518119 ], [ -72.321848, 41.512221 ], [ -72.315246, 41.478091 ], [ -72.312537, 41.478411 ], [ -72.305531, 41.436282 ], [ -72.304868, 41.432728 ], [ -72.286577, 41.439074 ], [ -72.276636, 41.440449 ], [ -72.277596, 41.433377 ], [ -72.278538, 41.429633 ], [ -72.279061, 41.426057 ], [ -72.279099, 41.421809 ], [ -72.27995, 41.418597 ], [ -72.280446, 41.414473 ], [ -72.281005, 41.412865 ], [ -72.281281, 41.411197 ], [ -72.282154, 41.405899 ], [ -72.280032, 41.39168 ], [ -72.279247, 41.388206 ], [ -72.277906, 41.376308 ], [ -72.27794, 41.375284 ], [ -72.276725, 41.366297 ], [ -72.274504, 41.356092 ], [ -72.270718, 41.350446 ], [ -72.266311, 41.342211 ], [ -72.265093, 41.339274 ], [ -72.261332, 41.333998 ], [ -72.259312, 41.329686 ], [ -72.256402, 41.3259 ], [ -72.25721, 41.324242 ], [ -72.257961, 41.32362 ], [ -72.258045, 41.32284 ], [ -72.25603, 41.315592 ], [ -72.254739, 41.312529 ], [ -72.254816, 41.310309 ], [ -72.254139, 41.309787 ], [ -72.25328, 41.309535 ], [ -72.25062, 41.304718 ], [ -72.2488104, 41.299337 ], [ -72.248161, 41.299488 ], [ -72.246823, 41.297669 ], [ -72.244827, 41.298365 ], [ -72.243971, 41.299624 ], [ -72.235735, 41.30083 ], [ -72.233133, 41.298874 ], [ -72.2316, 41.29641 ], [ -72.230209, 41.297133 ], [ -72.22996, 41.298526 ], [ -72.227536, 41.298419 ], [ -72.225183, 41.301446 ], [ -72.223828, 41.301981 ], [ -72.2237758, 41.3019597 ], [ -72.221724, 41.301124 ], [ -72.221689, 41.300589 ], [ -72.222936, 41.29933 ], [ -72.221582, 41.296571 ], [ -72.219763, 41.29716 ], [ -72.218857, 41.296123 ], [ -72.219977, 41.29491 ], [ -72.219763, 41.293544 ], [ -72.213132, 41.291964 ], [ -72.212348, 41.288642 ], [ -72.210387, 41.285963 ], [ -72.205788, 41.285883 ], [ -72.203684, 41.287222 ], [ -72.202294, 41.294107 ], [ -72.204022, 41.299097 ], [ -72.203578, 41.3053579 ], [ -72.203022, 41.313197 ], [ -72.201422, 41.315697 ], [ -72.191516, 41.3228408 ], [ -72.191022, 41.323197 ], [ -72.184122, 41.323997 ], [ -72.177622, 41.322497 ], [ -72.1774651, 41.3222892 ], [ -72.173922, 41.317597 ], [ -72.172715, 41.309596 ], [ -72.164401, 41.303715 ], [ -72.161073, 41.306929 ], [ -72.16158, 41.310262 ], [ -72.15632, 41.313178 ], [ -72.1559882, 41.3130623 ], [ -72.149665, 41.310857 ], [ -72.144041, 41.30291 ], [ -72.134221, 41.299398 ], [ -72.125498800000017, 41.3012342 ], [ -72.123044, 41.301751 ], [ -72.11182, 41.299098 ], [ -72.107782, 41.302861 ], [ -72.101358, 41.303771 ], [ -72.1011122, 41.304096799999989 ], [ -72.098438, 41.307642 ], [ -72.093097, 41.309429 ], [ -72.094443, 41.314164 ], [ -72.0913367, 41.3150024 ], [ -72.088478, 41.315774 ], [ -72.082002, 41.3172243 ], [ -72.074104, 41.318993 ], [ -72.066956, 41.318893 ], [ -72.065048, 41.315238 ], [ -72.060535, 41.312107 ], [ -72.055068, 41.312999 ], [ -72.0547507, 41.3133261 ], [ -72.049123, 41.319127 ], [ -72.041527, 41.318488 ], [ -72.036447, 41.31587 ], [ -72.035341, 41.312821 ], [ -72.030262, 41.312121 ], [ -72.027497, 41.316034 ], [ -72.021898, 41.316838 ], [ -72.0115674, 41.3076796 ], [ -72.010838, 41.307033 ], [ -72.0102887, 41.3069996 ], [ -72.0056919, 41.3067203 ], [ -72.005143, 41.306687 ], [ -72.0036509, 41.3105467 ], [ -72.000678, 41.318237 ], [ -72.0001008, 41.3183448 ], [ -71.993724, 41.319536 ], [ -71.9894198, 41.3160106 ], [ -71.989231, 41.315856 ], [ -71.9891974, 41.3160031 ], [ -71.988153, 41.320577 ], [ -71.982194, 41.329861 ], [ -71.9802752, 41.329949 ], [ -71.979447, 41.329987 ], [ -71.969266, 41.321033 ], [ -71.96244, 41.321535 ], [ -71.95413, 41.327913 ], [ -71.945652, 41.337799 ], [ -71.9375554, 41.3379373 ], [ -71.936284, 41.337959 ], [ -71.932663, 41.333348 ], [ -71.92763, 41.33229 ], [ -71.921206, 41.327927 ], [ -71.909094, 41.3275069 ], [ -71.904655, 41.327353 ], [ -71.897962, 41.333527 ], [ -71.8936573, 41.3333181 ], [ -71.892665, 41.33327 ], [ -71.886302, 41.33641 ], [ -71.8823775, 41.3362379 ], [ -71.877521, 41.336025 ], [ -71.868727, 41.327815 ], [ -71.85957, 41.322399 ], [ -71.860513, 41.320248 ], [ -71.857458, 41.320789 ], [ -71.851923, 41.324664 ], [ -71.847709, 41.329604 ], [ -71.844666, 41.330585 ], [ -71.836156, 41.336013 ], [ -71.8306177, 41.341247 ], [ -71.829384, 41.342413 ], [ -71.829902, 41.346636 ], [ -71.831303, 41.351295 ], [ -71.835703, 41.353568 ], [ -71.836768, 41.355103 ], [ -71.837873, 41.360145 ], [ -71.8377317, 41.3632967 ], [ -71.8377134, 41.3637056 ], [ -71.837633, 41.365499 ], [ -71.8355882, 41.3670687 ], [ -71.8349469, 41.3675609 ], [ -71.832499, 41.36944 ], [ -71.8321078, 41.3700843 ], [ -71.8320108, 41.370244 ], [ -71.831613, 41.370899 ], [ -71.8320766, 41.3729622 ], [ -71.832674, 41.375621 ], [ -71.831314, 41.3777248 ], [ -71.830637, 41.378772 ], [ -71.8316433, 41.3800224 ], [ -71.833531, 41.382368 ], [ -71.8330006, 41.3852672 ], [ -71.832655, 41.387156 ], [ -71.835204, 41.389558 ], [ -71.83817, 41.390595 ], [ -71.8386323, 41.391151 ], [ -71.8410616, 41.3940727 ], [ -71.842131, 41.395359 ], [ -71.842244, 41.396879 ], [ -71.84115, 41.39923 ], [ -71.841726, 41.403241 ], [ -71.843256, 41.404461 ], [ -71.843472, 41.40583 ], [ -71.8428166, 41.4087322 ], [ -71.842563, 41.409855 ], [ -71.839649, 41.412119 ], [ -71.836883, 41.412228 ], [ -71.834107, 41.411582 ], [ -71.827902, 41.414334 ], [ -71.824573, 41.415235 ], [ -71.823873, 41.417164 ], [ -71.82033, 41.419382 ], [ -71.816904, 41.419927 ], [ -71.8129, 41.419404 ], [ -71.806812, 41.416673 ], [ -71.803684, 41.417428 ], [ -71.801439, 41.415545 ], [ -71.797683, 41.416709 ], [ -71.7976737, 41.4169104 ], [ -71.7972355, 41.4263941 ], [ -71.7967395, 41.4371278 ], [ -71.7964859, 41.4426147 ], [ -71.7956834, 41.4599807 ], [ -71.7949847, 41.4751025 ], [ -71.7935683, 41.5057531 ], [ -71.823172, 41.509564 ], [ -71.831579, 41.510763 ], [ -71.841191, 41.511856 ], [ -71.847305, 41.512934 ], [ -71.863408, 41.514926 ], [ -71.871821, 41.559919 ], [ -71.874268, 41.572758 ], [ -71.874971, 41.578886 ], [ -71.88387, 41.630022 ], [ -71.884422, 41.641204 ], [ -71.909061, 41.638666 ], [ -71.936549, 41.635883 ], [ -71.951936, 41.634328 ], [ -71.954983, 41.634799 ], [ -71.975253, 41.638117 ], [ -71.991753, 41.640801 ], [ -72.01492, 41.644588 ], [ -72.031216, 41.647242 ], [ -72.055659, 41.651239 ], [ -72.062051, 41.652239 ], [ -72.092407, 41.657189 ], [ -72.103523, 41.659305 ], [ -72.11, 41.660224 ], [ -72.119773, 41.661834 ], [ -72.119957, 41.663301 ], [ -72.119677, 41.664443 ], [ -72.121099, 41.697452 ], [ -72.122489, 41.712754 ], [ -72.112045, 41.745897 ], [ -72.122521, 41.748768 ], [ -72.150738, 41.752842 ], [ -72.156321, 41.753491 ], [ -72.157626, 41.751804 ], [ -72.160801, 41.750123 ], [ -72.164859, 41.750002 ], [ -72.165811, 41.751706 ], [ -72.168484, 41.752231 ], [ -72.171648, 41.748467 ], [ -72.174126, 41.751184 ], [ -72.175955, 41.749857 ], [ -72.176037, 41.751436 ], [ -72.177986, 41.752657 ], [ -72.17787, 41.75537 ], [ -72.183197, 41.756117 ], [ -72.185142, 41.755681 ], [ -72.186977, 41.755427 ], [ -72.187656, 41.755181 ], [ -72.187985, 41.753741 ], [ -72.185886, 41.75235 ], [ -72.186654, 41.751211 ], [ -72.189404, 41.750097 ], [ -72.188771, 41.747626 ], [ -72.192581, 41.744568 ], [ -72.195644, 41.739611 ], [ -72.195689, 41.73703 ], [ -72.194002, 41.734772 ], [ -72.192505, 41.734525 ], [ -72.191289, 41.733015 ], [ -72.192104, 41.730413 ], [ -72.194969, 41.72997 ], [ -72.198917, 41.731446 ], [ -72.198126, 41.728176 ], [ -72.209542, 41.728036 ], [ -72.216443, 41.728035 ], [ -72.227342, 41.728073 ], [ -72.252643, 41.728202 ], [ -72.252083, 41.727062 ], [ -72.252994, 41.724921 ], [ -72.249523, 41.724466 ], [ -72.246596, 41.722901 ], [ -72.245285, 41.720486 ], [ -72.244311, 41.717145 ], [ -72.242814, 41.716446 ], [ -72.239559, 41.714191 ], [ -72.242847, 41.713257 ], [ -72.24413, 41.714381 ], [ -72.244965, 41.713878 ], [ -72.243264, 41.712253 ], [ -72.245701, 41.710951 ], [ -72.246571, 41.708268 ], [ -72.247677, 41.708766 ], [ -72.247302, 41.706928 ], [ -72.244021, 41.706529 ], [ -72.245981, 41.703719 ], [ -72.247446, 41.704108 ], [ -72.251249, 41.703324 ], [ -72.251354, 41.701223 ], [ -72.250045, 41.699653 ], [ -72.252007, 41.699078 ], [ -72.254092, 41.700499 ], [ -72.257724, 41.699789 ], [ -72.258421, 41.698439 ], [ -72.260728, 41.698645 ], [ -72.261279, 41.695346 ], [ -72.263562, 41.693261 ], [ -72.263936, 41.691834 ], [ -72.26576, 41.690891 ], [ -72.266564, 41.690673 ], [ -72.268825, 41.692391 ], [ -72.270824, 41.691453 ], [ -72.273596, 41.69293 ], [ -72.274204, 41.692217 ], [ -72.274762, 41.690682 ], [ -72.272157, 41.688618 ], [ -72.269392, 41.685708 ], [ -72.269598, 41.684737 ], [ -72.267858, 41.681532 ], [ -72.267253, 41.678047 ], [ -72.266141, 41.677273 ], [ -72.267489, 41.675594 ], [ -72.267503, 41.673685 ], [ -72.268421, 41.672209 ], [ -72.268418, 41.671137 ], [ -72.278669, 41.671975 ], [ -72.286287, 41.666423 ], [ -72.290511, 41.663302 ], [ -72.303238, 41.65427 ], [ -72.303643, 41.653982 ], [ -72.334226, 41.643598 ], [ -72.329226, 41.629597 ], [ -72.327018, 41.625098 ], [ -72.32451, 41.61857 ], [ -72.328095, 41.605471 ], [ -72.343348, 41.599325 ], [ -72.352374, 41.59905 ], [ -72.353111, 41.598855 ], [ -72.355851, 41.59761 ], [ -72.358885, 41.598284 ], [ -72.361591, 41.600791 ], [ -72.363719, 41.601159 ], [ -72.365217, 41.59978 ], [ -72.36782, 41.6002 ], [ -72.371366, 41.599484 ], [ -72.37498, 41.60144 ], [ -72.376128, 41.600283 ], [ -72.376595, 41.597701 ], [ -72.377613, 41.596237 ], [ -72.380517, 41.595465 ], [ -72.382035, 41.593807 ], [ -72.382369, 41.592066 ], [ -72.383859, 41.59078 ], [ -72.38415, 41.588652 ], [ -72.385582, 41.589591 ], [ -72.393137, 41.592509 ], [ -72.393324, 41.592608 ], [ -72.397283, 41.594743 ], [ -72.401274, 41.595631 ], [ -72.406057, 41.598789 ], [ -72.408479, 41.602325 ], [ -72.410367, 41.602581 ], [ -72.410629, 41.601798 ], [ -72.415331, 41.59373 ], [ -72.417229, 41.590598 ], [ -72.420029, 41.590098 ], [ -72.46673, 41.583899 ], [ -72.45185, 41.558567 ] ] ] ] } },
{ "type": "Feature", "properties": { "STATEFP": "09", "COUNTYFP": "170", "COUNTYNS": "02830252", "GEOIDFQ": "0500000US09170", "GEOID": "09170", "NAME": "South Central Connecticut", "NAMELSAD": "South Central Connecticut Planning Region", "STUSPS": "CT", "STATE_NAME": "Connecticut", "LSAD": "PL", "ALAND": 950963145.0, "AWATER": 653739737.0, "STATE_NAME_HYPHEN": "Connecticut" }, "geometry": { "type": "MultiPolygon", "coordinates": [ [ [ [ -72.760341, 41.241235 ], [ -72.75966, 41.242012 ], [ -72.757135, 41.244305 ], [ -72.755655, 41.245059 ], [ -72.749871, 41.247308 ], [ -72.745661, 41.249723 ], [ -72.745484, 41.250982 ], [ -72.742891, 41.252631 ], [ -72.741058, 41.252691 ], [ -72.740099, 41.255105 ], [ -72.740299, 41.256454 ], [ -72.747678, 41.255855 ], [ -72.754658, 41.255929 ], [ -72.756353, 41.25548 ], [ -72.75886, 41.253843 ], [ -72.759733, 41.248454 ], [ -72.761427, 41.242333 ], [ -72.760341, 41.241235 ] ] ], [ [ [ -72.763977, 41.258511 ], [ -72.763115, 41.258037 ], [ -72.761419, 41.258643 ], [ -72.761187, 41.258996 ], [ -72.762344, 41.260356 ], [ -72.763066, 41.260377 ], [ -72.764251, 41.259212 ], [ -72.763977, 41.258511 ] ] ], [ [ [ -73.121997, 41.178927 ], [ -73.121453, 41.177597 ], [ -73.119853, 41.175697 ], [ -73.112152, 41.171397 ], [ -73.1080084, 41.1687517 ], [ -73.108005, 41.168765 ], [ -73.1058062, 41.1716951 ], [ -73.105458, 41.172159 ], [ -73.1042936, 41.1731877 ], [ -73.103288, 41.174076 ], [ -73.101493, 41.173825 ], [ -73.097326, 41.178067 ], [ -73.0908659, 41.1851737 ], [ -73.088843, 41.187399 ], [ -73.0871362, 41.1887962 ], [ -73.0828395, 41.1923136 ], [ -73.082045, 41.192964 ], [ -73.0791183, 41.1944673 ], [ -73.0781753, 41.1949517 ], [ -73.0742641, 41.1969607 ], [ -73.072963, 41.197629 ], [ -73.065948, 41.198407 ], [ -73.060836, 41.205772 ], [ -73.055675, 41.2089871 ], [ -73.055452, 41.209126 ], [ -73.049598, 41.21078 ], [ -73.0489059, 41.2107267 ], [ -73.04657, 41.210547 ], [ -73.044724, 41.209188 ], [ -73.037941, 41.201814 ], [ -73.0374544, 41.2024949 ], [ -73.0363775, 41.2040016 ], [ -73.0362962, 41.2041154 ], [ -73.0359188, 41.2046434 ], [ -73.0352092, 41.2056364 ], [ -73.034895, 41.206076 ], [ -73.029645, 41.207532 ], [ -73.023297, 41.207614 ], [ -73.0224415, 41.207353 ], [ -73.020278, 41.206693 ], [ -73.0202775, 41.2066709 ], [ -73.0202307, 41.2047866 ], [ -73.020219, 41.204315 ], [ -73.01455, 41.204735 ], [ -73.013032, 41.2060673 ], [ -73.0126217, 41.2064274 ], [ -73.0086824, 41.2098847 ], [ -73.008387, 41.210144 ], [ -73.00617, 41.2159427 ], [ -73.004084, 41.221399 ], [ -73.002548, 41.222751 ], [ -73.0004232, 41.2227094 ], [ -72.997028, 41.222643 ], [ -72.992042, 41.223724 ], [ -72.987546, 41.231098 ], [ -72.987035, 41.233463 ], [ -72.98687, 41.235131 ], [ -72.9865543, 41.2353156 ], [ -72.985586, 41.235882 ], [ -72.9816722, 41.234697 ], [ -72.981134, 41.234534 ], [ -72.9810634, 41.234503 ], [ -72.9786668, 41.233450399999988 ], [ -72.978347, 41.23331 ], [ -72.975136, 41.233829 ], [ -72.972039, 41.237169 ], [ -72.9709799, 41.2394491 ], [ -72.9704237, 41.2406467 ], [ -72.9692622, 41.2431475 ], [ -72.968901, 41.243925 ], [ -72.9682144, 41.2444412 ], [ -72.963482, 41.247999 ], [ -72.962062, 41.251938 ], [ -72.9600273, 41.2521453 ], [ -72.957213, 41.252432 ], [ -72.9569457, 41.2526288 ], [ -72.9546242, 41.2543383 ], [ -72.953154, 41.255421 ], [ -72.939547, 41.258836 ], [ -72.936192, 41.259888 ], [ -72.931305, 41.262293 ], [ -72.9312675, 41.2623418 ], [ -72.931016, 41.262669 ], [ -72.9310563, 41.264741 ], [ -72.931106, 41.267294 ], [ -72.930642, 41.267878 ], [ -72.9317005, 41.2690793 ], [ -72.931791, 41.269182 ], [ -72.935242, 41.271903 ], [ -72.935922, 41.2725702 ], [ -72.936413, 41.273052 ], [ -72.9365559, 41.2767123 ], [ -72.936566, 41.276972 ], [ -72.9367937, 41.277134 ], [ -72.937166, 41.277399 ], [ -72.938023, 41.278009 ], [ -72.939163, 41.280188 ], [ -72.9391113, 41.2802737 ], [ -72.9385949, 41.2811288 ], [ -72.938108, 41.281935 ], [ -72.937592, 41.28204 ], [ -72.933136, 41.282097 ], [ -72.932695, 41.281846 ], [ -72.93291, 41.280495 ], [ -72.932533, 41.280318 ], [ -72.929652, 41.280918 ], [ -72.9295812, 41.280975 ], [ -72.9288094, 41.2815963 ], [ -72.9267481, 41.2832557 ], [ -72.923938, 41.285518 ], [ -72.921881, 41.289326 ], [ -72.913087, 41.296737 ], [ -72.907621, 41.296201 ], [ -72.9073407, 41.2952539 ], [ -72.906432, 41.292183 ], [ -72.906194, 41.283164 ], [ -72.9059454, 41.2827 ], [ -72.903099, 41.277387 ], [ -72.9035476, 41.2760453 ], [ -72.9050192, 41.2716434 ], [ -72.905359, 41.270627 ], [ -72.897496, 41.265756 ], [ -72.8963699, 41.2639489 ], [ -72.8961892, 41.2636589 ], [ -72.893845, 41.259897 ], [ -72.894666, 41.25652 ], [ -72.8975718, 41.2555675 ], [ -72.898705, 41.255196 ], [ -72.902727, 41.252916 ], [ -72.903754, 41.251401 ], [ -72.904116, 41.249554 ], [ -72.903429, 41.248175 ], [ -72.9003323, 41.2467555 ], [ -72.900159, 41.246676 ], [ -72.896703, 41.245315 ], [ -72.894578, 41.242509 ], [ -72.893579, 41.242538 ], [ -72.890042, 41.244648 ], [ -72.885622, 41.244272 ], [ -72.881509, 41.243087 ], [ -72.8808673, 41.2432125 ], [ -72.8746281, 41.244433099999988 ], [ -72.87013, 41.245313 ], [ -72.861058, 41.245804 ], [ -72.8596146, 41.2463248 ], [ -72.854617, 41.248128 ], [ -72.850421, 41.250621 ], [ -72.850244, 41.253246 ], [ -72.85001, 41.255298 ], [ -72.851007, 41.256445 ], [ -72.8486971, 41.256925 ], [ -72.847398, 41.257195 ], [ -72.846929, 41.256643 ], [ -72.844904, 41.25682 ], [ -72.845051, 41.257746 ], [ -72.844523, 41.258232 ], [ -72.841794, 41.259026 ], [ -72.841295, 41.258805 ], [ -72.841676, 41.257614 ], [ -72.84106, 41.256599 ], [ -72.839857, 41.256908 ], [ -72.838743, 41.256359 ], [ -72.840532, 41.253092 ], [ -72.838507, 41.25115 ], [ -72.837099, 41.248988 ], [ -72.836101, 41.248812 ], [ -72.833959, 41.250555 ], [ -72.832932, 41.254393 ], [ -72.831436, 41.255915 ], [ -72.830174, 41.259026 ], [ -72.830937, 41.259996 ], [ -72.829206, 41.261981 ], [ -72.8288137, 41.2642625 ], [ -72.828766, 41.26454 ], [ -72.827621, 41.264937 ], [ -72.826242, 41.263459 ], [ -72.824834, 41.263702 ], [ -72.824423, 41.263128 ], [ -72.824775, 41.262489 ], [ -72.824658, 41.262026 ], [ -72.82319, 41.261562 ], [ -72.822545, 41.261827 ], [ -72.821342, 41.261628 ], [ -72.8208112, 41.2596858 ], [ -72.820667, 41.259158 ], [ -72.823572, 41.256048 ], [ -72.823563, 41.255564 ], [ -72.82143, 41.25532 ], [ -72.817586, 41.252099 ], [ -72.818554, 41.251261 ], [ -72.818408, 41.24965 ], [ -72.816706, 41.249297 ], [ -72.81124, 41.250201 ], [ -72.807609, 41.252827 ], [ -72.8065813, 41.2557787 ], [ -72.80656, 41.25584 ], [ -72.8042726, 41.25708 ], [ -72.803531, 41.257482 ], [ -72.799951, 41.257945 ], [ -72.7986766, 41.2587775 ], [ -72.796528, 41.260181 ], [ -72.793946, 41.260423 ], [ -72.791093, 41.259848 ], [ -72.788217, 41.262651 ], [ -72.787283, 41.264563 ], [ -72.7861384, 41.2647096 ], [ -72.779444, 41.265567 ], [ -72.773569, 41.263888 ], [ -72.771035, 41.266003 ], [ -72.767157, 41.265844 ], [ -72.762057, 41.267686 ], [ -72.760541, 41.266042 ], [ -72.757477, 41.266913 ], [ -72.754444, 41.266913 ], [ -72.752166, 41.26563 ], [ -72.751497, 41.262695 ], [ -72.749603, 41.259371 ], [ -72.740131, 41.262265 ], [ -72.7367381, 41.261395 ], [ -72.735307, 41.261028 ], [ -72.737041, 41.257343 ], [ -72.732442, 41.255122 ], [ -72.729276, 41.258305 ], [ -72.726955, 41.258305 ], [ -72.725688, 41.259783 ], [ -72.722674, 41.259259 ], [ -72.717385, 41.262911 ], [ -72.714789, 41.261363 ], [ -72.715387, 41.25896 ], [ -72.718863, 41.256881 ], [ -72.718567, 41.256147 ], [ -72.717256, 41.255859 ], [ -72.705788, 41.259908 ], [ -72.702618, 41.255916 ], [ -72.713242, 41.248802 ], [ -72.712397, 41.247078 ], [ -72.709224, 41.247172 ], [ -72.708973, 41.244586 ], [ -72.706139, 41.243851 ], [ -72.699081, 41.247087 ], [ -72.694744, 41.24497 ], [ -72.6934409, 41.2454927 ], [ -72.690439, 41.246697 ], [ -72.6902367, 41.2468869 ], [ -72.685539, 41.251297 ], [ -72.6852493, 41.255463299999988 ], [ -72.685071, 41.258028 ], [ -72.684114, 41.258394 ], [ -72.677477, 41.254767 ], [ -72.677052, 41.258266 ], [ -72.67964, 41.261501 ], [ -72.6748185, 41.2660936 ], [ -72.673216, 41.26762 ], [ -72.668819, 41.265909 ], [ -72.6681612, 41.2667917 ], [ -72.665667, 41.270139 ], [ -72.662184, 41.2689332 ], [ -72.661028, 41.268533 ], [ -72.658424, 41.265013 ], [ -72.654531800000015, 41.2657633 ], [ -72.653838, 41.265897 ], [ -72.641538, 41.266998 ], [ -72.631363, 41.2690915 ], [ -72.6192148, 41.2715911 ], [ -72.6175212, 41.2719395 ], [ -72.617237, 41.271998 ], [ -72.6103585, 41.2708396 ], [ -72.607956, 41.270435 ], [ -72.6078133, 41.2704474 ], [ -72.60408, 41.270771 ], [ -72.601192, 41.269517 ], [ -72.598036, 41.268698 ], [ -72.5909667, 41.2701407 ], [ -72.5851726, 41.2713232 ], [ -72.583336, 41.271698 ], [ -72.571136, 41.268098 ], [ -72.5710754, 41.2680548 ], [ -72.5706047, 41.2677191 ], [ -72.5469155, 41.2508253 ], [ -72.543941, 41.248704 ], [ -72.536759, 41.250897 ], [ -72.53633, 41.2548111 ], [ -72.545837, 41.260304 ], [ -72.547235, 41.262499 ], [ -72.547655, 41.264323 ], [ -72.54636, 41.267398 ], [ -72.547035, 41.2716 ], [ -72.544339, 41.273697 ], [ -72.546253, 41.275977 ], [ -72.548046, 41.277415 ], [ -72.545986, 41.280335 ], [ -72.548894, 41.281855 ], [ -72.551128, 41.280583 ], [ -72.555028, 41.280608 ], [ -72.557236, 41.281992 ], [ -72.557434, 41.283695 ], [ -72.561132, 41.2875 ], [ -72.563934, 41.288698 ], [ -72.564628, 41.289519 ], [ -72.564556, 41.28986 ], [ -72.565628, 41.292393 ], [ -72.567559, 41.294174 ], [ -72.570146, 41.294419 ], [ -72.570808, 41.295776 ], [ -72.569977, 41.296646 ], [ -72.571739, 41.297565 ], [ -72.570702, 41.298004 ], [ -72.573448, 41.299175 ], [ -72.575953, 41.300921 ], [ -72.57634, 41.302425 ], [ -72.579875, 41.304002 ], [ -72.581822, 41.303902 ], [ -72.581123, 41.304932 ], [ -72.582502, 41.306386 ], [ -72.585599, 41.307348 ], [ -72.586157, 41.309151 ], [ -72.585657, 41.309852 ], [ -72.588574, 41.3117 ], [ -72.586565, 41.312936 ], [ -72.584885, 41.312934 ], [ -72.585206, 41.314232 ], [ -72.587062, 41.313706 ], [ -72.589415, 41.315133 ], [ -72.587809, 41.316045 ], [ -72.585318, 41.318618 ], [ -72.585768, 41.322976 ], [ -72.586417, 41.324217 ], [ -72.587341, 41.324326 ], [ -72.589445, 41.322663 ], [ -72.591804, 41.322778 ], [ -72.592866, 41.324065 ], [ -72.595708, 41.328035 ], [ -72.597193, 41.328533 ], [ -72.600784, 41.325814 ], [ -72.60251, 41.325977 ], [ -72.605226, 41.327609 ], [ -72.608654, 41.328175 ], [ -72.611518, 41.327506 ], [ -72.612077, 41.32922 ], [ -72.614407, 41.329966 ], [ -72.614963, 41.333588 ], [ -72.613604, 41.336223 ], [ -72.614405, 41.337002 ], [ -72.612689, 41.340866 ], [ -72.612705, 41.342414 ], [ -72.611213, 41.343233 ], [ -72.61139, 41.347096 ], [ -72.612834, 41.350219 ], [ -72.611605, 41.352327 ], [ -72.612655, 41.353834 ], [ -72.612563, 41.357205 ], [ -72.612233, 41.362674 ], [ -72.609746, 41.363368 ], [ -72.609346, 41.365357 ], [ -72.61014, 41.367148 ], [ -72.608132, 41.367404 ], [ -72.609241, 41.370529 ], [ -72.60884, 41.373513 ], [ -72.611524, 41.3765 ], [ -72.614006, 41.38078 ], [ -72.613837, 41.384398 ], [ -72.612328, 41.386179 ], [ -72.616032, 41.388742 ], [ -72.61801, 41.391656 ], [ -72.622458, 41.393594 ], [ -72.625909, 41.397165 ], [ -72.625027, 41.399092 ], [ -72.626278, 41.400189 ], [ -72.629017, 41.401232 ], [ -72.63083, 41.403589 ], [ -72.630587, 41.406943 ], [ -72.632269, 41.408122 ], [ -72.632325, 41.412315 ], [ -72.637801, 41.41232 ], [ -72.641634, 41.413736 ], [ -72.645073, 41.415802 ], [ -72.646875, 41.415744 ], [ -72.647406, 41.416962 ], [ -72.649214, 41.417345 ], [ -72.649739, 41.418387 ], [ -72.650482, 41.419119 ], [ -72.648789, 41.421998 ], [ -72.645184, 41.425806 ], [ -72.642351, 41.429323 ], [ -72.646843, 41.431153 ], [ -72.649591, 41.431007 ], [ -72.648363, 41.435148 ], [ -72.650908, 41.435031 ], [ -72.653018, 41.434914 ], [ -72.654563, 41.43626 ], [ -72.653672, 41.438125 ], [ -72.666833, 41.435694 ], [ -72.671092, 41.435364 ], [ -72.678739, 41.433797 ], [ -72.682666, 41.433776 ], [ -72.690555, 41.432569 ], [ -72.708343, 41.429443 ], [ -72.71042, 41.429073 ], [ -72.72064, 41.427397 ], [ -72.73801, 41.424669 ], [ -72.746141, 41.423297 ], [ -72.740241, 41.436497 ], [ -72.73912, 41.438294 ], [ -72.735437, 41.473273 ], [ -72.735399, 41.473564 ], [ -72.733886, 41.485368 ], [ -72.74333, 41.483114 ], [ -72.74478, 41.498183 ], [ -72.747056, 41.527289 ], [ -72.7472, 41.528072 ], [ -72.748878, 41.544279 ], [ -72.748931, 41.545673 ], [ -72.748991, 41.546308 ], [ -72.749269, 41.547485 ], [ -72.749348, 41.549757 ], [ -72.752181, 41.578894 ], [ -72.767821, 41.577339 ], [ -72.768079, 41.577313 ], [ -72.779721, 41.575936 ], [ -72.801243, 41.573098 ], [ -72.805243, 41.566598 ], [ -72.809243, 41.561997 ], [ -72.80996, 41.562284 ], [ -72.819145, 41.554298 ], [ -72.821243, 41.554195 ], [ -72.825142, 41.555397 ], [ -72.826141, 41.555897 ], [ -72.825743, 41.564298 ], [ -72.829644, 41.562397 ], [ -72.827644, 41.570999 ], [ -72.840244, 41.569098 ], [ -72.848541, 41.567329 ], [ -72.846005, 41.55485 ], [ -72.845731, 41.553346 ], [ -72.845149, 41.547411 ], [ -72.84428, 41.544725 ], [ -72.851736, 41.545974 ], [ -72.853147, 41.546412 ], [ -72.851689, 41.540286 ], [ -72.853606, 41.533478 ], [ -72.857977, 41.534546 ], [ -72.85883, 41.53237 ], [ -72.861235, 41.528102 ], [ -72.85793, 41.527167 ], [ -72.857767, 41.526368 ], [ -72.85739, 41.526363 ], [ -72.853083, 41.524925 ], [ -72.853734, 41.522135 ], [ -72.850299, 41.515731 ], [ -72.849571, 41.514593 ], [ -72.848609, 41.509851 ], [ -72.846332, 41.502756 ], [ -72.848378, 41.5001 ], [ -72.853268, 41.494564 ], [ -72.852701, 41.494347 ], [ -72.857451, 41.488037 ], [ -72.864812, 41.47816 ], [ -72.871264, 41.469466 ], [ -72.87351, 41.46603 ], [ -72.87738, 41.461182 ], [ -72.876644, 41.459675 ], [ -72.878127, 41.457515 ], [ -72.879647, 41.45627 ], [ -72.886667, 41.447957 ], [ -72.887675, 41.44826 ], [ -72.900098, 41.452988 ], [ -72.902143, 41.45398 ], [ -72.908387, 41.456253 ], [ -72.916619, 41.459558 ], [ -72.917991, 41.459863 ], [ -72.926745, 41.4603 ], [ -72.935943, 41.462699 ], [ -72.940972, 41.46342 ], [ -72.948048, 41.464097 ], [ -72.949746, 41.464395 ], [ -72.952392, 41.464589 ], [ -72.966192, 41.46625 ], [ -72.985445, 41.469043 ], [ -72.989758, 41.468871 ], [ -73.0013, 41.471062 ], [ -73.000856, 41.469923 ], [ -73.001954, 41.466748 ], [ -73.003347, 41.462718 ], [ -73.004229, 41.462557 ], [ -73.025751, 41.459596 ], [ -73.02497, 41.451232 ], [ -73.024956, 41.438292 ], [ -73.02522, 41.434567 ], [ -73.029459, 41.419492 ], [ -73.041651, 41.420896 ], [ -73.046409, 41.401691 ], [ -73.047543, 41.395834 ], [ -73.047608, 41.395611 ], [ -73.048203, 41.391499 ], [ -73.04907, 41.381053 ], [ -73.047162, 41.360531 ], [ -73.046445, 41.352086 ], [ -73.046334, 41.346078 ], [ -73.043718, 41.34232 ], [ -73.042943, 41.338823 ], [ -73.041881, 41.337578 ], [ -73.039981, 41.332357 ], [ -73.038934, 41.32801 ], [ -73.039141, 41.326654 ], [ -73.04042, 41.318545 ], [ -73.040707, 41.313891 ], [ -73.04911, 41.3113 ], [ -73.053196, 41.311143 ], [ -73.054627, 41.311568 ], [ -73.056149, 41.311974 ], [ -73.057189, 41.312167 ], [ -73.057922, 41.312061 ], [ -73.061746, 41.310079 ], [ -73.065454, 41.304835 ], [ -73.066414, 41.302949 ], [ -73.067851, 41.300996 ], [ -73.065051, 41.297596 ], [ -73.065251, 41.294896 ], [ -73.068751, 41.289196 ], [ -73.071251, 41.287296 ], [ -73.075451, 41.285749 ], [ -73.078852, 41.284496 ], [ -73.08153, 41.282856 ], [ -73.083752, 41.281496 ], [ -73.086852, 41.276596 ], [ -73.088652, 41.271696 ], [ -73.087752, 41.265296 ], [ -73.087852, 41.260096 ], [ -73.086752, 41.254596 ], [ -73.08735, 41.251792 ], [ -73.091215, 41.246411 ], [ -73.091414, 41.246262 ], [ -73.093402, 41.244617 ], [ -73.101573, 41.240088 ], [ -73.104952, 41.236595 ], [ -73.107553, 41.232496 ], [ -73.109953, 41.229396 ], [ -73.110553, 41.227396 ], [ -73.110453, 41.225296 ], [ -73.108353, 41.218296 ], [ -73.110253, 41.213996 ], [ -73.11034, 41.213294 ], [ -73.110653, 41.207797 ], [ -73.109453, 41.204797 ], [ -73.109253, 41.204097 ], [ -73.110572, 41.20027 ], [ -73.115353, 41.193497 ], [ -73.116233, 41.192586 ], [ -73.120753, 41.188497 ], [ -73.121366, 41.187444 ], [ -73.122453, 41.182897 ], [ -73.121997, 41.178927 ] ] ] ] } },
{ "type": "Feature", "properties": { "STATEFP": "09", "COUNTYFP": "130", "COUNTYNS": "02830246", "GEOIDFQ": "0500000US09130", "GEOID": "09130", "NAME": "Lower Connecticut River Valley", "NAMELSAD": "Lower Connecticut River Valley Planning Region", "STUSPS": "CT", "STATE_NAME": "Connecticut", "LSAD": "PL", "ALAND": 1098452316.0, "AWATER": 241091042.0, "STATE_NAME_HYPHEN": "Connecticut" }, "geometry": { "type": "MultiPolygon", "coordinates": [ [ [ [ -72.752181, 41.578894 ], [ -72.749348, 41.549757 ], [ -72.749269, 41.547485 ], [ -72.748991, 41.546308 ], [ -72.748931, 41.545673 ], [ -72.748878, 41.544279 ], [ -72.7472, 41.528072 ], [ -72.747056, 41.527289 ], [ -72.74478, 41.498183 ], [ -72.74333, 41.483114 ], [ -72.733886, 41.485368 ], [ -72.735399, 41.473564 ], [ -72.735437, 41.473273 ], [ -72.73912, 41.438294 ], [ -72.740241, 41.436497 ], [ -72.746141, 41.423297 ], [ -72.73801, 41.424669 ], [ -72.72064, 41.427397 ], [ -72.71042, 41.429073 ], [ -72.708343, 41.429443 ], [ -72.690555, 41.432569 ], [ -72.682666, 41.433776 ], [ -72.678739, 41.433797 ], [ -72.671092, 41.435364 ], [ -72.666833, 41.435694 ], [ -72.653672, 41.438125 ], [ -72.654563, 41.43626 ], [ -72.653018, 41.434914 ], [ -72.650908, 41.435031 ], [ -72.648363, 41.435148 ], [ -72.649591, 41.431007 ], [ -72.646843, 41.431153 ], [ -72.642351, 41.429323 ], [ -72.645184, 41.425806 ], [ -72.648789, 41.421998 ], [ -72.650482, 41.419119 ], [ -72.649739, 41.418387 ], [ -72.649214, 41.417345 ], [ -72.647406, 41.416962 ], [ -72.646875, 41.415744 ], [ -72.645073, 41.415802 ], [ -72.641634, 41.413736 ], [ -72.637801, 41.41232 ], [ -72.632325, 41.412315 ], [ -72.632269, 41.408122 ], [ -72.630587, 41.406943 ], [ -72.63083, 41.403589 ], [ -72.629017, 41.401232 ], [ -72.626278, 41.400189 ], [ -72.625027, 41.399092 ], [ -72.625909, 41.397165 ], [ -72.622458, 41.393594 ], [ -72.61801, 41.391656 ], [ -72.616032, 41.388742 ], [ -72.612328, 41.386179 ], [ -72.613837, 41.384398 ], [ -72.614006, 41.38078 ], [ -72.611524, 41.3765 ], [ -72.60884, 41.373513 ], [ -72.609241, 41.370529 ], [ -72.608132, 41.367404 ], [ -72.61014, 41.367148 ], [ -72.609346, 41.365357 ], [ -72.609746, 41.363368 ], [ -72.612233, 41.362674 ], [ -72.612563, 41.357205 ], [ -72.612655, 41.353834 ], [ -72.611605, 41.352327 ], [ -72.612834, 41.350219 ], [ -72.61139, 41.347096 ], [ -72.611213, 41.343233 ], [ -72.612705, 41.342414 ], [ -72.612689, 41.340866 ], [ -72.614405, 41.337002 ], [ -72.613604, 41.336223 ], [ -72.614963, 41.333588 ], [ -72.614407, 41.329966 ], [ -72.612077, 41.32922 ], [ -72.611518, 41.327506 ], [ -72.608654, 41.328175 ], [ -72.605226, 41.327609 ], [ -72.60251, 41.325977 ], [ -72.600784, 41.325814 ], [ -72.597193, 41.328533 ], [ -72.595708, 41.328035 ], [ -72.592866, 41.324065 ], [ -72.591804, 41.322778 ], [ -72.589445, 41.322663 ], [ -72.587341, 41.324326 ], [ -72.586417, 41.324217 ], [ -72.585768, 41.322976 ], [ -72.585318, 41.318618 ], [ -72.587809, 41.316045 ], [ -72.589415, 41.315133 ], [ -72.587062, 41.313706 ], [ -72.585206, 41.314232 ], [ -72.584885, 41.312934 ], [ -72.586565, 41.312936 ], [ -72.588574, 41.3117 ], [ -72.585657, 41.309852 ], [ -72.586157, 41.309151 ], [ -72.585599, 41.307348 ], [ -72.582502, 41.306386 ], [ -72.581123, 41.304932 ], [ -72.581822, 41.303902 ], [ -72.579875, 41.304002 ], [ -72.57634, 41.302425 ], [ -72.575953, 41.300921 ], [ -72.573448, 41.299175 ], [ -72.570702, 41.298004 ], [ -72.571739, 41.297565 ], [ -72.569977, 41.296646 ], [ -72.570808, 41.295776 ], [ -72.570146, 41.294419 ], [ -72.567559, 41.294174 ], [ -72.565628, 41.292393 ], [ -72.564556, 41.28986 ], [ -72.564628, 41.289519 ], [ -72.563934, 41.288698 ], [ -72.561132, 41.2875 ], [ -72.557434, 41.283695 ], [ -72.557236, 41.281992 ], [ -72.555028, 41.280608 ], [ -72.551128, 41.280583 ], [ -72.548894, 41.281855 ], [ -72.545986, 41.280335 ], [ -72.548046, 41.277415 ], [ -72.546253, 41.275977 ], [ -72.544339, 41.273697 ], [ -72.547035, 41.2716 ], [ -72.54636, 41.267398 ], [ -72.547655, 41.264323 ], [ -72.547235, 41.262499 ], [ -72.545837, 41.260304 ], [ -72.53633, 41.2548111 ], [ -72.536032, 41.25753 ], [ -72.533247, 41.26269 ], [ -72.529416, 41.264421 ], [ -72.5218959, 41.2655151 ], [ -72.521312, 41.2656 ], [ -72.51802, 41.257762 ], [ -72.514529, 41.258529 ], [ -72.51031, 41.256613 ], [ -72.506974, 41.256896 ], [ -72.507133, 41.260147 ], [ -72.499534, 41.265866 ], [ -72.4862274, 41.2706874 ], [ -72.485693, 41.270881 ], [ -72.472539, 41.270103 ], [ -72.471938, 41.2699552 ], [ -72.4710241, 41.2697305 ], [ -72.468102, 41.269012 ], [ -72.462256, 41.274484 ], [ -72.451925, 41.278885 ], [ -72.437966, 41.278737 ], [ -72.4311009, 41.2760567 ], [ -72.426161, 41.274128 ], [ -72.421679, 41.275074 ], [ -72.417699, 41.278435 ], [ -72.4166552, 41.2782926 ], [ -72.405718, 41.276801 ], [ -72.398688, 41.278172 ], [ -72.3981542, 41.2774472 ], [ -72.39457010000001, 41.2725806 ], [ -72.3889711, 41.2649781 ], [ -72.386629, 41.261798 ], [ -72.378573, 41.264575 ], [ -72.367617, 41.263529 ], [ -72.3640139, 41.2654603 ], [ -72.3599757, 41.2676248 ], [ -72.359063, 41.268114 ], [ -72.348101, 41.270141 ], [ -72.34261, 41.268846 ], [ -72.343972, 41.2720509 ], [ -72.345513, 41.275677 ], [ -72.3456681, 41.2760411 ], [ -72.3477368, 41.2808995 ], [ -72.349316, 41.284608 ], [ -72.356446, 41.291216 ], [ -72.3562146, 41.2993768 ], [ -72.356208, 41.299609 ], [ -72.350504, 41.31175 ], [ -72.3490379, 41.3115555 ], [ -72.346463, 41.311214 ], [ -72.34171, 41.296394 ], [ -72.333894, 41.282916 ], [ -72.3292853, 41.2796557 ], [ -72.327595, 41.27846 ], [ -72.31776, 41.277782 ], [ -72.298804, 41.27892 ], [ -72.284687, 41.280805 ], [ -72.2801917, 41.282988 ], [ -72.27798, 41.284062 ], [ -72.268805, 41.28443 ], [ -72.261487, 41.282926 ], [ -72.251323, 41.289997 ], [ -72.2512594, 41.2903427 ], [ -72.250515, 41.294386 ], [ -72.251895, 41.29862 ], [ -72.2488104, 41.299337 ], [ -72.25062, 41.304718 ], [ -72.25328, 41.309535 ], [ -72.254139, 41.309787 ], [ -72.254816, 41.310309 ], [ -72.254739, 41.312529 ], [ -72.25603, 41.315592 ], [ -72.258045, 41.32284 ], [ -72.257961, 41.32362 ], [ -72.25721, 41.324242 ], [ -72.256402, 41.3259 ], [ -72.259312, 41.329686 ], [ -72.261332, 41.333998 ], [ -72.265093, 41.339274 ], [ -72.266311, 41.342211 ], [ -72.270718, 41.350446 ], [ -72.274504, 41.356092 ], [ -72.276725, 41.366297 ], [ -72.27794, 41.375284 ], [ -72.277906, 41.376308 ], [ -72.279247, 41.388206 ], [ -72.280032, 41.39168 ], [ -72.282154, 41.405899 ], [ -72.281281, 41.411197 ], [ -72.281005, 41.412865 ], [ -72.280446, 41.414473 ], [ -72.27995, 41.418597 ], [ -72.279099, 41.421809 ], [ -72.279061, 41.426057 ], [ -72.278538, 41.429633 ], [ -72.277596, 41.433377 ], [ -72.276636, 41.440449 ], [ -72.286577, 41.439074 ], [ -72.304868, 41.432728 ], [ -72.305531, 41.436282 ], [ -72.312537, 41.478411 ], [ -72.315246, 41.478091 ], [ -72.321848, 41.512221 ], [ -72.322931, 41.518119 ], [ -72.323394, 41.53425 ], [ -72.344566, 41.532417 ], [ -72.344985, 41.532456 ], [ -72.358576, 41.531436 ], [ -72.361634, 41.530818 ], [ -72.374528, 41.529909 ], [ -72.381298, 41.529229 ], [ -72.383057, 41.529 ], [ -72.430767, 41.524567 ], [ -72.432675, 41.527946 ], [ -72.443946, 41.546422 ], [ -72.446853, 41.550377 ], [ -72.446554, 41.550657 ], [ -72.447945, 41.552864 ], [ -72.448737, 41.553534 ], [ -72.449059, 41.553937 ], [ -72.45185, 41.558567 ], [ -72.46673, 41.583899 ], [ -72.469042, 41.587316 ], [ -72.474342, 41.595157 ], [ -72.476921, 41.599987 ], [ -72.481537, 41.607741 ], [ -72.481842, 41.60818 ], [ -72.504875, 41.645534 ], [ -72.505431, 41.646999 ], [ -72.521832, 41.645499 ], [ -72.532132, 41.643999 ], [ -72.534583, 41.643879 ], [ -72.54423, 41.642696 ], [ -72.559926, 41.640955 ], [ -72.577189, 41.639002 ], [ -72.605047, 41.635977 ], [ -72.630524, 41.633282 ], [ -72.627836, 41.640199 ], [ -72.634036, 41.639199 ], [ -72.647136, 41.637199 ], [ -72.648764, 41.637097 ], [ -72.650837, 41.636899 ], [ -72.67587, 41.633095 ], [ -72.675884, 41.633093 ], [ -72.688425, 41.631399 ], [ -72.713897, 41.627705 ], [ -72.7155, 41.625573 ], [ -72.715527, 41.622821 ], [ -72.713287, 41.620839 ], [ -72.713079, 41.619286 ], [ -72.711274, 41.617693 ], [ -72.712567, 41.616684 ], [ -72.713644, 41.610736 ], [ -72.7151, 41.608074 ], [ -72.715924, 41.606424 ], [ -72.714538, 41.60431 ], [ -72.727041, 41.602398 ], [ -72.72994, 41.601498 ], [ -72.73167, 41.595803 ], [ -72.74284, 41.594398 ], [ -72.752941, 41.592497 ], [ -72.752181, 41.578894 ] ] ] ] } },
{ "type": "Feature", "properties": { "STATEFP": "09", "COUNTYFP": "190", "COUNTYNS": "02830254", "GEOIDFQ": "0500000US09190", "GEOID": "09190", "NAME": "Western Connecticut", "NAMELSAD": "Western Connecticut Planning Region", "STUSPS": "CT", "STATE_NAME": "Connecticut", "LSAD": "PL", "ALAND": 1378202959.0, "AWATER": 300184873.0, "STATE_NAME_HYPHEN": "Connecticut" }, "geometry": { "type": "MultiPolygon", "coordinates": [ [ [ [ -73.369775, 41.088802 ], [ -73.363767, 41.083626 ], [ -73.360141, 41.08202 ], [ -73.357664, 41.081973 ], [ -73.355089, 41.083483 ], [ -73.354231, 41.085639 ], [ -73.353754, 41.087508 ], [ -73.356901, 41.087077 ], [ -73.358808, 41.086645 ], [ -73.360334, 41.085711 ], [ -73.361764, 41.087508 ], [ -73.364244, 41.088945 ], [ -73.369775, 41.088802 ] ] ], [ [ [ -73.395238, 41.064431 ], [ -73.391805, 41.061411 ], [ -73.387227, 41.058247 ], [ -73.386178, 41.058391 ], [ -73.385797, 41.059757 ], [ -73.38799, 41.061052 ], [ -73.389993, 41.064287 ], [ -73.386655, 41.066301 ], [ -73.383889, 41.069248 ], [ -73.3835825, 41.0694191 ], [ -73.381314, 41.070686 ], [ -73.381887, 41.072196 ], [ -73.383662, 41.0725003 ], [ -73.388181, 41.073275 ], [ -73.392281, 41.07083 ], [ -73.394189, 41.067379 ], [ -73.395238, 41.064431 ] ] ], [ [ [ -73.422165, 41.047562 ], [ -73.409542, 41.052998 ], [ -73.406077, 41.052361 ], [ -73.401532, 41.053717 ], [ -73.401055, 41.0576 ], [ -73.399148, 41.06098 ], [ -73.399815, 41.062418 ], [ -73.404774, 41.06213 ], [ -73.416886, 41.053932 ], [ -73.422165, 41.047562 ] ] ], [ [ [ -73.612528, 40.987474 ], [ -73.609634, 40.988742 ], [ -73.608233, 40.989659 ], [ -73.607569, 40.990397 ], [ -73.608327, 40.990786 ], [ -73.609727, 40.990786 ], [ -73.611501, 40.990011 ], [ -73.613369, 40.988883 ], [ -73.612528, 40.987474 ] ] ], [ [ [ -73.630081, 40.980144 ], [ -73.628968, 40.980685 ], [ -73.627841, 40.981483 ], [ -73.626813, 40.981906 ], [ -73.625127, 40.981213 ], [ -73.623609, 40.982138 ], [ -73.622799, 40.982047 ], [ -73.621865, 40.98247 ], [ -73.622717, 40.984559 ], [ -73.623765, 40.984696 ], [ -73.626647, 40.983049 ], [ -73.62948, 40.983646 ], [ -73.630573, 40.980707 ], [ -73.630081, 40.980144 ] ] ], [ [ [ -73.644725, 40.995606 ], [ -73.642594, 40.991597 ], [ -73.64141, 40.99061 ], [ -73.640819, 40.989236 ], [ -73.639147, 40.989542 ], [ -73.639509, 40.991329 ], [ -73.637457, 40.992196 ], [ -73.637667, 40.993249 ], [ -73.638435, 40.994092 ], [ -73.639325, 40.994028 ], [ -73.640451, 40.99464 ], [ -73.642966, 40.997833 ], [ -73.644289, 40.998289 ], [ -73.644485, 40.997605 ], [ -73.645767, 40.996001 ], [ -73.644725, 40.995606 ] ] ], [ [ [ -73.722575, 41.093596 ], [ -73.7178152, 41.0885856 ], [ -73.716875, 41.087596 ], [ -73.7061631, 41.0741836 ], [ -73.694273, 41.059296 ], [ -73.694263, 41.0592839 ], [ -73.6924348, 41.0570697 ], [ -73.687173, 41.050697 ], [ -73.679973, 41.041797 ], [ -73.6757864, 41.0366414 ], [ -73.6756502, 41.036473699999988 ], [ -73.6722428, 41.0322776 ], [ -73.670472, 41.030097 ], [ -73.6665587, 41.0252807 ], [ -73.6665545, 41.0252754 ], [ -73.6664391, 41.0251335 ], [ -73.662672, 41.020497 ], [ -73.660413, 41.0183522 ], [ -73.658679, 41.016706 ], [ -73.656117, 41.013135 ], [ -73.6556679, 41.0126719 ], [ -73.6556623, 41.0126661 ], [ -73.655255, 41.012246 ], [ -73.655241, 41.011852 ], [ -73.656065, 41.008923 ], [ -73.6579246, 41.0051892 ], [ -73.6585107, 41.0040124 ], [ -73.6585173, 41.0039992 ], [ -73.660268, 41.000484 ], [ -73.659309, 40.997171 ], [ -73.6595007, 40.9955259 ], [ -73.659639, 40.994339 ], [ -73.657228, 40.990914 ], [ -73.659005, 40.988857 ], [ -73.657783, 40.9876 ], [ -73.65676, 40.987666 ], [ -73.6519565, 40.9941707 ], [ -73.651175, 40.995229 ], [ -73.6487831, 40.9968339 ], [ -73.643653, 41.000276 ], [ -73.6422682, 41.0013205 ], [ -73.6410127, 41.0022674 ], [ -73.639885, 41.003118 ], [ -73.627086, 41.001809 ], [ -73.624943, 41.00647 ], [ -73.619487, 41.0077143 ], [ -73.614722, 41.008801 ], [ -73.603952, 41.015054 ], [ -73.5967421, 41.0158761 ], [ -73.595699, 41.015995 ], [ -73.593191, 41.012413 ], [ -73.5876581, 41.0076522 ], [ -73.587645, 41.007641 ], [ -73.5876072, 41.0076084 ], [ -73.585115, 41.005464 ], [ -73.583968, 41.000897 ], [ -73.570068, 41.001597 ], [ -73.567668, 41.010897 ], [ -73.5639458, 41.0147498 ], [ -73.561968, 41.016797 ], [ -73.557168, 41.017158 ], [ -73.55644, 41.020776 ], [ -73.5528705, 41.0233452 ], [ -73.551494, 41.024336 ], [ -73.547436, 41.022881 ], [ -73.544845, 41.025838 ], [ -73.5399031, 41.0289995 ], [ -73.5388063, 41.0297012 ], [ -73.5369334, 41.0308993 ], [ -73.5366682, 41.031069 ], [ -73.535338, 41.03192 ], [ -73.5344099, 41.0318291 ], [ -73.532786, 41.03167 ], [ -73.530189, 41.028776 ], [ -73.531215, 41.02245 ], [ -73.530353, 41.017281 ], [ -73.5292497, 41.0171023 ], [ -73.529081, 41.017075 ], [ -73.5270328, 41.019635699999988 ], [ -73.526967, 41.019718 ], [ -73.524391, 41.02019 ], [ -73.5241672, 41.020166 ], [ -73.52306, 41.020047 ], [ -73.519238, 41.024312 ], [ -73.518262, 41.028964 ], [ -73.517013, 41.030054 ], [ -73.518496, 41.031379 ], [ -73.5200459, 41.0316365 ], [ -73.52115, 41.03182 ], [ -73.5228496, 41.0356634 ], [ -73.523292, 41.036664 ], [ -73.5222799, 41.0372072 ], [ -73.5211989, 41.0377873 ], [ -73.517279, 41.039891 ], [ -73.507958, 41.038503 ], [ -73.505968, 41.042801 ], [ -73.501063, 41.044886 ], [ -73.500582, 41.046716 ], [ -73.4957563, 41.047679699999989 ], [ -73.493947, 41.048041 ], [ -73.490744, 41.0444314 ], [ -73.490473, 41.044126 ], [ -73.49141, 41.042742 ], [ -73.4886, 41.040799 ], [ -73.486804, 41.042242 ], [ -73.486063, 41.046127 ], [ -73.4842487, 41.0461768 ], [ -73.482823, 41.046216 ], [ -73.479086, 41.036582 ], [ -73.477366, 41.036397 ], [ -73.475998, 41.043915 ], [ -73.470242, 41.047197 ], [ -73.470028, 41.048331 ], [ -73.474383, 41.049262 ], [ -73.474032, 41.05085 ], [ -73.469575, 41.050744 ], [ -73.467153, 41.052359 ], [ -73.467258, 41.054767 ], [ -73.468311, 41.05482 ], [ -73.470487, 41.054105 ], [ -73.471508, 41.055079 ], [ -73.470474, 41.056181 ], [ -73.468977, 41.060079 ], [ -73.466731, 41.061128 ], [ -73.464661, 41.060748 ], [ -73.463959, 41.059904 ], [ -73.465173, 41.058725 ], [ -73.4650248, 41.0584566 ], [ -73.46483, 41.058104 ], [ -73.46319, 41.058337 ], [ -73.4630914, 41.0583708 ], [ -73.4625825, 41.0585452 ], [ -73.4616767, 41.0588557 ], [ -73.459397, 41.059637 ], [ -73.457817, 41.058975 ], [ -73.458905, 41.05654 ], [ -73.461502, 41.054476 ], [ -73.461713, 41.053629 ], [ -73.459572, 41.052544 ], [ -73.454202, 41.05437 ], [ -73.453641, 41.057149 ], [ -73.451394, 41.057916 ], [ -73.450482, 41.05699 ], [ -73.446519, 41.0580763 ], [ -73.445849, 41.05826 ], [ -73.442796, 41.057493 ], [ -73.440841, 41.055863 ], [ -73.438152, 41.055515 ], [ -73.435063, 41.056696 ], [ -73.43325, 41.055808 ], [ -73.4219964, 41.0642269 ], [ -73.412932, 41.071008 ], [ -73.408416, 41.071008 ], [ -73.407228, 41.075488 ], [ -73.40785, 41.081115 ], [ -73.405632, 41.082261 ], [ -73.4025953, 41.0859121 ], [ -73.402474, 41.086058 ], [ -73.398196, 41.081938 ], [ -73.392967, 41.082117 ], [ -73.392162, 41.087696 ], [ -73.387732, 41.091337 ], [ -73.383662, 41.089798 ], [ -73.381028, 41.088802 ], [ -73.379693, 41.090455 ], [ -73.3826495, 41.0951802 ], [ -73.382787, 41.0954 ], [ -73.3822798, 41.0954057 ], [ -73.3794821, 41.095437 ], [ -73.3722144, 41.0955183 ], [ -73.369199, 41.095552 ], [ -73.365396, 41.097343 ], [ -73.368011, 41.101642 ], [ -73.3680613, 41.1028165 ], [ -73.368249, 41.107194 ], [ -73.3573074, 41.1038609 ], [ -73.357078, 41.103791 ], [ -73.352931, 41.1017396 ], [ -73.352671, 41.101611 ], [ -73.3526336, 41.1016877 ], [ -73.350351, 41.106377 ], [ -73.347220300000018, 41.107586 ], [ -73.3470345, 41.1076577 ], [ -73.336409, 41.111761 ], [ -73.3310756, 41.1101236 ], [ -73.3309572, 41.1100872 ], [ -73.33066, 41.109996 ], [ -73.32497, 41.113433 ], [ -73.320875, 41.115265 ], [ -73.3195378, 41.1153618 ], [ -73.319286, 41.11538 ], [ -73.317665, 41.116196 ], [ -73.31546, 41.116605 ], [ -73.31363, 41.116769 ], [ -73.311267, 41.116475 ], [ -73.310792, 41.115748 ], [ -73.309602, 41.114947 ], [ -73.309101, 41.114804 ], [ -73.308513, 41.115507 ], [ -73.30664, 41.116522 ], [ -73.29861, 41.120207 ], [ -73.299003, 41.124719 ], [ -73.2987463, 41.1247856 ], [ -73.297251, 41.12604 ], [ -73.296534, 41.129695 ], [ -73.297182, 41.132141 ], [ -73.296127, 41.133675 ], [ -73.297193, 41.135967 ], [ -73.296786, 41.136355 ], [ -73.297866, 41.138293 ], [ -73.29895, 41.140649 ], [ -73.298013, 41.143011 ], [ -73.298811, 41.144807 ], [ -73.303387, 41.145854 ], [ -73.304253, 41.148981 ], [ -73.305982, 41.149484 ], [ -73.3046, 41.151912 ], [ -73.306021, 41.152769 ], [ -73.306937, 41.15233 ], [ -73.32227, 41.172457 ], [ -73.323295, 41.17372 ], [ -73.32441, 41.175477 ], [ -73.328644, 41.180986 ], [ -73.338457, 41.194539 ], [ -73.337707, 41.196832 ], [ -73.333426, 41.1991 ], [ -73.332976, 41.200966 ], [ -73.333296, 41.202855 ], [ -73.332359, 41.204019 ], [ -73.330735, 41.208318 ], [ -73.328908, 41.210003 ], [ -73.330311, 41.211233 ], [ -73.329014, 41.213425 ], [ -73.325674, 41.216213 ], [ -73.325916, 41.218151 ], [ -73.325341, 41.220296 ], [ -73.323634, 41.221922 ], [ -73.32483, 41.224471 ], [ -73.325845, 41.224659 ], [ -73.326746, 41.226733 ], [ -73.32581, 41.227228 ], [ -73.331364, 41.233466 ], [ -73.332666, 41.234505 ], [ -73.336789, 41.240163 ], [ -73.341432, 41.245625 ], [ -73.347528, 41.251965 ], [ -73.368811, 41.274975 ], [ -73.342143, 41.284769 ], [ -73.327644, 41.290159 ], [ -73.309872, 41.295981 ], [ -73.304798, 41.297764 ], [ -73.305871, 41.298897 ], [ -73.314218, 41.308199 ], [ -73.31547, 41.308429 ], [ -73.315997, 41.31092 ], [ -73.317935, 41.311928 ], [ -73.318692, 41.313905 ], [ -73.320372, 41.315387 ], [ -73.325287, 41.322474 ], [ -73.305999, 41.332358 ], [ -73.301858, 41.334456 ], [ -73.26827, 41.351464 ], [ -73.261292, 41.355006 ], [ -73.256172, 41.357441 ], [ -73.229076, 41.370324 ], [ -73.229007, 41.370303 ], [ -73.228117, 41.368813 ], [ -73.229488, 41.36721 ], [ -73.227776, 41.365051 ], [ -73.225336, 41.365342 ], [ -73.223326, 41.36422 ], [ -73.21903, 41.364495 ], [ -73.213294, 41.367919 ], [ -73.211199, 41.367721 ], [ -73.206614, 41.370166 ], [ -73.204828, 41.370475 ], [ -73.202136, 41.372237 ], [ -73.201311, 41.373941 ], [ -73.202029, 41.375179 ], [ -73.202294, 41.378005 ], [ -73.203578, 41.379162 ], [ -73.201075, 41.38102 ], [ -73.198011, 41.382734 ], [ -73.194898, 41.388529 ], [ -73.191748, 41.388934 ], [ -73.190426, 41.388258 ], [ -73.187733, 41.388926 ], [ -73.183269, 41.391711 ], [ -73.187957, 41.397296 ], [ -73.187557, 41.399596 ], [ -73.185357, 41.402196 ], [ -73.184857, 41.406296 ], [ -73.186557, 41.408596 ], [ -73.190257, 41.410296 ], [ -73.196757, 41.411396 ], [ -73.199757, 41.413196 ], [ -73.201557, 41.415796 ], [ -73.207688, 41.420544 ], [ -73.211835, 41.42277 ], [ -73.214435, 41.42507 ], [ -73.217135, 41.42837 ], [ -73.218235, 41.42907 ], [ -73.226479, 41.430309 ], [ -73.229969, 41.429124 ], [ -73.235911, 41.426153 ], [ -73.236771, 41.426187 ], [ -73.238411, 41.426253 ], [ -73.242289, 41.429841 ], [ -73.242344, 41.436072 ], [ -73.244334, 41.439558 ], [ -73.245259, 41.439895 ], [ -73.24752, 41.439193 ], [ -73.247977, 41.439005 ], [ -73.25119, 41.437772 ], [ -73.25695, 41.433852 ], [ -73.259205, 41.433329 ], [ -73.263678, 41.434532 ], [ -73.265857, 41.437073 ], [ -73.267493, 41.443581 ], [ -73.270243, 41.448005 ], [ -73.273696, 41.451645 ], [ -73.278253, 41.452635 ], [ -73.283195, 41.451612 ], [ -73.287798, 41.450315 ], [ -73.291263, 41.448108 ], [ -73.293948, 41.447355 ], [ -73.298403, 41.448916 ], [ -73.300073, 41.452479 ], [ -73.300793, 41.455903 ], [ -73.29986, 41.458434 ], [ -73.299833, 41.460783 ], [ -73.298313, 41.464767 ], [ -73.298265, 41.467631 ], [ -73.299593, 41.470111 ], [ -73.300601, 41.470847 ], [ -73.302761, 41.471439 ], [ -73.305033, 41.471151 ], [ -73.310473, 41.468815 ], [ -73.312777, 41.469935 ], [ -73.320906, 41.477007 ], [ -73.322666, 41.480767 ], [ -73.326458, 41.483839 ], [ -73.32705, 41.484879 ], [ -73.326842, 41.485967 ], [ -73.324874, 41.489567 ], [ -73.326842, 41.492703 ], [ -73.325508, 41.495306 ], [ -73.323114, 41.497903 ], [ -73.321197, 41.500727 ], [ -73.320519, 41.503981 ], [ -73.318889, 41.505189 ], [ -73.330311, 41.504409 ], [ -73.332457, 41.511806 ], [ -73.332987, 41.513494 ], [ -73.33475, 41.522375 ], [ -73.336439, 41.533782 ], [ -73.338674, 41.541081 ], [ -73.339248, 41.544512 ], [ -73.341043, 41.549572 ], [ -73.341216, 41.550681 ], [ -73.343067, 41.565855 ], [ -73.348619, 41.595183 ], [ -73.348935, 41.596522 ], [ -73.356407, 41.629975 ], [ -73.35694, 41.63383 ], [ -73.359079, 41.646521 ], [ -73.359384, 41.646951 ], [ -73.370412, 41.655286 ], [ -73.374194, 41.657461 ], [ -73.37613, 41.658197 ], [ -73.377858, 41.658984 ], [ -73.380507, 41.671646 ], [ -73.382124, 41.683327 ], [ -73.453239, 41.675002 ], [ -73.45666, 41.674983 ], [ -73.469463, 41.673249 ], [ -73.504075, 41.669103 ], [ -73.506923, 41.665802 ], [ -73.510379, 41.666498 ], [ -73.516019, 41.665964 ], [ -73.5182376, 41.666734 ], [ -73.520017, 41.641197 ], [ -73.5200737, 41.64001 ], [ -73.521038300000015, 41.619829 ], [ -73.521041, 41.619773 ], [ -73.5274191, 41.5543534 ], [ -73.5274208, 41.5543356 ], [ -73.530067, 41.527194 ], [ -73.5306605, 41.5199686 ], [ -73.5308864, 41.5172191 ], [ -73.5324066, 41.4987126 ], [ -73.5324178, 41.4985771 ], [ -73.5330885, 41.4904122 ], [ -73.533969, 41.479693 ], [ -73.534055, 41.478968 ], [ -73.5340643, 41.4788794 ], [ -73.53415, 41.47806 ], [ -73.534269, 41.476911 ], [ -73.534269, 41.476394 ], [ -73.534369, 41.475894 ], [ -73.5347598, 41.4706637 ], [ -73.535769, 41.457159 ], [ -73.535857, 41.455709 ], [ -73.535885, 41.455236 ], [ -73.5358943, 41.4550348 ], [ -73.535986, 41.45306 ], [ -73.536067, 41.451331 ], [ -73.5362156, 41.4496447 ], [ -73.536969, 41.441094 ], [ -73.5371023, 41.4397069 ], [ -73.5372748, 41.4379113 ], [ -73.537469, 41.43589 ], [ -73.537673, 41.433905 ], [ -73.541169, 41.405994 ], [ -73.5423795, 41.3902341 ], [ -73.5424698, 41.3890586 ], [ -73.5434149, 41.3767541 ], [ -73.543425, 41.376622 ], [ -73.5436193, 41.375094 ], [ -73.5437227, 41.374281 ], [ -73.544707, 41.36654 ], [ -73.544728, 41.366375 ], [ -73.5452425, 41.3615175 ], [ -73.548111, 41.334435 ], [ -73.548587, 41.3299416 ], [ -73.548973, 41.326297 ], [ -73.5495266, 41.3167487 ], [ -73.549574, 41.315931 ], [ -73.548929, 41.307598 ], [ -73.5493781, 41.3049068 ], [ -73.5499012, 41.3017726 ], [ -73.550961, 41.295422 ], [ -73.548875, 41.2929437 ], [ -73.5481484, 41.2920805 ], [ -73.5405371, 41.2830379 ], [ -73.5262869, 41.266108 ], [ -73.5251606, 41.2647699 ], [ -73.518384, 41.256719 ], [ -73.5174274, 41.2555403 ], [ -73.5025525, 41.2372113 ], [ -73.482709, 41.21276 ], [ -73.4849112, 41.2117776 ], [ -73.4940081, 41.2077193 ], [ -73.4959359, 41.2068593 ], [ -73.5039466, 41.2032856 ], [ -73.5091828, 41.2009497 ], [ -73.5091865, 41.2009481 ], [ -73.509487, 41.200814 ], [ -73.5125931, 41.199373 ], [ -73.514617, 41.198434 ], [ -73.5359273, 41.1885826 ], [ -73.535996, 41.1885508 ], [ -73.5546501, 41.1799273 ], [ -73.5647587, 41.1752543 ], [ -73.564941, 41.17517 ], [ -73.5791541, 41.1687733 ], [ -73.5861738, 41.1656141 ], [ -73.587454100000016, 41.1650379 ], [ -73.5970699, 41.1607103 ], [ -73.6144646, 41.152881699999988 ], [ -73.6288149, 41.1464233 ], [ -73.632153, 41.144921 ], [ -73.633975, 41.1440908 ], [ -73.639672, 41.141495 ], [ -73.6605044, 41.1318479 ], [ -73.6684334, 41.1281761 ], [ -73.6959489, 41.1154341 ], [ -73.696006, 41.1154077 ], [ -73.7122926, 41.1078656 ], [ -73.727775, 41.100696 ], [ -73.722575, 41.093596 ] ] ] ] } },
{ "type": "Feature", "properties": { "STATEFP": "09", "COUNTYFP": "150", "COUNTYNS": "02830250", "GEOIDFQ": "0500000US09150", "GEOID": "09150", "NAME": "Northeastern Connecticut", "NAMELSAD": "Northeastern Connecticut Planning Region", "STUSPS": "CT", "STATE_NAME": "Connecticut", "LSAD": "PL", "ALAND": 1434581261.0, "AWATER": 23987846.0, "STATE_NAME_HYPHEN": "Connecticut" }, "geometry": { "type": "MultiPolygon", "coordinates": [ [ [ [ -72.234898, 41.957583 ], [ -72.21698, 41.958161 ], [ -72.21726, 41.949353 ], [ -72.21665, 41.918662 ], [ -72.216306, 41.892818 ], [ -72.216456, 41.888062 ], [ -72.2169, 41.884464 ], [ -72.2171, 41.8723 ], [ -72.217719, 41.835184 ], [ -72.200292, 41.835046 ], [ -72.169019, 41.834902 ], [ -72.166006, 41.834883 ], [ -72.164498, 41.834913 ], [ -72.163211, 41.822222 ], [ -72.163218, 41.822034 ], [ -72.159342, 41.781159 ], [ -72.157856, 41.765646 ], [ -72.156719, 41.753719 ], [ -72.156321, 41.753491 ], [ -72.150738, 41.752842 ], [ -72.122521, 41.748768 ], [ -72.112045, 41.745897 ], [ -72.122489, 41.712754 ], [ -72.121099, 41.697452 ], [ -72.119677, 41.664443 ], [ -72.119957, 41.663301 ], [ -72.119773, 41.661834 ], [ -72.11, 41.660224 ], [ -72.103523, 41.659305 ], [ -72.092407, 41.657189 ], [ -72.062051, 41.652239 ], [ -72.055659, 41.651239 ], [ -72.031216, 41.647242 ], [ -72.01492, 41.644588 ], [ -71.991753, 41.640801 ], [ -71.975253, 41.638117 ], [ -71.954983, 41.634799 ], [ -71.951936, 41.634328 ], [ -71.936549, 41.635883 ], [ -71.909061, 41.638666 ], [ -71.884422, 41.641204 ], [ -71.88387, 41.630022 ], [ -71.874971, 41.578886 ], [ -71.874268, 41.572758 ], [ -71.871821, 41.559919 ], [ -71.863408, 41.514926 ], [ -71.847305, 41.512934 ], [ -71.841191, 41.511856 ], [ -71.831579, 41.510763 ], [ -71.823172, 41.509564 ], [ -71.7935683, 41.5057531 ], [ -71.7925957, 41.526801 ], [ -71.7917036, 41.5461059 ], [ -71.7905085, 41.5719702 ], [ -71.7893587, 41.5968522 ], [ -71.789356, 41.59691 ], [ -71.7878552, 41.6344504 ], [ -71.7876366, 41.6399171 ], [ -71.786994, 41.655992 ], [ -71.7869989, 41.6561174 ], [ -71.7886475, 41.6983421 ], [ -71.789678, 41.724734 ], [ -71.7896921, 41.7251983 ], [ -71.7901063, 41.7388279 ], [ -71.791059300000015, 41.7701827 ], [ -71.791062, 41.770273 ], [ -71.7912581, 41.7744965 ], [ -71.7926566, 41.8046236 ], [ -71.792767, 41.807001 ], [ -71.792786, 41.80867 ], [ -71.7931573, 41.8171692 ], [ -71.794161, 41.840141 ], [ -71.794161, 41.841101 ], [ -71.7944824, 41.8491579 ], [ -71.7946918, 41.8544085 ], [ -71.7966878, 41.9044516 ], [ -71.7971589, 41.916264 ], [ -71.7976528, 41.9286465 ], [ -71.7978013, 41.9323677 ], [ -71.797922, 41.935395 ], [ -71.7988269, 41.9852115 ], [ -71.7988654, 41.9873339 ], [ -71.799242, 42.008065 ], [ -71.80065, 42.023569 ], [ -71.8045666, 42.0236037 ], [ -71.8416471, 42.0239324 ], [ -71.8457122, 42.0239685 ], [ -71.8603968, 42.0240987 ], [ -71.8659515, 42.0241479 ], [ -71.8773966, 42.0242494 ], [ -71.8828331, 42.0242976 ], [ -71.8839478, 42.0243074 ], [ -71.89078, 42.024368 ], [ -71.9010881, 42.0246362 ], [ -71.9208829, 42.0251512 ], [ -71.9209864, 42.0251539 ], [ -71.952327, 42.0259694 ], [ -71.9630193, 42.0262476 ], [ -71.987326, 42.02688 ], [ -71.9931021, 42.0269154 ], [ -72.0100397, 42.0270193 ], [ -72.0100444, 42.0270193 ], [ -72.0345788, 42.0271697 ], [ -72.063496, 42.027347 ], [ -72.0997253, 42.0288014 ], [ -72.1021688, 42.0288995 ], [ -72.135687, 42.030245 ], [ -72.135715, 42.0302453 ], [ -72.1432303, 42.0303365 ], [ -72.150088, 42.0304197 ], [ -72.1988321, 42.031011 ], [ -72.2050808, 42.0310868 ], [ -72.214894, 42.000095 ], [ -72.21642, 41.996418 ], [ -72.223283, 41.981666 ], [ -72.234898, 41.957583 ] ] ] ] } },
{ "type": "Feature", "properties": { "STATEFP": "09", "COUNTYFP": "120", "COUNTYNS": "02830245", "GEOIDFQ": "0500000US09120", "GEOID": "09120", "NAME": "Greater Bridgeport", "NAMELSAD": "Greater Bridgeport Planning Region", "STUSPS": "CT", "STATE_NAME": "Connecticut", "LSAD": "PL", "ALAND": 363067866.0, "AWATER": 253764138.0, "STATE_NAME_HYPHEN": "Connecticut" }, "geometry": { "type": "MultiPolygon", "coordinates": [ [ [ [ -73.217629, 41.142354 ], [ -73.216689, 41.141968 ], [ -73.215269, 41.142644 ], [ -73.214987, 41.144473 ], [ -73.216107, 41.144466 ], [ -73.217168, 41.143906 ], [ -73.217629, 41.142354 ] ] ], [ [ [ -73.347528, 41.251965 ], [ -73.341432, 41.245625 ], [ -73.336789, 41.240163 ], [ -73.332666, 41.234505 ], [ -73.331364, 41.233466 ], [ -73.32581, 41.227228 ], [ -73.326746, 41.226733 ], [ -73.325845, 41.224659 ], [ -73.32483, 41.224471 ], [ -73.323634, 41.221922 ], [ -73.325341, 41.220296 ], [ -73.325916, 41.218151 ], [ -73.325674, 41.216213 ], [ -73.329014, 41.213425 ], [ -73.330311, 41.211233 ], [ -73.328908, 41.210003 ], [ -73.330735, 41.208318 ], [ -73.332359, 41.204019 ], [ -73.333296, 41.202855 ], [ -73.332976, 41.200966 ], [ -73.333426, 41.1991 ], [ -73.337707, 41.196832 ], [ -73.338457, 41.194539 ], [ -73.328644, 41.180986 ], [ -73.32441, 41.175477 ], [ -73.323295, 41.17372 ], [ -73.32227, 41.172457 ], [ -73.306937, 41.15233 ], [ -73.306021, 41.152769 ], [ -73.3046, 41.151912 ], [ -73.305982, 41.149484 ], [ -73.304253, 41.148981 ], [ -73.303387, 41.145854 ], [ -73.298811, 41.144807 ], [ -73.298013, 41.143011 ], [ -73.29895, 41.140649 ], [ -73.297866, 41.138293 ], [ -73.296786, 41.136355 ], [ -73.297193, 41.135967 ], [ -73.296127, 41.133675 ], [ -73.297182, 41.132141 ], [ -73.296534, 41.129695 ], [ -73.297251, 41.12604 ], [ -73.2987463, 41.1247856 ], [ -73.286759, 41.127896 ], [ -73.28626, 41.1277566 ], [ -73.278752, 41.125659 ], [ -73.275116, 41.121093 ], [ -73.2675748, 41.1193748 ], [ -73.262388, 41.118193 ], [ -73.260268, 41.1196674 ], [ -73.252619, 41.124987 ], [ -73.2430017, 41.1280537 ], [ -73.242565, 41.128193 ], [ -73.2378387, 41.1381423 ], [ -73.2354744, 41.143119299999988 ], [ -73.235058, 41.143996 ], [ -73.2348456, 41.1439679 ], [ -73.227569, 41.143006 ], [ -73.222653, 41.148308 ], [ -73.223781, 41.150143 ], [ -73.221345, 41.151306 ], [ -73.219741, 41.15332 ], [ -73.217510300000015, 41.152872 ], [ -73.217067, 41.152783 ], [ -73.21651, 41.148687 ], [ -73.21551, 41.14845 ], [ -73.209402, 41.154751 ], [ -73.202656, 41.158096 ], [ -73.186186, 41.159287 ], [ -73.184359, 41.164421 ], [ -73.1815928, 41.1653771 ], [ -73.177774, 41.166697 ], [ -73.175855, 41.1662217 ], [ -73.170701, 41.164945 ], [ -73.172196, 41.159074 ], [ -73.1647956, 41.1569079 ], [ -73.1378607, 41.149023799999988 ], [ -73.130253, 41.146797 ], [ -73.1131343, 41.1503632 ], [ -73.111052, 41.150797 ], [ -73.10302, 41.151412 ], [ -73.10109, 41.154141 ], [ -73.107039, 41.155529 ], [ -73.1089093, 41.1578819 ], [ -73.110352, 41.159697 ], [ -73.1080084, 41.1687517 ], [ -73.112152, 41.171397 ], [ -73.119853, 41.175697 ], [ -73.121453, 41.177597 ], [ -73.121997, 41.178927 ], [ -73.122453, 41.182897 ], [ -73.121366, 41.187444 ], [ -73.120753, 41.188497 ], [ -73.116233, 41.192586 ], [ -73.115353, 41.193497 ], [ -73.110572, 41.20027 ], [ -73.109253, 41.204097 ], [ -73.109453, 41.204797 ], [ -73.110653, 41.207797 ], [ -73.11034, 41.213294 ], [ -73.110253, 41.213996 ], [ -73.108353, 41.218296 ], [ -73.110453, 41.225296 ], [ -73.110553, 41.227396 ], [ -73.109953, 41.229396 ], [ -73.107553, 41.232496 ], [ -73.104952, 41.236595 ], [ -73.101573, 41.240088 ], [ -73.093402, 41.244617 ], [ -73.091414, 41.246262 ], [ -73.091215, 41.246411 ], [ -73.08735, 41.251792 ], [ -73.086752, 41.254596 ], [ -73.090872, 41.257082 ], [ -73.094558, 41.256214 ], [ -73.095265, 41.258052 ], [ -73.098359, 41.25928 ], [ -73.103076, 41.259612 ], [ -73.102952, 41.261643 ], [ -73.104616, 41.263556 ], [ -73.107081, 41.264074 ], [ -73.106049, 41.26705 ], [ -73.108295, 41.268582 ], [ -73.113576, 41.266824 ], [ -73.120241, 41.264679 ], [ -73.143896, 41.257159 ], [ -73.146882, 41.255367 ], [ -73.147367, 41.256222 ], [ -73.155266, 41.269087 ], [ -73.155573, 41.269096 ], [ -73.164912, 41.268795 ], [ -73.173596, 41.268606 ], [ -73.178639, 41.272636 ], [ -73.179032, 41.273731 ], [ -73.190988, 41.285799 ], [ -73.198299, 41.293093 ], [ -73.200807, 41.294944 ], [ -73.2048, 41.29936 ], [ -73.20336, 41.301292 ], [ -73.189779, 41.319581 ], [ -73.189299, 41.320431 ], [ -73.188163, 41.321934 ], [ -73.184718, 41.326495 ], [ -73.180615, 41.332973 ], [ -73.178877, 41.334744 ], [ -73.176814, 41.337587 ], [ -73.170657, 41.357934 ], [ -73.17058, 41.357898 ], [ -73.159442, 41.372914 ], [ -73.15965, 41.374905 ], [ -73.157055, 41.376696 ], [ -73.158832, 41.379684 ], [ -73.158656, 41.383396 ], [ -73.161253, 41.383853 ], [ -73.166556, 41.383196 ], [ -73.171588, 41.383887 ], [ -73.172662, 41.383442 ], [ -73.173356, 41.383596 ], [ -73.181168, 41.389611 ], [ -73.183269, 41.391711 ], [ -73.187733, 41.388926 ], [ -73.190426, 41.388258 ], [ -73.191748, 41.388934 ], [ -73.194898, 41.388529 ], [ -73.198011, 41.382734 ], [ -73.201075, 41.38102 ], [ -73.203578, 41.379162 ], [ -73.202294, 41.378005 ], [ -73.202029, 41.375179 ], [ -73.201311, 41.373941 ], [ -73.202136, 41.372237 ], [ -73.204828, 41.370475 ], [ -73.206614, 41.370166 ], [ -73.211199, 41.367721 ], [ -73.213294, 41.367919 ], [ -73.21903, 41.364495 ], [ -73.223326, 41.36422 ], [ -73.225336, 41.365342 ], [ -73.227776, 41.365051 ], [ -73.229488, 41.36721 ], [ -73.228117, 41.368813 ], [ -73.229007, 41.370303 ], [ -73.229076, 41.370324 ], [ -73.256172, 41.357441 ], [ -73.261292, 41.355006 ], [ -73.26827, 41.351464 ], [ -73.301858, 41.334456 ], [ -73.305999, 41.332358 ], [ -73.325287, 41.322474 ], [ -73.320372, 41.315387 ], [ -73.318692, 41.313905 ], [ -73.317935, 41.311928 ], [ -73.315997, 41.31092 ], [ -73.31547, 41.308429 ], [ -73.314218, 41.308199 ], [ -73.305871, 41.298897 ], [ -73.304798, 41.297764 ], [ -73.309872, 41.295981 ], [ -73.327644, 41.290159 ], [ -73.342143, 41.284769 ], [ -73.368811, 41.274975 ], [ -73.347528, 41.251965 ] ] ] ] } },
{ "type": "Feature", "properties": { "STATEFP": "09", "COUNTYFP": "160", "COUNTYNS": "02830251", "GEOIDFQ": "0500000US09160", "GEOID": "09160", "NAME": "Northwest Hills", "NAMELSAD": "Northwest Hills Planning Region", "STUSPS": "CT", "STATE_NAME": "Connecticut", "LSAD": "PL", "ALAND": 2037392865.0, "AWATER": 55597912.0, "STATE_NAME_HYPHEN": "Connecticut" }, "geometry": { "type": "MultiPolygon", "coordinates": [ [ [ [ -73.5182376, 41.666734 ], [ -73.516019, 41.665964 ], [ -73.510379, 41.666498 ], [ -73.506923, 41.665802 ], [ -73.504075, 41.669103 ], [ -73.469463, 41.673249 ], [ -73.45666, 41.674983 ], [ -73.453239, 41.675002 ], [ -73.382124, 41.683327 ], [ -73.380507, 41.671646 ], [ -73.377858, 41.658984 ], [ -73.37613, 41.658197 ], [ -73.374194, 41.657461 ], [ -73.370412, 41.655286 ], [ -73.359384, 41.646951 ], [ -73.359079, 41.646521 ], [ -73.35694, 41.63383 ], [ -73.356407, 41.629975 ], [ -73.348935, 41.596522 ], [ -73.348619, 41.595183 ], [ -73.343067, 41.565855 ], [ -73.341216, 41.550681 ], [ -73.341043, 41.549572 ], [ -73.339248, 41.544512 ], [ -73.338674, 41.541081 ], [ -73.336439, 41.533782 ], [ -73.33475, 41.522375 ], [ -73.332987, 41.513494 ], [ -73.332457, 41.511806 ], [ -73.330311, 41.504409 ], [ -73.318889, 41.505189 ], [ -73.30739, 41.506064 ], [ -73.254471, 41.511999 ], [ -73.252265, 41.512134 ], [ -73.25401, 41.518902 ], [ -73.258027, 41.536936 ], [ -73.260904, 41.557223 ], [ -73.261198, 41.562607 ], [ -73.266536, 41.597215 ], [ -73.267336, 41.603199 ], [ -73.253509, 41.604532 ], [ -73.259172, 41.647036 ], [ -73.261446, 41.664641 ], [ -73.232462, 41.665998 ], [ -73.231631, 41.666183 ], [ -73.224726, 41.666527 ], [ -73.207988, 41.667363 ], [ -73.195295, 41.668197 ], [ -73.184279, 41.66856 ], [ -73.170756, 41.669196 ], [ -73.167122, 41.669661 ], [ -73.142031, 41.672294 ], [ -73.141531, 41.672709 ], [ -73.141354, 41.672749 ], [ -73.138736, 41.674102 ], [ -73.134716, 41.675557 ], [ -73.121726, 41.681871 ], [ -73.117748, 41.684009 ], [ -73.115318, 41.684919 ], [ -73.105985, 41.689372 ], [ -73.099265, 41.692685 ], [ -73.086845, 41.698091 ], [ -73.083702, 41.699271 ], [ -73.076701, 41.703024 ], [ -73.068402, 41.707093 ], [ -73.062917, 41.707578 ], [ -73.055262, 41.70816 ], [ -73.036879, 41.710195 ], [ -72.99895, 41.714398 ], [ -72.99855, 41.712498 ], [ -72.978934, 41.71459 ], [ -72.971476, 41.715618 ], [ -72.95927, 41.716682 ], [ -72.94809, 41.717601 ], [ -72.944088, 41.718082 ], [ -72.943081, 41.718836 ], [ -72.930485, 41.719841 ], [ -72.926951, 41.720376 ], [ -72.914476, 41.721513 ], [ -72.905025, 41.722177 ], [ -72.89827, 41.723177 ], [ -72.89983, 41.732046 ], [ -72.902002, 41.739571 ], [ -72.902625, 41.743569 ], [ -72.90289, 41.745336 ], [ -72.904246, 41.750236 ], [ -72.904927, 41.75809 ], [ -72.90848, 41.776043 ], [ -72.917652, 41.777739 ], [ -72.919023, 41.778299 ], [ -72.920328, 41.779381 ], [ -72.922256, 41.783047 ], [ -72.923087, 41.785217 ], [ -72.924946, 41.787785 ], [ -72.924542, 41.789574 ], [ -72.924659, 41.792615 ], [ -72.925523, 41.798702 ], [ -72.92688, 41.799805 ], [ -72.928104, 41.80284 ], [ -72.927414, 41.803707 ], [ -72.924253, 41.804794 ], [ -72.921391, 41.805194 ], [ -72.921183, 41.807117 ], [ -72.924133, 41.808723 ], [ -72.925901, 41.809161 ], [ -72.949024, 41.806431 ], [ -72.939559, 41.83169 ], [ -72.936502, 41.840263 ], [ -72.939095, 41.842506 ], [ -72.942245, 41.843445 ], [ -72.946526, 41.843628 ], [ -72.951187, 41.842697 ], [ -72.953651, 41.84668 ], [ -72.95364, 41.853919 ], [ -72.946342, 41.874027 ], [ -72.946178, 41.877234 ], [ -72.943894, 41.884815 ], [ -72.940647, 41.895196 ], [ -72.915346, 41.896797 ], [ -72.906645, 41.920196 ], [ -72.905945, 41.921696 ], [ -72.902968, 41.931361 ], [ -72.902244, 41.931995 ], [ -72.88706, 41.973121 ], [ -72.88661, 41.974527 ], [ -72.886558, 41.974725 ], [ -72.879489, 41.99421 ], [ -72.878714, 41.995878 ], [ -72.877615, 41.998991 ], [ -72.87762, 42.000161 ], [ -72.874543, 42.008822 ], [ -72.873001, 42.011628 ], [ -72.863819, 42.035383 ], [ -72.8636384, 42.0377092 ], [ -72.863733, 42.03771 ], [ -72.9242297, 42.03813 ], [ -72.9789786, 42.0385102 ], [ -72.999549, 42.038653 ], [ -73.0087643, 42.0388603 ], [ -73.053254, 42.039861 ], [ -73.0532881, 42.039862 ], [ -73.1272775, 42.041964199999988 ], [ -73.1721253, 42.0432384 ], [ -73.229798, 42.044877 ], [ -73.231056, 42.044945 ], [ -73.23295920000001, 42.0450062 ], [ -73.2333632, 42.0450192 ], [ -73.293097, 42.04694 ], [ -73.29442, 42.046984 ], [ -73.29633, 42.0470337 ], [ -73.3256266, 42.0477965 ], [ -73.3277308, 42.0478512 ], [ -73.3405304, 42.0481845 ], [ -73.4261682, 42.050414 ], [ -73.432812, 42.050587 ], [ -73.4367542, 42.0505184 ], [ -73.487314, 42.049638 ], [ -73.4882238, 42.0300472 ], [ -73.489615, 42.000092 ], [ -73.492975, 41.958524 ], [ -73.4934845, 41.9533395 ], [ -73.496527, 41.92238 ], [ -73.4965646, 41.9217471 ], [ -73.498304, 41.892508 ], [ -73.4994594, 41.8818986 ], [ -73.5009101, 41.868578 ], [ -73.5009108, 41.8685713 ], [ -73.501984, 41.858717 ], [ -73.504944, 41.824285 ], [ -73.5049921, 41.8239 ], [ -73.505008, 41.823773 ], [ -73.5079602, 41.7915268 ], [ -73.510961, 41.758749 ], [ -73.5110186, 41.7576799 ], [ -73.5115449, 41.747917 ], [ -73.5119065, 41.7412091 ], [ -73.511921, 41.740941 ], [ -73.5159915, 41.6962864 ], [ -73.5165908, 41.6897117 ], [ -73.516785, 41.687581 ], [ -73.5179501, 41.6708608 ], [ -73.5182376, 41.666734 ] ] ] ] } }
]
}
