{
"type": "FeatureCollection",
"name": "DC_counties_2023",
"crs": { "type": "name", "properties": { "name": "urn:ogc:def:crs:EPSG::4269" } },
"features": [
{ "type": "Feature", "properties": { "STATEFP": "11", "COUNTYFP": "001", "COUNTYNS": "01702382", "GEOIDFQ": "0500000US11001", "GEOID": "11001", "NAME": "District of Columbia", "NAMELSAD": "District of Columbia", "STUSPS": "DC", "STATE_NAME": "District of Columbia", "LSAD": "00", "ALAND": 158316184.0, "AWATER": 18709787.0 }, "geometry": { "type": "MultiPolygon", "coordinates": [ [ [ [ -77.119759, 38.934343 ], [ -77.112531800026701, 38.940058356319398 ], [ -77.112478301097397, 38.940100663913597 ], [ -77.1045, 38.94641 ], [ -77.101277750604197, 38.948529900918302 ], [ -77.1007, 38.94891 ], [ -77.100526969660194, 38.949052938106803 ], [ -77.098089871993395, 38.951066192701099 ], [ -77.093866059016406, 38.954555429508197 ], [ -77.0915, 38.95651 ], [ -77.091399387458097, 38.956587350573898 ], [ -77.091355285244902, 38.956621256202702 ], [ -77.087664362389205, 38.959458824915103 ], [ -77.085812268288393, 38.9608827084474 ], [ -77.085780121691698, 38.9609074226397 ], [ -77.083839171090702, 38.9623996187416 ], [ -77.082706082725593, 38.9632707331536 ], [ -77.0822402534113, 38.963628861117598 ], [ -77.0804181742635, 38.965029669257902 ], [ -77.077441665345106, 38.967317999008898 ], [ -77.077436698207094, 38.967321817727402 ], [ -77.071640984008695, 38.971777542736803 ], [ -77.068951003066402, 38.973845590771802 ], [ -77.066690519618703, 38.9755834426199 ], [ -77.062564652888398, 38.9787553946774 ], [ -77.054299, 38.98511 ], [ -77.052937499620796, 38.986133684495698 ], [ -77.052220061432394, 38.986673111705002 ], [ -77.0516625043104, 38.987092327586197 ], [ -77.046541251074402, 38.990942893929002 ], [ -77.042388998663696, 38.994064888222802 ], [ -77.040999, 38.99511 ], [ -77.036769251411599, 38.992050181872202 ], [ -77.036461350189299, 38.991827444817801 ], [ -77.036299, 38.99171 ], [ -77.033707359689103, 38.989731935321302 ], [ -77.031234921812796, 38.987844851680599 ], [ -77.026696218486805, 38.984380694753398 ], [ -77.026634552895203, 38.984333628604602 ], [ -77.026590704025907, 38.984300161036103 ], [ -77.020536715098601, 38.979679465173596 ], [ -77.018706497583295, 38.978282555036799 ], [ -77.018654553432199, 38.978242908759398 ], [ -77.0173231309697, 38.977226703025003 ], [ -77.015598, 38.97591 ], [ -77.013798, 38.97441 ], [ -77.011056734099299, 38.972266828477601 ], [ -77.008589274640102, 38.9703377238095 ], [ -77.008298, 38.97011 ], [ -77.007774574197001, 38.969685844607902 ], [ -77.003692677193598, 38.966378100484498 ], [ -77.002601759533803, 38.965494081001602 ], [ -77.002589220168701, 38.9654839197919 ], [ -77.002498, 38.96541 ], [ -77.001649914165299, 38.964754464201398 ], [ -76.999124025830696, 38.962802055425001 ], [ -76.997492710321396, 38.961541114997097 ], [ -76.997364490213499, 38.961442006077498 ], [ -76.991892520544198, 38.957212396454601 ], [ -76.989517122313103, 38.955376310397199 ], [ -76.987925151061006, 38.954145781477202 ], [ -76.985936949582396, 38.952608982734901 ], [ -76.978434328903006, 38.946809762611103 ], [ -76.977826303142507, 38.946339783469597 ], [ -76.974499674140304, 38.943768434779798 ], [ -76.973746208817303, 38.943186036781803 ], [ -76.968158917514103, 38.938867288234199 ], [ -76.966831323513205, 38.937841112158601 ], [ -76.963435789814099, 38.935216502945401 ], [ -76.963430253918403, 38.9352122239235 ], [ -76.961374166883601, 38.933622952411902 ], [ -76.958798975852005, 38.931632434659399 ], [ -76.957718618064106, 38.930797362103803 ], [ -76.957617148646307, 38.9307189303778 ], [ -76.956050960924699, 38.929508331076399 ], [ -76.943863881898693, 38.920088215498701 ], [ -76.941921067989597, 38.918586499498403 ], [ -76.941920456206901, 38.918586026615301 ], [ -76.941444504182499, 38.918218135091003 ], [ -76.935096, 38.913311 ], [ -76.931724405319002, 38.9106218315098 ], [ -76.9316368067784, 38.910551963314703 ], [ -76.931251468051201, 38.910244618908997 ], [ -76.923529268146595, 38.904085427599597 ], [ -76.923451063194094, 38.904023051687297 ], [ -76.9199019174646, 38.901192269293297 ], [ -76.913413374932105, 38.896017037458897 ], [ -76.912868951119094, 38.895582807516803 ], [ -76.910955802208093, 38.894056888699403 ], [ -76.910528841588302, 38.893716346862703 ], [ -76.909395, 38.892812 ], [ -76.910795, 38.891712 ], [ -76.912763855740593, 38.8901832414249 ], [ -76.913262575757599, 38.889796 ], [ -76.913303391762398, 38.889764307572698 ], [ -76.918535662710696, 38.885701603071702 ], [ -76.918550521543906, 38.885690065624701 ], [ -76.919295, 38.885112 ], [ -76.920195, 38.884412 ], [ -76.920825111103696, 38.883918607691399 ], [ -76.920980221810296, 38.883797152238301 ], [ -76.923972437651798, 38.8814541745108 ], [ -76.924034950179802, 38.881405225682002 ], [ -76.9298866240579, 38.876823222814899 ], [ -76.931247264631097, 38.875757808176701 ], [ -76.933718878799695, 38.873822474211899 ], [ -76.933804814136295, 38.873755184754799 ], [ -76.934971325738701, 38.872841777818898 ], [ -76.935944196395397, 38.872079996449799 ], [ -76.939490143742304, 38.869303433495602 ], [ -76.943641272331604, 38.866052998920097 ], [ -76.946701967384399, 38.8636564003058 ], [ -76.946746183955099, 38.863621777656299 ], [ -76.949696, 38.861312 ], [ -76.949860966442898, 38.861196523489902 ], [ -76.953696, 38.858512 ], [ -76.958140102774607, 38.854946520854497 ], [ -76.958148964388798, 38.854939411230298 ], [ -76.961941486243504, 38.851896691863203 ], [ -76.963472206273096, 38.850668603625799 ], [ -76.965438274117801, 38.849091238237399 ], [ -76.966570510714703, 38.848182851060301 ], [ -76.970809393601897, 38.844782018698503 ], [ -76.970851731409496, 38.844748051308997 ], [ -76.972326515878294, 38.843564839863603 ], [ -76.972937771182004, 38.843074433104697 ], [ -76.979497, 38.837812 ], [ -76.982490980881394, 38.835634786175703 ], [ -76.984969314303896, 38.833832549620901 ], [ -76.987330649544404, 38.8321153937896 ], [ -76.989040541131402, 38.830871965809003 ], [ -76.991343739779794, 38.829197086731398 ], [ -76.992697, 38.828213 ], [ -76.992802935577501, 38.828121576145399 ], [ -76.995947329318099, 38.825407921273403 ], [ -76.997942934824707, 38.823685686384202 ], [ -76.998458490566094, 38.823240754716998 ], [ -76.999130853194202, 38.822660496558399 ], [ -76.999997, 38.821913 ], [ -77.001084509433994, 38.821602283018898 ], [ -77.001397, 38.821513 ], [ -77.001481076298305, 38.821446228991 ], [ -77.001491820919298, 38.821437695918 ], [ -77.001741688084394, 38.821239258509699 ], [ -77.004678508076907, 38.818906919454399 ], [ -77.015561863547006, 38.810263667541797 ], [ -77.020499452418505, 38.8063423746487 ], [ -77.021867604247106, 38.8052558273112 ], [ -77.037579715256499, 38.792777714848 ], [ -77.039006, 38.791645 ], [ -77.038992785434104, 38.792766769814001 ], [ -77.038943053789396, 38.796988433879697 ], [ -77.038929172245602, 38.798166822709703 ], [ -77.038904082038201, 38.800296702537103 ], [ -77.038898, 38.800813 ], [ -77.038800581262507, 38.801657927494098 ], [ -77.038402663949896, 38.805109124730699 ], [ -77.037999808574099, 38.808603150538801 ], [ -77.037446963170694, 38.8133980626165 ], [ -77.037356, 38.814187 ], [ -77.038098, 38.815613 ], [ -77.038788344509499, 38.819616998155098 ], [ -77.039098, 38.821413 ], [ -77.038883975818806, 38.822953760080402 ], [ -77.038098, 38.828612 ], [ -77.038560110927307, 38.830122989408103 ], [ -77.039199, 38.832212 ], [ -77.041199, 38.833712 ], [ -77.042599, 38.833812 ], [ -77.043499, 38.833212 ], [ -77.044899, 38.834712 ], [ -77.044999, 38.838512 ], [ -77.044487611898006, 38.839598699716703 ], [ -77.044199, 38.840212 ], [ -77.041699, 38.840212 ], [ -77.038549, 38.839262 ], [ -77.034541, 38.840473 ], [ -77.033372501691005, 38.844599118369104 ], [ -77.031698, 38.850512 ], [ -77.031831738380106, 38.850896512341599 ], [ -77.034004, 38.857142 ], [ -77.039299, 38.864312 ], [ -77.038899, 38.865812 ], [ -77.039099, 38.868112 ], [ -77.040599, 38.871212 ], [ -77.041092657783807, 38.871723941405399 ], [ -77.043299, 38.874012 ], [ -77.043454092682893, 38.874100624390202 ], [ -77.043780739130398, 38.8742872795031 ], [ -77.045399, 38.875212 ], [ -77.046599, 38.874912 ], [ -77.045599, 38.873012 ], [ -77.046299, 38.871312 ], [ -77.049099, 38.870712 ], [ -77.051299, 38.873212 ], [ -77.051099, 38.875212 ], [ -77.054099, 38.879112 ], [ -77.055199, 38.880012 ], [ -77.058254, 38.880069 ], [ -77.063499, 38.888611 ], [ -77.064657944525507, 38.891843845255501 ], [ -77.067299, 38.899211 ], [ -77.068199, 38.899811 ], [ -77.069371196832606, 38.900366251131203 ], [ -77.070099, 38.900711 ], [ -77.070621701792803, 38.900762833910498 ], [ -77.070667771104198, 38.900767402390301 ], [ -77.073498848472894, 38.901048147191801 ], [ -77.0783563148089, 38.901529839581102 ], [ -77.079297390379907, 38.9016231616772 ], [ -77.0822, 38.901911 ], [ -77.082839211732306, 38.902094773373001 ], [ -77.0902, 38.904211 ], [ -77.0937, 38.905911 ], [ -77.1010155931084, 38.910983144555203 ], [ -77.1012, 38.911111 ], [ -77.101644599415195, 38.911474763157898 ], [ -77.1034, 38.912911 ], [ -77.105402436072595, 38.917192070224097 ], [ -77.1063, 38.919111 ], [ -77.107360506400894, 38.920022139302198 ], [ -77.1134, 38.925211 ], [ -77.1166, 38.928911 ], [ -77.116816261811707, 38.929493243339202 ], [ -77.1179, 38.932411 ], [ -77.119759, 38.934343 ] ] ] ] } }
]
}
