{
"type": "FeatureCollection",
"name": "DE_counties_2023",
"crs": { "type": "name", "properties": { "name": "urn:ogc:def:crs:EPSG::4269" } },
"features": [
{ "type": "Feature", "properties": { "STATEFP": "10", "COUNTYFP": "001", "COUNTYNS": "00217271", "GEOIDFQ": "0500000US10001", "GEOID": "10001", "NAME": "Kent", "NAMELSAD": "Kent County", "STUSPS": "DE", "STATE_NAME": "Delaware", "LSAD": "06", "ALAND": 1517891094.0, "AWATER": 549776917.0 }, "geometry": { "type": "MultiPolygon", "coordinates": [ [ [ [ -75.760104352373006, 39.296816522472298 ], [ -75.75, 39.297474 ], [ -75.746048, 39.297531 ], [ -75.714901, 39.299366 ], [ -75.685188, 39.297089 ], [ -75.683117, 39.294578 ], [ -75.681385, 39.293205 ], [ -75.680261, 39.292496 ], [ -75.678042, 39.292477 ], [ -75.6752, 39.290498 ], [ -75.673327, 39.291027 ], [ -75.670302, 39.290891 ], [ -75.669276, 39.291397 ], [ -75.667269, 39.290417 ], [ -75.665811, 39.290567 ], [ -75.660476, 39.291672 ], [ -75.654461, 39.291184 ], [ -75.652947, 39.291949 ], [ -75.65135, 39.291589 ], [ -75.649179, 39.293151 ], [ -75.64857, 39.295026 ], [ -75.648528, 39.295193 ], [ -75.648237, 39.295729 ], [ -75.6427, 39.299107 ], [ -75.641928, 39.300891 ], [ -75.640959, 39.301318 ], [ -75.634711, 39.301652 ], [ -75.633919, 39.301591 ], [ -75.632663, 39.301251 ], [ -75.631327, 39.302521 ], [ -75.630398, 39.302672 ], [ -75.627531, 39.304438 ], [ -75.626132, 39.30413 ], [ -75.621379, 39.308755 ], [ -75.619631, 39.310058 ], [ -75.61606, 39.309735 ], [ -75.614256, 39.308307 ], [ -75.611492, 39.309295 ], [ -75.609385, 39.308801 ], [ -75.606598, 39.30809 ], [ -75.603836, 39.311182 ], [ -75.603446, 39.309094 ], [ -75.602031, 39.30811 ], [ -75.599571, 39.308442 ], [ -75.599218, 39.309737 ], [ -75.597106, 39.309554 ], [ -75.59669, 39.309751 ], [ -75.595471, 39.310081 ], [ -75.593889, 39.308417 ], [ -75.592338, 39.309948 ], [ -75.592056, 39.311252 ], [ -75.590409, 39.311746 ], [ -75.587495, 39.311009 ], [ -75.587325, 39.309699 ], [ -75.584341, 39.308718 ], [ -75.581145, 39.311131 ], [ -75.57462, 39.313434 ], [ -75.570958, 39.318845 ], [ -75.568716, 39.323523 ], [ -75.56982, 39.326577 ], [ -75.569007, 39.328744 ], [ -75.564806, 39.331936 ], [ -75.562734, 39.332104 ], [ -75.558843, 39.333334 ], [ -75.556205, 39.335325 ], [ -75.555717, 39.337066 ], [ -75.556813, 39.338169 ], [ -75.558334, 39.33923 ], [ -75.557358, 39.341501 ], [ -75.557846, 39.342764 ], [ -75.559982, 39.343466 ], [ -75.560519, 39.345067 ], [ -75.5588, 39.346549 ], [ -75.557378, 39.349101 ], [ -75.55619, 39.348287 ], [ -75.555886, 39.346743 ], [ -75.554223, 39.345404 ], [ -75.551599, 39.345105 ], [ -75.55104, 39.345568 ], [ -75.551096, 39.349483 ], [ -75.552242, 39.350157 ], [ -75.553841, 39.349938 ], [ -75.554683, 39.351506 ], [ -75.553369, 39.35301 ], [ -75.551626, 39.35394 ], [ -75.549645, 39.353855 ], [ -75.548131, 39.352921 ], [ -75.54811, 39.351713 ], [ -75.545216, 39.350763 ], [ -75.544056, 39.351363 ], [ -75.543263, 39.353236 ], [ -75.541586, 39.354366 ], [ -75.539867, 39.353887 ], [ -75.53899, 39.351954 ], [ -75.535849, 39.350617 ], [ -75.534484, 39.351389 ], [ -75.534278, 39.353332 ], [ -75.531914, 39.354595 ], [ -75.528696, 39.35343 ], [ -75.527259, 39.354675 ], [ -75.528673, 39.356782 ], [ -75.528453, 39.358305 ], [ -75.525877, 39.359642 ], [ -75.523254, 39.359712 ], [ -75.52142, 39.358607 ], [ -75.519628, 39.360066 ], [ -75.516897, 39.360988 ], [ -75.515975, 39.364363 ], [ -75.512372082394805, 39.3656561384634 ], [ -75.511788, 39.365191 ], [ -75.505276, 39.359169 ], [ -75.494158, 39.354613 ], [ -75.491797, 39.351845 ], [ -75.494122, 39.34658 ], [ -75.493148, 39.345527 ], [ -75.491688, 39.343963 ], [ -75.490377, 39.342818 ], [ -75.479432, 39.33902 ], [ -75.479963, 39.336577 ], [ -75.469324, 39.33082 ], [ -75.460423, 39.328236 ], [ -75.45537, 39.324729 ], [ -75.452811, 39.318429 ], [ -75.448058, 39.315487 ], [ -75.439027, 39.313384 ], [ -75.436936, 39.309379 ], [ -75.437593, 39.298388 ], [ -75.435193, 39.294632 ], [ -75.434775, 39.290593 ], [ -75.417763, 39.273224 ], [ -75.416093, 39.269507 ], [ -75.413275, 39.268456 ], [ -75.408996, 39.264133 ], [ -75.406178, 39.258113 ], [ -75.409363, 39.251103 ], [ -75.408992545228003, 39.246270303605499 ], [ -75.408745, 39.243041 ], [ -75.405037, 39.240316 ], [ -75.407026, 39.225737 ], [ -75.406366696415304, 39.223565354491903 ], [ -75.405937, 39.22215 ], [ -75.399264, 39.21582 ], [ -75.399264, 39.208962 ], [ -75.397085, 39.20453 ], [ -75.397766, 39.193977 ], [ -75.3994, 39.191022 ], [ -75.400144, 39.186456 ], [ -75.408266, 39.174625 ], [ -75.410267, 39.169145 ], [ -75.409563, 39.164521 ], [ -75.410225036896506, 39.159362473334703 ], [ -75.410625, 39.156246 ], [ -75.413357, 39.153296 ], [ -75.412406, 39.147582 ], [ -75.407528, 39.134096 ], [ -75.408128, 39.12251 ], [ -75.399809, 39.099088 ], [ -75.403136, 39.078611 ], [ -75.402035, 39.066885 ], [ -75.4009969889253, 39.066145692859003 ], [ -75.400737769930004, 39.065961068186901 ], [ -75.400294, 39.065645 ], [ -75.400117806230199, 39.065392408485998 ], [ -75.395806, 39.059211 ], [ -75.396005926475794, 39.058647725194497 ], [ -75.396277, 39.057884 ], [ -75.387914, 39.051174 ], [ -75.379873, 39.04879 ], [ -75.376041, 39.044838 ], [ -75.371562, 39.04296 ], [ -75.360116, 39.032838 ], [ -75.357980247237805, 39.031650412541303 ], [ -75.345763, 39.024857 ], [ -75.34089, 39.01996 ], [ -75.318354, 38.988191 ], [ -75.314951, 38.980775 ], [ -75.311607, 38.967637 ], [ -75.312546, 38.951065 ], [ -75.312546, 38.94928 ], [ -75.311922561612604, 38.945916812795801 ], [ -75.314294, 38.947283 ], [ -75.313379, 38.949417 ], [ -75.313534, 38.95043 ], [ -75.316686, 38.952913 ], [ -75.319381, 38.953685 ], [ -75.321266, 38.953455 ], [ -75.322202, 38.951826 ], [ -75.324635, 38.94971 ], [ -75.326288, 38.949007 ], [ -75.328103, 38.949007 ], [ -75.33027, 38.950487 ], [ -75.332444, 38.950707 ], [ -75.33326, 38.948897 ], [ -75.334997, 38.947315 ], [ -75.338704, 38.946264 ], [ -75.343516, 38.947439 ], [ -75.342174, 38.951435 ], [ -75.343238, 38.954694 ], [ -75.344061, 38.955269 ], [ -75.345173, 38.955234 ], [ -75.345967, 38.953443 ], [ -75.349236, 38.949711 ], [ -75.349341, 38.948098 ], [ -75.350213, 38.947438 ], [ -75.352774, 38.947925 ], [ -75.354358, 38.949966 ], [ -75.356842, 38.952342 ], [ -75.356907, 38.95418 ], [ -75.358977, 38.95581 ], [ -75.360153, 38.957559 ], [ -75.361025, 38.957533 ], [ -75.364428, 38.954486 ], [ -75.366208, 38.953935 ], [ -75.368314, 38.95756 ], [ -75.367886, 38.95958 ], [ -75.372131, 38.961436 ], [ -75.376851, 38.960552 ], [ -75.380649, 38.961873 ], [ -75.381339, 38.961285 ], [ -75.381517, 38.958761 ], [ -75.382525, 38.955906 ], [ -75.389005, 38.954672 ], [ -75.390664, 38.95678 ], [ -75.393212, 38.95574 ], [ -75.393134, 38.95414 ], [ -75.393615, 38.952846 ], [ -75.395424, 38.9511 ], [ -75.398344, 38.949906 ], [ -75.400716, 38.947717 ], [ -75.4009, 38.945819 ], [ -75.399719, 38.944471 ], [ -75.398525, 38.94074 ], [ -75.399834, 38.938929 ], [ -75.402873, 38.937472 ], [ -75.400321, 38.935548 ], [ -75.397887, 38.936187 ], [ -75.398613, 38.933517 ], [ -75.400176, 38.93139 ], [ -75.40095, 38.929481 ], [ -75.399109, 38.92691 ], [ -75.399883, 38.925574 ], [ -75.402155, 38.925007 ], [ -75.403351, 38.922773 ], [ -75.401735, 38.920269 ], [ -75.401413, 38.918355 ], [ -75.402507, 38.917559 ], [ -75.402774, 38.917422 ], [ -75.404831, 38.917451 ], [ -75.40561, 38.919408 ], [ -75.408922, 38.919703 ], [ -75.408818, 38.916824 ], [ -75.410463, 38.916418 ], [ -75.410646, 38.917458 ], [ -75.412565, 38.917992 ], [ -75.416679, 38.918031 ], [ -75.418423, 38.916745 ], [ -75.416947, 38.915521 ], [ -75.418318, 38.914263 ], [ -75.41983, 38.915416 ], [ -75.421581, 38.915517 ], [ -75.422073, 38.914042 ], [ -75.423458, 38.91424 ], [ -75.424692, 38.913418 ], [ -75.428404, 38.913206 ], [ -75.430096, 38.913351 ], [ -75.431697, 38.912117 ], [ -75.434048, 38.910817 ], [ -75.44039, 38.913128 ], [ -75.443717, 38.913077 ], [ -75.443988, 38.913074 ], [ -75.446064, 38.912768 ], [ -75.449628, 38.912065 ], [ -75.456385, 38.909809 ], [ -75.460575, 38.909382 ], [ -75.465153, 38.91131 ], [ -75.477222, 38.905841 ], [ -75.479626, 38.905593 ], [ -75.481636, 38.904197 ], [ -75.484125, 38.904448 ], [ -75.484819, 38.903753 ], [ -75.485657, 38.903617 ], [ -75.488156, 38.898983 ], [ -75.487732, 38.895493 ], [ -75.488026, 38.892784 ], [ -75.490453, 38.889664 ], [ -75.491565, 38.888525 ], [ -75.494383, 38.887882 ], [ -75.49778, 38.882127 ], [ -75.501771, 38.88088 ], [ -75.503337, 38.881617 ], [ -75.508168, 38.878951 ], [ -75.5089, 38.876927 ], [ -75.509168, 38.875766 ], [ -75.516306, 38.864002 ], [ -75.517764, 38.861012 ], [ -75.520439, 38.855742 ], [ -75.53518, 38.850368 ], [ -75.536234, 38.84989 ], [ -75.535968, 38.847616 ], [ -75.53958, 38.843634 ], [ -75.541336, 38.842864 ], [ -75.544026, 38.84337 ], [ -75.548726, 38.841077 ], [ -75.551016, 38.838719 ], [ -75.553173, 38.837402 ], [ -75.555013, 38.835649 ], [ -75.582418, 38.834638 ], [ -75.615422, 38.833616 ], [ -75.722599091852899, 38.829859371810699 ], [ -75.72261, 38.830008 ], [ -75.722882, 38.833156 ], [ -75.724002, 38.846682 ], [ -75.724004070351896, 38.8467205646906 ], [ -75.724061, 38.847781 ], [ -75.724642346539099, 38.855655076029898 ], [ -75.725565, 38.868152 ], [ -75.725829, 38.869296 ], [ -75.727917769336599, 38.895475660524802 ], [ -75.730919261490399, 38.933094963083697 ], [ -75.732815091980598, 38.956856418106497 ], [ -75.7328559079955, 38.957367986998399 ], [ -75.738627647560094, 39.029708278378301 ], [ -75.739545482423495, 39.041211992417402 ], [ -75.739737995958706, 39.043624867265997 ], [ -75.741922911678103, 39.071009581703201 ], [ -75.741923074436897, 39.071011621646598 ], [ -75.742626276108496, 39.079825223377497 ], [ -75.743811, 39.094674 ], [ -75.7442989120932, 39.099661682603603 ], [ -75.745378254413694, 39.110695262198199 ], [ -75.745793, 39.114935 ], [ -75.745804906636806, 39.115130406786598 ], [ -75.746121, 39.120318 ], [ -75.747668, 39.143306 ], [ -75.747671065221795, 39.143345057971302 ], [ -75.749356, 39.164815 ], [ -75.750426375562, 39.173103368661501 ], [ -75.750895207303401, 39.1767337302378 ], [ -75.751028, 39.177762 ], [ -75.751450556598897, 39.183613100471398 ], [ -75.752591951784396, 39.199417889520198 ], [ -75.752593183003, 39.199434938086 ], [ -75.755953, 39.245958 ], [ -75.755962094757095, 39.246069420536401 ], [ -75.756941778457104, 39.258071597416098 ], [ -75.760104352373006, 39.296816522472298 ] ] ] ] } },
{ "type": "Feature", "properties": { "STATEFP": "10", "COUNTYFP": "003", "COUNTYNS": "00217270", "GEOIDFQ": "0500000US10003", "GEOID": "10003", "NAME": "New Castle", "NAMELSAD": "New Castle County", "STUSPS": "DE", "STATE_NAME": "Delaware", "LSAD": "06", "ALAND": 1104206939.0, "AWATER": 175316802.0 }, "geometry": { "type": "MultiPolygon", "coordinates": [ [ [ [ -75.567522, 39.510205 ], [ -75.564766, 39.515949 ], [ -75.562578, 39.519112 ], [ -75.561325, 39.519471 ], [ -75.560378, 39.518553 ], [ -75.561438, 39.515523 ], [ -75.565454, 39.509407 ], [ -75.566813, 39.509189 ], [ -75.567522, 39.510205 ] ] ], [ [ [ -75.570798, 39.626768 ], [ -75.565278584693303, 39.628980408553701 ], [ -75.563682293867004, 39.629620267539202 ], [ -75.563189, 39.629818 ], [ -75.559446, 39.629812 ], [ -75.558895, 39.628767 ], [ -75.559537, 39.624934 ], [ -75.558705, 39.617933 ], [ -75.557184, 39.613149 ], [ -75.556889, 39.610442 ], [ -75.55617, 39.606386 ], [ -75.558454, 39.605576 ], [ -75.562005, 39.605745 ], [ -75.567641, 39.613802 ], [ -75.571054, 39.621318 ], [ -75.570798, 39.626768 ] ] ], [ [ [ -75.579709, 39.597892 ], [ -75.578216, 39.598474 ], [ -75.5778211733506, 39.598234003915799 ], [ -75.575154930952607, 39.596613323710898 ], [ -75.573682, 39.595718 ], [ -75.57287, 39.594454 ], [ -75.570774, 39.594091 ], [ -75.565823, 39.590608 ], [ -75.564883, 39.588983 ], [ -75.567689, 39.58573 ], [ -75.569311, 39.585268 ], [ -75.572118, 39.58586 ], [ -75.575426, 39.58812 ], [ -75.57916, 39.594705 ], [ -75.579709, 39.597892 ] ] ], [ [ [ -75.788655461480403, 39.659572794876603 ], [ -75.788633203644807, 39.671513063759001 ], [ -75.788616, 39.680742 ], [ -75.788658, 39.681911 ], [ -75.788603655611993, 39.685655183687999 ], [ -75.788580374480603, 39.687259191678201 ], [ -75.788571706359093, 39.687856402177701 ], [ -75.788479176698303, 39.694231449529298 ], [ -75.788466537961099, 39.695102224881801 ], [ -75.788440848261303, 39.696872176826297 ], [ -75.788395, 39.700031 ], [ -75.788395, 39.700287 ], [ -75.788397612045898, 39.700571751992896 ], [ -75.788596, 39.722199 ], [ -75.773786, 39.7222 ], [ -75.766058, 39.737811 ], [ -75.765879181413396, 39.7381059004001 ], [ -75.760346, 39.747231 ], [ -75.760101611338101, 39.747580126659898 ], [ -75.759213751756704, 39.7488484974904 ], [ -75.754465906040295, 39.755631134228203 ], [ -75.753066, 39.757631 ], [ -75.751436564661006, 39.759552050150603 ], [ -75.744394, 39.767855 ], [ -75.739323559097897, 39.772924799480002 ], [ -75.736489, 39.775759 ], [ -75.727049, 39.784126 ], [ -75.724866264384801, 39.785830612575602 ], [ -75.719334567355901, 39.790150604541097 ], [ -75.716969, 39.791998 ], [ -75.705787295543004, 39.799523888007101 ], [ -75.701208, 39.802606 ], [ -75.694562318409197, 39.806295473488802 ], [ -75.685991, 39.811054 ], [ -75.681556895087297, 39.8129861819327 ], [ -75.680794056787803, 39.813318592285803 ], [ -75.662822, 39.82115 ], [ -75.658153907097201, 39.822730499160102 ], [ -75.641518, 39.828363 ], [ -75.634812797602507, 39.830135764168801 ], [ -75.634706, 39.830164 ], [ -75.617251, 39.833999 ], [ -75.595756, 39.837156 ], [ -75.594845838142504, 39.837286209758602 ], [ -75.593666, 39.837455 ], [ -75.593081736886703, 39.837500288108401 ], [ -75.5798996512343, 39.838522073860297 ], [ -75.579849, 39.838526 ], [ -75.579393994741096, 39.838549319928603 ], [ -75.577168336454704, 39.838663389362303 ], [ -75.570464, 39.839007 ], [ -75.551321578591896, 39.838517335900697 ], [ -75.540886412062505, 39.838250403817803 ], [ -75.540058275462201, 39.838229220042003 ], [ -75.539734010265505, 39.838220925321998 ], [ -75.539346, 39.838211 ], [ -75.532798029037707, 39.8376157868707 ], [ -75.528189353554595, 39.837196856461297 ], [ -75.518817615088295, 39.836344961758101 ], [ -75.518444, 39.836311 ], [ -75.498986133173801, 39.833333899718802 ], [ -75.498981970202493, 39.833333262774197 ], [ -75.498843, 39.833312 ], [ -75.481242, 39.829112 ], [ -75.475487002818895, 39.827408101611098 ], [ -75.472677629082398, 39.826576322336003 ], [ -75.472547501842001, 39.826537795193701 ], [ -75.463341, 39.823812 ], [ -75.459926448380202, 39.822567241050997 ], [ -75.459817544683105, 39.822527540713601 ], [ -75.458058097664093, 39.821886142466902 ], [ -75.457734116797894, 39.821768036745397 ], [ -75.4549971840311, 39.820770300604998 ], [ -75.45374, 39.820312 ], [ -75.449874383721607, 39.8186425446778 ], [ -75.437307916589802, 39.8132154267429 ], [ -75.437068354901101, 39.813111966516303 ], [ -75.433908519013798, 39.8117473186932 ], [ -75.428038, 39.809212 ], [ -75.423416, 39.806615 ], [ -75.468502, 39.786474 ], [ -75.469004558719405, 39.785741532397701 ], [ -75.469745565365201, 39.7846615325088 ], [ -75.471991582048503, 39.781388015621602 ], [ -75.478052682264206, 39.772554103541403 ], [ -75.4897514259047, 39.755503457769102 ], [ -75.490243, 39.754787 ], [ -75.496490535766, 39.743299082882402 ], [ -75.509113, 39.720089 ], [ -75.512682348589905, 39.715831483850302 ], [ -75.525533030885995, 39.700503200262297 ], [ -75.531911820720694, 39.692894584837703 ], [ -75.535076119398596, 39.689120211899798 ], [ -75.550807793343793, 39.6703554837718 ], [ -75.553771589568797, 39.666820269999697 ], [ -75.556572640001207, 39.6634791792793 ], [ -75.556844890554601, 39.663154439036397 ], [ -75.5582831376135, 39.661438899092303 ], [ -75.561356760804102, 39.657772683803302 ], [ -75.561543752002706, 39.657549640850696 ], [ -75.562246, 39.656712 ], [ -75.568012458316801, 39.656526889130703 ], [ -75.569037, 39.656494 ], [ -75.587147, 39.651012 ], [ -75.587155878478995, 39.6510016113712 ], [ -75.5917467759147, 39.645629843378202 ], [ -75.600494948864295, 39.635393684521198 ], [ -75.611969, 39.621968 ], [ -75.613153, 39.62096 ], [ -75.613377, 39.620288 ], [ -75.614065, 39.61832 ], [ -75.614929, 39.615952 ], [ -75.614273, 39.61464 ], [ -75.613345, 39.613056 ], [ -75.613665, 39.61256 ], [ -75.611344, 39.610183 ], [ -75.613233, 39.607408 ], [ -75.613477, 39.606861 ], [ -75.613473, 39.606832 ], [ -75.613793, 39.606192 ], [ -75.611905, 39.597568 ], [ -75.611873, 39.597408 ], [ -75.60464, 39.58992 ], [ -75.603584, 39.58896 ], [ -75.598747, 39.589122 ], [ -75.597173322751004, 39.587782094520797 ], [ -75.592224, 39.583568 ], [ -75.591984, 39.583248 ], [ -75.587744, 39.580672 ], [ -75.5872, 39.580256 ], [ -75.586608, 39.57888 ], [ -75.586189385868096, 39.578574524822699 ], [ -75.586016, 39.578448 ], [ -75.585838206771399, 39.578315798889399 ], [ -75.5837951450752, 39.576796646403899 ], [ -75.5802440613529, 39.574156179073498 ], [ -75.579670494856998, 39.573729694171199 ], [ -75.574159394561605, 39.569631823937002 ], [ -75.571599, 39.567728 ], [ -75.570783, 39.56728 ], [ -75.563034, 39.56224 ], [ -75.564118288088494, 39.560683727684797 ], [ -75.564649, 39.559922 ], [ -75.565636, 39.558509 ], [ -75.569359, 39.540589 ], [ -75.569418, 39.539124 ], [ -75.570362, 39.527223 ], [ -75.572364, 39.517101 ], [ -75.572616236281604, 39.516560443144002 ], [ -75.572861783811504, 39.5160342206675 ], [ -75.574503, 39.512517 ], [ -75.575411340927303, 39.510955950563499 ], [ -75.576436, 39.509195 ], [ -75.581140859129306, 39.503844800678401 ], [ -75.586554401533704, 39.497688711812998 ], [ -75.587729, 39.496353 ], [ -75.587729, 39.495740745019901 ], [ -75.587729, 39.495369 ], [ -75.587814, 39.490327 ], [ -75.593068, 39.479186 ], [ -75.593068, 39.477996 ], [ -75.592329, 39.467578 ], [ -75.589901, 39.462022 ], [ -75.589439, 39.460812 ], [ -75.580185, 39.450786 ], [ -75.579593068675507, 39.449432614926202 ], [ -75.578914, 39.44788 ], [ -75.573077, 39.445373 ], [ -75.570985, 39.442486 ], [ -75.571455044817299, 39.440489561125098 ], [ -75.57183, 39.438897 ], [ -75.55589, 39.430351 ], [ -75.538512, 39.416502 ], [ -75.535977, 39.409384 ], [ -75.523583, 39.391583 ], [ -75.521682, 39.387871 ], [ -75.521263, 39.381654 ], [ -75.515797, 39.378347 ], [ -75.512996, 39.366153 ], [ -75.512372082394805, 39.3656561384634 ], [ -75.515975, 39.364363 ], [ -75.516897, 39.360988 ], [ -75.519628, 39.360066 ], [ -75.52142, 39.358607 ], [ -75.523254, 39.359712 ], [ -75.525877, 39.359642 ], [ -75.528453, 39.358305 ], [ -75.528673, 39.356782 ], [ -75.527259, 39.354675 ], [ -75.528696, 39.35343 ], [ -75.531914, 39.354595 ], [ -75.534278, 39.353332 ], [ -75.534484, 39.351389 ], [ -75.535849, 39.350617 ], [ -75.53899, 39.351954 ], [ -75.539867, 39.353887 ], [ -75.541586, 39.354366 ], [ -75.543263, 39.353236 ], [ -75.544056, 39.351363 ], [ -75.545216, 39.350763 ], [ -75.54811, 39.351713 ], [ -75.548131, 39.352921 ], [ -75.549645, 39.353855 ], [ -75.551626, 39.35394 ], [ -75.553369, 39.35301 ], [ -75.554683, 39.351506 ], [ -75.553841, 39.349938 ], [ -75.552242, 39.350157 ], [ -75.551096, 39.349483 ], [ -75.55104, 39.345568 ], [ -75.551599, 39.345105 ], [ -75.554223, 39.345404 ], [ -75.555886, 39.346743 ], [ -75.55619, 39.348287 ], [ -75.557378, 39.349101 ], [ -75.5588, 39.346549 ], [ -75.560519, 39.345067 ], [ -75.559982, 39.343466 ], [ -75.557846, 39.342764 ], [ -75.557358, 39.341501 ], [ -75.558334, 39.33923 ], [ -75.556813, 39.338169 ], [ -75.555717, 39.337066 ], [ -75.556205, 39.335325 ], [ -75.558843, 39.333334 ], [ -75.562734, 39.332104 ], [ -75.564806, 39.331936 ], [ -75.569007, 39.328744 ], [ -75.56982, 39.326577 ], [ -75.568716, 39.323523 ], [ -75.570958, 39.318845 ], [ -75.57462, 39.313434 ], [ -75.581145, 39.311131 ], [ -75.584341, 39.308718 ], [ -75.587325, 39.309699 ], [ -75.587495, 39.311009 ], [ -75.590409, 39.311746 ], [ -75.592056, 39.311252 ], [ -75.592338, 39.309948 ], [ -75.593889, 39.308417 ], [ -75.595471, 39.310081 ], [ -75.59669, 39.309751 ], [ -75.597106, 39.309554 ], [ -75.599218, 39.309737 ], [ -75.599571, 39.308442 ], [ -75.602031, 39.30811 ], [ -75.603446, 39.309094 ], [ -75.603836, 39.311182 ], [ -75.606598, 39.30809 ], [ -75.609385, 39.308801 ], [ -75.611492, 39.309295 ], [ -75.614256, 39.308307 ], [ -75.61606, 39.309735 ], [ -75.619631, 39.310058 ], [ -75.621379, 39.308755 ], [ -75.626132, 39.30413 ], [ -75.627531, 39.304438 ], [ -75.630398, 39.302672 ], [ -75.631327, 39.302521 ], [ -75.632663, 39.301251 ], [ -75.633919, 39.301591 ], [ -75.634711, 39.301652 ], [ -75.640959, 39.301318 ], [ -75.641928, 39.300891 ], [ -75.6427, 39.299107 ], [ -75.648237, 39.295729 ], [ -75.648528, 39.295193 ], [ -75.64857, 39.295026 ], [ -75.649179, 39.293151 ], [ -75.65135, 39.291589 ], [ -75.652947, 39.291949 ], [ -75.654461, 39.291184 ], [ -75.660476, 39.291672 ], [ -75.665811, 39.290567 ], [ -75.667269, 39.290417 ], [ -75.669276, 39.291397 ], [ -75.670302, 39.290891 ], [ -75.673327, 39.291027 ], [ -75.6752, 39.290498 ], [ -75.678042, 39.292477 ], [ -75.680261, 39.292496 ], [ -75.681385, 39.293205 ], [ -75.683117, 39.294578 ], [ -75.685188, 39.297089 ], [ -75.714901, 39.299366 ], [ -75.746048, 39.297531 ], [ -75.75, 39.297474 ], [ -75.760104352373006, 39.296816522472298 ], [ -75.7601316135502, 39.297150501153602 ], [ -75.760469169416893, 39.301285922840499 ], [ -75.764388236041498, 39.349298695569402 ], [ -75.765847374247997, 39.367174704782201 ], [ -75.766667, 39.377216 ], [ -75.766693190718101, 39.377537 ], [ -75.767981329647, 39.393324753318304 ], [ -75.769830558762607, 39.415989368484901 ], [ -75.772249929420298, 39.445641781178701 ], [ -75.773871439923099, 39.465515419996599 ], [ -75.776222683481095, 39.494332849895002 ], [ -75.779518199245302, 39.534723516438902 ], [ -75.779584610450797, 39.535537468806197 ], [ -75.780786, 39.550262 ], [ -75.782457557977295, 39.572255420025201 ], [ -75.782460041178894, 39.572288092595798 ], [ -75.782823521373004, 39.577070560622097 ], [ -75.783842208850402, 39.5904738776889 ], [ -75.783842450239405, 39.590477053748899 ], [ -75.784318121052394, 39.596735662857803 ], [ -75.7850388190259, 39.606218201577697 ], [ -75.785053894501601, 39.606416556210903 ], [ -75.7854092147263, 39.611091659946801 ], [ -75.786213713477807, 39.621676802185597 ], [ -75.786216419653996, 39.621712408530698 ], [ -75.78689, 39.630575 ], [ -75.787189654533194, 39.634256469979803 ], [ -75.787202839355302, 39.634418454936203 ], [ -75.78745, 39.637455 ], [ -75.787541002665904, 39.6390186186539 ], [ -75.787541702471202, 39.639030642792399 ], [ -75.787787176812003, 39.643248412176902 ], [ -75.788095585484598, 39.648547526754399 ], [ -75.788114612103897, 39.648874444393797 ], [ -75.788430900679202, 39.654308952398303 ], [ -75.788431434671395, 39.654318127515502 ], [ -75.788658, 39.658211 ], [ -75.788655461480403, 39.659572794876603 ] ] ] ] } },
{ "type": "Feature", "properties": { "STATEFP": "10", "COUNTYFP": "005", "COUNTYNS": "00217269", "GEOIDFQ": "0500000US10005", "GEOID": "10005", "NAME": "Sussex", "NAMELSAD": "Sussex County", "STUSPS": "DE", "STATE_NAME": "Delaware", "LSAD": "06", "ALAND": 2424605748.0, "AWATER": 674113743.0 }, "geometry": { "type": "MultiPolygon", "coordinates": [ [ [ [ -75.722599091852899, 38.829859371810699 ], [ -75.615422, 38.833616 ], [ -75.582418, 38.834638 ], [ -75.555013, 38.835649 ], [ -75.553173, 38.837402 ], [ -75.551016, 38.838719 ], [ -75.548726, 38.841077 ], [ -75.544026, 38.84337 ], [ -75.541336, 38.842864 ], [ -75.53958, 38.843634 ], [ -75.535968, 38.847616 ], [ -75.536234, 38.84989 ], [ -75.53518, 38.850368 ], [ -75.520439, 38.855742 ], [ -75.517764, 38.861012 ], [ -75.516306, 38.864002 ], [ -75.509168, 38.875766 ], [ -75.5089, 38.876927 ], [ -75.508168, 38.878951 ], [ -75.503337, 38.881617 ], [ -75.501771, 38.88088 ], [ -75.49778, 38.882127 ], [ -75.494383, 38.887882 ], [ -75.491565, 38.888525 ], [ -75.490453, 38.889664 ], [ -75.488026, 38.892784 ], [ -75.487732, 38.895493 ], [ -75.488156, 38.898983 ], [ -75.485657, 38.903617 ], [ -75.484819, 38.903753 ], [ -75.484125, 38.904448 ], [ -75.481636, 38.904197 ], [ -75.479626, 38.905593 ], [ -75.477222, 38.905841 ], [ -75.465153, 38.91131 ], [ -75.460575, 38.909382 ], [ -75.456385, 38.909809 ], [ -75.449628, 38.912065 ], [ -75.446064, 38.912768 ], [ -75.443988, 38.913074 ], [ -75.443717, 38.913077 ], [ -75.44039, 38.913128 ], [ -75.434048, 38.910817 ], [ -75.431697, 38.912117 ], [ -75.430096, 38.913351 ], [ -75.428404, 38.913206 ], [ -75.424692, 38.913418 ], [ -75.423458, 38.91424 ], [ -75.422073, 38.914042 ], [ -75.421581, 38.915517 ], [ -75.41983, 38.915416 ], [ -75.418318, 38.914263 ], [ -75.416947, 38.915521 ], [ -75.418423, 38.916745 ], [ -75.416679, 38.918031 ], [ -75.412565, 38.917992 ], [ -75.410646, 38.917458 ], [ -75.410463, 38.916418 ], [ -75.408818, 38.916824 ], [ -75.408922, 38.919703 ], [ -75.40561, 38.919408 ], [ -75.404831, 38.917451 ], [ -75.402774, 38.917422 ], [ -75.402507, 38.917559 ], [ -75.401413, 38.918355 ], [ -75.401735, 38.920269 ], [ -75.403351, 38.922773 ], [ -75.402155, 38.925007 ], [ -75.399883, 38.925574 ], [ -75.399109, 38.92691 ], [ -75.40095, 38.929481 ], [ -75.400176, 38.93139 ], [ -75.398613, 38.933517 ], [ -75.397887, 38.936187 ], [ -75.400321, 38.935548 ], [ -75.402873, 38.937472 ], [ -75.399834, 38.938929 ], [ -75.398525, 38.94074 ], [ -75.399719, 38.944471 ], [ -75.4009, 38.945819 ], [ -75.400716, 38.947717 ], [ -75.398344, 38.949906 ], [ -75.395424, 38.9511 ], [ -75.393615, 38.952846 ], [ -75.393134, 38.95414 ], [ -75.393212, 38.95574 ], [ -75.390664, 38.95678 ], [ -75.389005, 38.954672 ], [ -75.382525, 38.955906 ], [ -75.381517, 38.958761 ], [ -75.381339, 38.961285 ], [ -75.380649, 38.961873 ], [ -75.376851, 38.960552 ], [ -75.372131, 38.961436 ], [ -75.367886, 38.95958 ], [ -75.368314, 38.95756 ], [ -75.366208, 38.953935 ], [ -75.364428, 38.954486 ], [ -75.361025, 38.957533 ], [ -75.360153, 38.957559 ], [ -75.358977, 38.95581 ], [ -75.356907, 38.95418 ], [ -75.356842, 38.952342 ], [ -75.354358, 38.949966 ], [ -75.352774, 38.947925 ], [ -75.350213, 38.947438 ], [ -75.349341, 38.948098 ], [ -75.349236, 38.949711 ], [ -75.345967, 38.953443 ], [ -75.345173, 38.955234 ], [ -75.344061, 38.955269 ], [ -75.343238, 38.954694 ], [ -75.342174, 38.951435 ], [ -75.343516, 38.947439 ], [ -75.338704, 38.946264 ], [ -75.334997, 38.947315 ], [ -75.33326, 38.948897 ], [ -75.332444, 38.950707 ], [ -75.33027, 38.950487 ], [ -75.328103, 38.949007 ], [ -75.326288, 38.949007 ], [ -75.324635, 38.94971 ], [ -75.322202, 38.951826 ], [ -75.321266, 38.953455 ], [ -75.319381, 38.953685 ], [ -75.316686, 38.952913 ], [ -75.313534, 38.95043 ], [ -75.313379, 38.949417 ], [ -75.314294, 38.947283 ], [ -75.311922561612604, 38.945916812795801 ], [ -75.311882, 38.945698 ], [ -75.311542, 38.944633 ], [ -75.315716966142503, 38.939939749008801 ], [ -75.315908, 38.939725 ], [ -75.317096, 38.93344 ], [ -75.312282, 38.924594 ], [ -75.304078, 38.91316 ], [ -75.304008504322596, 38.913099256235597 ], [ -75.292750227428698, 38.9032587863705 ], [ -75.280272, 38.892352 ], [ -75.273363, 38.883873 ], [ -75.268611353627705, 38.880848972127197 ], [ -75.263115, 38.877351 ], [ -75.232029, 38.844254 ], [ -75.227242463076706, 38.840512971815897 ], [ -75.205329, 38.823386 ], [ -75.190552, 38.806861 ], [ -75.190201188462396, 38.806676942826002 ], [ -75.160748, 38.791224 ], [ -75.159022, 38.790193 ], [ -75.134022, 38.782242 ], [ -75.113331, 38.782998 ], [ -75.103087190465004, 38.7865992406579 ], [ -75.097103, 38.788703 ], [ -75.093654, 38.793992 ], [ -75.093295, 38.797618 ], [ -75.099144, 38.803531 ], [ -75.09748, 38.805939 ], [ -75.092014, 38.803902 ], [ -75.089473, 38.797198 ], [ -75.082153, 38.772157 ], [ -75.080217, 38.750112 ], [ -75.079221, 38.738238 ], [ -75.079213628666594, 38.738196491290701 ], [ -75.078111632568707, 38.731991042036697 ], [ -75.077716746294399, 38.729767398285802 ], [ -75.075398005408204, 38.716710338528301 ], [ -75.074982742833896, 38.714371953812403 ], [ -75.073682695158794, 38.7070512564962 ], [ -75.073171080008606, 38.704170300875603 ], [ -75.071998038696506, 38.697564788978198 ], [ -75.070358838213906, 38.688334288587299 ], [ -75.06551, 38.66103 ], [ -75.065217, 38.632394 ], [ -75.06192, 38.608869 ], [ -75.061259, 38.608602 ], [ -75.061000706014795, 38.608406873942002 ], [ -75.060478, 38.608012 ], [ -75.060032, 38.607709 ], [ -75.055578075153505, 38.555165333117202 ], [ -75.054783143963405, 38.5457874021713 ], [ -75.054171328222495, 38.538569713595201 ], [ -75.053628185372602, 38.532162170145199 ], [ -75.053586558093997, 38.531671086452597 ], [ -75.053051741197095, 38.525361765608601 ], [ -75.052697577781402, 38.521183642901399 ], [ -75.052611728965999, 38.5201708706361 ], [ -75.052573630925394, 38.519721421931401 ], [ -75.051623476059504, 38.508512292347703 ], [ -75.049748, 38.486387 ], [ -75.049551114169006, 38.477838893785098 ], [ -75.049312388175096, 38.467474231473801 ], [ -75.049056966040894, 38.456384680124799 ], [ -75.048939, 38.451263 ], [ -75.052404222416001, 38.451257269833903 ], [ -75.0535840104491, 38.451255318911102 ], [ -75.05801, 38.451248 ], [ -75.062699941950498, 38.4512626207352 ], [ -75.065368168607094, 38.451270938841397 ], [ -75.065392909543704, 38.451271015970399 ], [ -75.0702308531733, 38.4512860980958 ], [ -75.078484988059898, 38.4513118300817 ], [ -75.082068, 38.451323 ], [ -75.085864575988197, 38.4513149405417 ], [ -75.141894, 38.451196 ], [ -75.141964689033898, 38.451196016190799 ], [ -75.184716999814896, 38.451205808291299 ], [ -75.185554, 38.451206 ], [ -75.205132864435598, 38.451261673943399 ], [ -75.205149702638394, 38.451261721824103 ], [ -75.218509903681095, 38.451299712540099 ], [ -75.220252285201994, 38.451304667130302 ], [ -75.232705675607207, 38.451340079263403 ], [ -75.2362935667214, 38.451350281696101 ], [ -75.252723, 38.451397 ], [ -75.252861434401495, 38.451398724304198 ], [ -75.26035, 38.451492 ], [ -75.331475317607001, 38.451912246005101 ], [ -75.34125, 38.45197 ], [ -75.355433, 38.452131 ], [ -75.370891, 38.452238 ], [ -75.38421, 38.452123 ], [ -75.40199, 38.452261 ], [ -75.410884, 38.4524 ], [ -75.424831, 38.45261 ], [ -75.428644523147696, 38.452669693331302 ], [ -75.428728, 38.452671 ], [ -75.444096642895104, 38.4529843347526 ], [ -75.477539330616395, 38.453666161792 ], [ -75.47915, 38.453699 ], [ -75.500142, 38.454144 ], [ -75.502961, 38.45422 ], [ -75.521304, 38.454657 ], [ -75.52273, 38.454657 ], [ -75.532534604763796, 38.454924487177898 ], [ -75.533763, 38.454958 ], [ -75.534136693712099, 38.454966883834203 ], [ -75.538032912782597, 38.4550595087914 ], [ -75.539503084174896, 38.455094459229201 ], [ -75.541141676606699, 38.455133413546498 ], [ -75.544057077193997, 38.4552027214704 ], [ -75.552444105799907, 38.455402106605703 ], [ -75.555339285317402, 38.455470933813402 ], [ -75.555343383417707, 38.4554710312377 ], [ -75.558138725434105, 38.455537485004797 ], [ -75.558395967276098, 38.455543600424399 ], [ -75.559212, 38.455563 ], [ -75.559934, 38.455579 ], [ -75.559975085895303, 38.455580194087801 ], [ -75.563178185733094, 38.455673286436401 ], [ -75.564111903112206, 38.455700423256403 ], [ -75.564351872193797, 38.4557073975271 ], [ -75.57411, 38.455991 ], [ -75.574223224402203, 38.4559961655427 ], [ -75.581892196752804, 38.456346040690597 ], [ -75.582940403318304, 38.456393862147003 ], [ -75.583056727607499, 38.456399169113297 ], [ -75.583601, 38.456424 ], [ -75.589307, 38.456286 ], [ -75.593082, 38.456404 ], [ -75.5979382535903, 38.456843175931297 ], [ -75.598069, 38.456855 ], [ -75.630457, 38.457904 ], [ -75.648079993022094, 38.458369252239699 ], [ -75.662843, 38.458759 ], [ -75.665585, 38.4589 ], [ -75.691652287581803, 38.459995225185899 ], [ -75.69367, 38.46008 ], [ -75.696369, 38.492373 ], [ -75.696688, 38.496467 ], [ -75.697900750776796, 38.511290541568201 ], [ -75.698777, 38.522001 ], [ -75.698779000160499, 38.522030554439802 ], [ -75.7001723474568, 38.542618701794602 ], [ -75.700179, 38.542717 ], [ -75.700394635168195, 38.545520412767502 ], [ -75.701565, 38.560736 ], [ -75.703445, 38.58512 ], [ -75.703981, 38.592066 ], [ -75.705774, 38.61474 ], [ -75.70586, 38.616268 ], [ -75.706235, 38.621296 ], [ -75.706585, 38.626125 ], [ -75.707346, 38.63528 ], [ -75.707355681536598, 38.6354031774734 ], [ -75.709526800864893, 38.663026168094397 ], [ -75.712276594847793, 38.698011593541402 ], [ -75.712876155396003, 38.705639758047496 ], [ -75.717589477088197, 38.765607001302897 ], [ -75.720437594112397, 38.801843383531597 ], [ -75.720440350105605, 38.801878447829999 ], [ -75.722028, 38.822078 ], [ -75.722599091852899, 38.829859371810699 ] ] ] ] } }
]
}
