{
"type": "FeatureCollection",
"name": "Delaware_counties_2023",
"crs": { "type": "name", "properties": { "name": "urn:ogc:def:crs:OGC:1.3:CRS84" } },
"features": [
{ "type": "Feature", "properties": { "STATEFP": "10", "COUNTYFP": "001", "COUNTYNS": "00217271", "GEOIDFQ": "0500000US10001", "GEOID": "10001", "NAME": "Kent", "NAMELSAD": "Kent County", "STUSPS": "DE", "STATE_NAME": "Delaware", "LSAD": "06", "ALAND": 1517891094.0, "AWATER": 549776917.0, "STATE_NAME_HYPHEN": "Delaware" }, "geometry": { "type": "MultiPolygon", "coordinates": [ [ [ [ -75.7569418, 39.2580716 ], [ -75.7559621, 39.2460694 ], [ -75.755953, 39.245958 ], [ -75.7525932, 39.1994349 ], [ -75.752592, 39.1994179 ], [ -75.7514506, 39.183613099999988 ], [ -75.751028, 39.177762 ], [ -75.7508952, 39.1767337 ], [ -75.7504264, 39.1731034 ], [ -75.749356, 39.164815 ], [ -75.7476711, 39.1433451 ], [ -75.747668, 39.143306 ], [ -75.746121, 39.120318 ], [ -75.7458049, 39.1151304 ], [ -75.745793, 39.114935 ], [ -75.7453783, 39.1106953 ], [ -75.7442989, 39.0996617 ], [ -75.743811, 39.094674 ], [ -75.7426263, 39.0798252 ], [ -75.7419231, 39.0710116 ], [ -75.7419229, 39.071009599999989 ], [ -75.739738, 39.0436249 ], [ -75.7395455, 39.041212 ], [ -75.7386276, 39.0297083 ], [ -75.7328559, 38.957368 ], [ -75.7328151, 38.9568564 ], [ -75.7309193, 38.933095 ], [ -75.7279178, 38.8954757 ], [ -75.725829, 38.869296 ], [ -75.725565, 38.868152 ], [ -75.7246423, 38.8556551 ], [ -75.724061, 38.847781 ], [ -75.7240041, 38.8467206 ], [ -75.724002, 38.846682 ], [ -75.722882, 38.833156 ], [ -75.72261, 38.830008 ], [ -75.7225991, 38.8298594 ], [ -75.615422, 38.833616 ], [ -75.582418, 38.834638 ], [ -75.555013, 38.835649 ], [ -75.553173, 38.837402 ], [ -75.551016, 38.838719 ], [ -75.548726, 38.841077 ], [ -75.544026, 38.84337 ], [ -75.541336, 38.842864 ], [ -75.53958, 38.843634 ], [ -75.535968, 38.847616 ], [ -75.536234, 38.84989 ], [ -75.53518, 38.850368 ], [ -75.520439, 38.855742 ], [ -75.517764, 38.861012 ], [ -75.516306, 38.864002 ], [ -75.509168, 38.875766 ], [ -75.5089, 38.876927 ], [ -75.508168, 38.878951 ], [ -75.503337, 38.881617 ], [ -75.501771, 38.88088 ], [ -75.49778, 38.882127 ], [ -75.494383, 38.887882 ], [ -75.491565, 38.888525 ], [ -75.490453, 38.889664 ], [ -75.488026, 38.892784 ], [ -75.487732, 38.895493 ], [ -75.488156, 38.898983 ], [ -75.485657, 38.903617 ], [ -75.484819, 38.903753 ], [ -75.484125, 38.904448 ], [ -75.481636, 38.904197 ], [ -75.479626, 38.905593 ], [ -75.477222, 38.905841 ], [ -75.465153, 38.91131 ], [ -75.460575, 38.909382 ], [ -75.456385, 38.909809 ], [ -75.449628, 38.912065 ], [ -75.446064, 38.912768 ], [ -75.443988, 38.913074 ], [ -75.443717, 38.913077 ], [ -75.44039, 38.913128 ], [ -75.434048, 38.910817 ], [ -75.431697, 38.912117 ], [ -75.430096, 38.913351 ], [ -75.428404, 38.913206 ], [ -75.424692, 38.913418 ], [ -75.423458, 38.91424 ], [ -75.422073, 38.914042 ], [ -75.421581, 38.915517 ], [ -75.41983, 38.915416 ], [ -75.418318, 38.914263 ], [ -75.416947, 38.915521 ], [ -75.418423, 38.916745 ], [ -75.416679, 38.918031 ], [ -75.412565, 38.917992 ], [ -75.410646, 38.917458 ], [ -75.410463, 38.916418 ], [ -75.408818, 38.916824 ], [ -75.408922, 38.919703 ], [ -75.40561, 38.919408 ], [ -75.404831, 38.917451 ], [ -75.402774, 38.917422 ], [ -75.402507, 38.917559 ], [ -75.401413, 38.918355 ], [ -75.401735, 38.920269 ], [ -75.403351, 38.922773 ], [ -75.402155, 38.925007 ], [ -75.399883, 38.925574 ], [ -75.399109, 38.92691 ], [ -75.40095, 38.929481 ], [ -75.400176, 38.93139 ], [ -75.398613, 38.933517 ], [ -75.397887, 38.936187 ], [ -75.400321, 38.935548 ], [ -75.402873, 38.937472 ], [ -75.399834, 38.938929 ], [ -75.398525, 38.94074 ], [ -75.399719, 38.944471 ], [ -75.4009, 38.945819 ], [ -75.400716, 38.947717 ], [ -75.398344, 38.949906 ], [ -75.395424, 38.9511 ], [ -75.393615, 38.952846 ], [ -75.393134, 38.95414 ], [ -75.393212, 38.95574 ], [ -75.390664, 38.95678 ], [ -75.389005, 38.954672 ], [ -75.382525, 38.955906 ], [ -75.381517, 38.958761 ], [ -75.381339, 38.961285 ], [ -75.380649, 38.961873 ], [ -75.376851, 38.960552 ], [ -75.372131, 38.961436 ], [ -75.367886, 38.95958 ], [ -75.368314, 38.95756 ], [ -75.366208, 38.953935 ], [ -75.364428, 38.954486 ], [ -75.361025, 38.957533 ], [ -75.360153, 38.957559 ], [ -75.358977, 38.95581 ], [ -75.356907, 38.95418 ], [ -75.356842, 38.952342 ], [ -75.354358, 38.949966 ], [ -75.352774, 38.947925 ], [ -75.350213, 38.947438 ], [ -75.349341, 38.948098 ], [ -75.349236, 38.949711 ], [ -75.345967, 38.953443 ], [ -75.345173, 38.955234 ], [ -75.344061, 38.955269 ], [ -75.343238, 38.954694 ], [ -75.342174, 38.951435 ], [ -75.343516, 38.947439 ], [ -75.338704, 38.946264 ], [ -75.334997, 38.947315 ], [ -75.33326, 38.948897 ], [ -75.332444, 38.950707 ], [ -75.33027, 38.950487 ], [ -75.328103, 38.949007 ], [ -75.326288, 38.949007 ], [ -75.324635, 38.94971 ], [ -75.322202, 38.951826 ], [ -75.321266, 38.953455 ], [ -75.319381, 38.953685 ], [ -75.316686, 38.952913 ], [ -75.313534, 38.95043 ], [ -75.313379, 38.949417 ], [ -75.314294, 38.947283 ], [ -75.3119226, 38.9459168 ], [ -75.312546, 38.94928 ], [ -75.312546, 38.951065 ], [ -75.311607, 38.967637 ], [ -75.314951, 38.980775 ], [ -75.318354, 38.988191 ], [ -75.34089, 39.01996 ], [ -75.345763, 39.024857 ], [ -75.3579802, 39.0316504 ], [ -75.360116, 39.032838 ], [ -75.371562, 39.04296 ], [ -75.376041, 39.044838 ], [ -75.379873, 39.04879 ], [ -75.387914, 39.051174 ], [ -75.396277, 39.057884 ], [ -75.3960059, 39.0586477 ], [ -75.395806, 39.059211 ], [ -75.4001178, 39.0653924 ], [ -75.400294, 39.065645 ], [ -75.4007378, 39.0659611 ], [ -75.400997, 39.0661457 ], [ -75.402035, 39.066885 ], [ -75.403136, 39.078611 ], [ -75.399809, 39.099088 ], [ -75.408128, 39.12251 ], [ -75.407528, 39.134096 ], [ -75.412406, 39.147582 ], [ -75.413357, 39.153296 ], [ -75.410625, 39.156246 ], [ -75.410225, 39.1593625 ], [ -75.409563, 39.164521 ], [ -75.410267, 39.169145 ], [ -75.408266, 39.174625 ], [ -75.400144, 39.186456 ], [ -75.3994, 39.191022 ], [ -75.397766, 39.193977 ], [ -75.397085, 39.20453 ], [ -75.399264, 39.208962 ], [ -75.399264, 39.21582 ], [ -75.405937, 39.22215 ], [ -75.4063667, 39.2235654 ], [ -75.407026, 39.225737 ], [ -75.405037, 39.240316 ], [ -75.408745, 39.243041 ], [ -75.4089925, 39.2462703 ], [ -75.409363, 39.251103 ], [ -75.406178, 39.258113 ], [ -75.408996, 39.264133 ], [ -75.413275, 39.268456 ], [ -75.416093, 39.269507 ], [ -75.417763, 39.273224 ], [ -75.434775, 39.290593 ], [ -75.435193, 39.294632 ], [ -75.437593, 39.298388 ], [ -75.436936, 39.309379 ], [ -75.439027, 39.313384 ], [ -75.448058, 39.315487 ], [ -75.452811, 39.318429 ], [ -75.45537, 39.324729 ], [ -75.460423, 39.328236 ], [ -75.469324, 39.33082 ], [ -75.479963, 39.336577 ], [ -75.479432, 39.33902 ], [ -75.490377, 39.342818 ], [ -75.491688, 39.343963 ], [ -75.493148, 39.345527 ], [ -75.494122, 39.34658 ], [ -75.491797, 39.351845 ], [ -75.494158, 39.354613 ], [ -75.505276, 39.359169 ], [ -75.511788, 39.365191 ], [ -75.5123721, 39.3656561 ], [ -75.515975, 39.364363 ], [ -75.516897, 39.360988 ], [ -75.519628, 39.360066 ], [ -75.52142, 39.358607 ], [ -75.523254, 39.359712 ], [ -75.525877, 39.359642 ], [ -75.528453, 39.358305 ], [ -75.528673, 39.356782 ], [ -75.527259, 39.354675 ], [ -75.528696, 39.35343 ], [ -75.531914, 39.354595 ], [ -75.534278, 39.353332 ], [ -75.534484, 39.351389 ], [ -75.535849, 39.350617 ], [ -75.53899, 39.351954 ], [ -75.539867, 39.353887 ], [ -75.541586, 39.354366 ], [ -75.543263, 39.353236 ], [ -75.544056, 39.351363 ], [ -75.545216, 39.350763 ], [ -75.54811, 39.351713 ], [ -75.548131, 39.352921 ], [ -75.549645, 39.353855 ], [ -75.551626, 39.35394 ], [ -75.553369, 39.35301 ], [ -75.554683, 39.351506 ], [ -75.553841, 39.349938 ], [ -75.552242, 39.350157 ], [ -75.551096, 39.349483 ], [ -75.55104, 39.345568 ], [ -75.551599, 39.345105 ], [ -75.554223, 39.345404 ], [ -75.555886, 39.346743 ], [ -75.55619, 39.348287 ], [ -75.557378, 39.349101 ], [ -75.5588, 39.346549 ], [ -75.560519, 39.345067 ], [ -75.559982, 39.343466 ], [ -75.557846, 39.342764 ], [ -75.557358, 39.341501 ], [ -75.558334, 39.33923 ], [ -75.556813, 39.338169 ], [ -75.555717, 39.337066 ], [ -75.556205, 39.335325 ], [ -75.558843, 39.333334 ], [ -75.562734, 39.332104 ], [ -75.564806, 39.331936 ], [ -75.569007, 39.328744 ], [ -75.56982, 39.326577 ], [ -75.568716, 39.323523 ], [ -75.570958, 39.318845 ], [ -75.57462, 39.313434 ], [ -75.581145, 39.311131 ], [ -75.584341, 39.308718 ], [ -75.587325, 39.309699 ], [ -75.587495, 39.311009 ], [ -75.590409, 39.311746 ], [ -75.592056, 39.311252 ], [ -75.592338, 39.309948 ], [ -75.593889, 39.308417 ], [ -75.595471, 39.310081 ], [ -75.59669, 39.309751 ], [ -75.597106, 39.309554 ], [ -75.599218, 39.309737 ], [ -75.599571, 39.308442 ], [ -75.602031, 39.30811 ], [ -75.603446, 39.309094 ], [ -75.603836, 39.311182 ], [ -75.606598, 39.30809 ], [ -75.609385, 39.308801 ], [ -75.611492, 39.309295 ], [ -75.614256, 39.308307 ], [ -75.61606, 39.309735 ], [ -75.619631, 39.310058 ], [ -75.621379, 39.308755 ], [ -75.626132, 39.30413 ], [ -75.627531, 39.304438 ], [ -75.630398, 39.302672 ], [ -75.631327, 39.302521 ], [ -75.632663, 39.301251 ], [ -75.633919, 39.301591 ], [ -75.634711, 39.301652 ], [ -75.640959, 39.301318 ], [ -75.641928, 39.300891 ], [ -75.6427, 39.299107 ], [ -75.648237, 39.295729 ], [ -75.648528, 39.295193 ], [ -75.64857, 39.295026 ], [ -75.649179, 39.293151 ], [ -75.65135, 39.291589 ], [ -75.652947, 39.291949 ], [ -75.654461, 39.291184 ], [ -75.660476, 39.291672 ], [ -75.665811, 39.290567 ], [ -75.667269, 39.290417 ], [ -75.669276, 39.291397 ], [ -75.670302, 39.290891 ], [ -75.673327, 39.291027 ], [ -75.6752, 39.290498 ], [ -75.678042, 39.292477 ], [ -75.680261, 39.292496 ], [ -75.681385, 39.293205 ], [ -75.683117, 39.294578 ], [ -75.685188, 39.297089 ], [ -75.714901, 39.299366 ], [ -75.746048, 39.297531 ], [ -75.75, 39.297474 ], [ -75.7601044, 39.2968165 ], [ -75.7569418, 39.2580716 ] ] ] ] } },
{ "type": "Feature", "properties": { "STATEFP": "10", "COUNTYFP": "003", "COUNTYNS": "00217270", "GEOIDFQ": "0500000US10003", "GEOID": "10003", "NAME": "New Castle", "NAMELSAD": "New Castle County", "STUSPS": "DE", "STATE_NAME": "Delaware", "LSAD": "06", "ALAND": 1104206939.0, "AWATER": 175316802.0, "STATE_NAME_HYPHEN": "Delaware" }, "geometry": { "type": "MultiPolygon", "coordinates": [ [ [ [ -75.566813, 39.509189 ], [ -75.565454, 39.509407 ], [ -75.561438, 39.515523 ], [ -75.560378, 39.518553 ], [ -75.561325, 39.519471 ], [ -75.562578, 39.519112 ], [ -75.564766, 39.515949 ], [ -75.567522, 39.510205 ], [ -75.566813, 39.509189 ] ] ], [ [ [ -75.571054, 39.621318 ], [ -75.567641, 39.613802 ], [ -75.562005, 39.605745 ], [ -75.558454, 39.605576 ], [ -75.55617, 39.606386 ], [ -75.556889, 39.610442 ], [ -75.557184, 39.613149 ], [ -75.558705, 39.617933 ], [ -75.559537, 39.624934 ], [ -75.558895, 39.628767 ], [ -75.559446, 39.629812 ], [ -75.563189, 39.629818 ], [ -75.5636823, 39.6296203 ], [ -75.5652786, 39.6289804 ], [ -75.570798, 39.626768 ], [ -75.571054, 39.621318 ] ] ], [ [ [ -75.57916, 39.594705 ], [ -75.575426, 39.58812 ], [ -75.572118, 39.58586 ], [ -75.569311, 39.585268 ], [ -75.567689, 39.58573 ], [ -75.564883, 39.588983 ], [ -75.565823, 39.590608 ], [ -75.570774, 39.594091 ], [ -75.57287, 39.594454 ], [ -75.573682, 39.595718 ], [ -75.5751549, 39.5966133 ], [ -75.5778212, 39.598234 ], [ -75.578216, 39.598474 ], [ -75.579709, 39.597892 ], [ -75.57916, 39.594705 ] ] ], [ [ [ -75.788658, 39.658211 ], [ -75.7884314, 39.6543181 ], [ -75.7884309, 39.654309 ], [ -75.7881146, 39.6488744 ], [ -75.7880956, 39.6485475 ], [ -75.787787200000011, 39.6432484 ], [ -75.7875417, 39.6390306 ], [ -75.787541, 39.6390186 ], [ -75.78745, 39.637455 ], [ -75.7872028, 39.6344185 ], [ -75.7871897, 39.6342565 ], [ -75.78689, 39.630575 ], [ -75.7862164, 39.6217124 ], [ -75.7862137, 39.6216768 ], [ -75.785409199999989, 39.6110917 ], [ -75.7850539, 39.6064166 ], [ -75.7850388, 39.6062182 ], [ -75.7843181, 39.5967357 ], [ -75.7838425, 39.5904771 ], [ -75.7838422, 39.5904739 ], [ -75.7828235, 39.5770706 ], [ -75.78246, 39.5722881 ], [ -75.7824576, 39.5722554 ], [ -75.780786, 39.550262 ], [ -75.7795846, 39.5355375 ], [ -75.7795182, 39.5347235 ], [ -75.7762227, 39.494332799999988 ], [ -75.7738714, 39.4655154 ], [ -75.7722499, 39.4456418 ], [ -75.7698306, 39.4159894 ], [ -75.7679813, 39.3933248 ], [ -75.7666932, 39.377537 ], [ -75.766667, 39.377216 ], [ -75.7658474, 39.3671747 ], [ -75.7643882, 39.3492987 ], [ -75.7604692, 39.301285899999989 ], [ -75.7601316, 39.2971505 ], [ -75.7601044, 39.2968165 ], [ -75.75, 39.297474 ], [ -75.746048, 39.297531 ], [ -75.714901, 39.299366 ], [ -75.685188, 39.297089 ], [ -75.683117, 39.294578 ], [ -75.681385, 39.293205 ], [ -75.680261, 39.292496 ], [ -75.678042, 39.292477 ], [ -75.6752, 39.290498 ], [ -75.673327, 39.291027 ], [ -75.670302, 39.290891 ], [ -75.669276, 39.291397 ], [ -75.667269, 39.290417 ], [ -75.665811, 39.290567 ], [ -75.660476, 39.291672 ], [ -75.654461, 39.291184 ], [ -75.652947, 39.291949 ], [ -75.65135, 39.291589 ], [ -75.649179, 39.293151 ], [ -75.64857, 39.295026 ], [ -75.648528, 39.295193 ], [ -75.648237, 39.295729 ], [ -75.6427, 39.299107 ], [ -75.641928, 39.300891 ], [ -75.640959, 39.301318 ], [ -75.634711, 39.301652 ], [ -75.633919, 39.301591 ], [ -75.632663, 39.301251 ], [ -75.631327, 39.302521 ], [ -75.630398, 39.302672 ], [ -75.627531, 39.304438 ], [ -75.626132, 39.30413 ], [ -75.621379, 39.308755 ], [ -75.619631, 39.310058 ], [ -75.61606, 39.309735 ], [ -75.614256, 39.308307 ], [ -75.611492, 39.309295 ], [ -75.609385, 39.308801 ], [ -75.606598, 39.30809 ], [ -75.603836, 39.311182 ], [ -75.603446, 39.309094 ], [ -75.602031, 39.30811 ], [ -75.599571, 39.308442 ], [ -75.599218, 39.309737 ], [ -75.597106, 39.309554 ], [ -75.59669, 39.309751 ], [ -75.595471, 39.310081 ], [ -75.593889, 39.308417 ], [ -75.592338, 39.309948 ], [ -75.592056, 39.311252 ], [ -75.590409, 39.311746 ], [ -75.587495, 39.311009 ], [ -75.587325, 39.309699 ], [ -75.584341, 39.308718 ], [ -75.581145, 39.311131 ], [ -75.57462, 39.313434 ], [ -75.570958, 39.318845 ], [ -75.568716, 39.323523 ], [ -75.56982, 39.326577 ], [ -75.569007, 39.328744 ], [ -75.564806, 39.331936 ], [ -75.562734, 39.332104 ], [ -75.558843, 39.333334 ], [ -75.556205, 39.335325 ], [ -75.555717, 39.337066 ], [ -75.556813, 39.338169 ], [ -75.558334, 39.33923 ], [ -75.557358, 39.341501 ], [ -75.557846, 39.342764 ], [ -75.559982, 39.343466 ], [ -75.560519, 39.345067 ], [ -75.5588, 39.346549 ], [ -75.557378, 39.349101 ], [ -75.55619, 39.348287 ], [ -75.555886, 39.346743 ], [ -75.554223, 39.345404 ], [ -75.551599, 39.345105 ], [ -75.55104, 39.345568 ], [ -75.551096, 39.349483 ], [ -75.552242, 39.350157 ], [ -75.553841, 39.349938 ], [ -75.554683, 39.351506 ], [ -75.553369, 39.35301 ], [ -75.551626, 39.35394 ], [ -75.549645, 39.353855 ], [ -75.548131, 39.352921 ], [ -75.54811, 39.351713 ], [ -75.545216, 39.350763 ], [ -75.544056, 39.351363 ], [ -75.543263, 39.353236 ], [ -75.541586, 39.354366 ], [ -75.539867, 39.353887 ], [ -75.53899, 39.351954 ], [ -75.535849, 39.350617 ], [ -75.534484, 39.351389 ], [ -75.534278, 39.353332 ], [ -75.531914, 39.354595 ], [ -75.528696, 39.35343 ], [ -75.527259, 39.354675 ], [ -75.528673, 39.356782 ], [ -75.528453, 39.358305 ], [ -75.525877, 39.359642 ], [ -75.523254, 39.359712 ], [ -75.52142, 39.358607 ], [ -75.519628, 39.360066 ], [ -75.516897, 39.360988 ], [ -75.515975, 39.364363 ], [ -75.5123721, 39.3656561 ], [ -75.512996, 39.366153 ], [ -75.515797, 39.378347 ], [ -75.521263, 39.381654 ], [ -75.521682, 39.387871 ], [ -75.523583, 39.391583 ], [ -75.535977, 39.409384 ], [ -75.538512, 39.416502 ], [ -75.55589, 39.430351 ], [ -75.57183, 39.438897 ], [ -75.571455, 39.4404896 ], [ -75.570985, 39.442486 ], [ -75.573077, 39.445373 ], [ -75.578914, 39.44788 ], [ -75.5795931, 39.4494326 ], [ -75.580185, 39.450786 ], [ -75.589439, 39.460812 ], [ -75.589901, 39.462022 ], [ -75.592329, 39.467578 ], [ -75.593068, 39.477996 ], [ -75.593068, 39.479186 ], [ -75.587814, 39.490327 ], [ -75.587729, 39.495369 ], [ -75.587729, 39.4957407 ], [ -75.587729, 39.496353 ], [ -75.5865544, 39.4976887 ], [ -75.5811409, 39.5038448 ], [ -75.576436, 39.509195 ], [ -75.5754113, 39.510956 ], [ -75.574503, 39.512517 ], [ -75.5728618, 39.5160342 ], [ -75.5726162, 39.5165604 ], [ -75.572364, 39.517101 ], [ -75.570362, 39.527223 ], [ -75.569418, 39.539124 ], [ -75.569359, 39.540589 ], [ -75.565636, 39.558509 ], [ -75.564649, 39.559922 ], [ -75.5641183, 39.5606837 ], [ -75.563034, 39.56224 ], [ -75.570783, 39.56728 ], [ -75.571599, 39.567728 ], [ -75.5741594, 39.5696318 ], [ -75.5796705, 39.5737297 ], [ -75.5802441, 39.5741562 ], [ -75.5837951, 39.5767966 ], [ -75.5858382, 39.5783158 ], [ -75.586016, 39.578448 ], [ -75.5861894, 39.5785745 ], [ -75.586608, 39.57888 ], [ -75.5872, 39.580256 ], [ -75.587744, 39.580672 ], [ -75.591984, 39.583248 ], [ -75.592224, 39.583568 ], [ -75.5971733, 39.5877821 ], [ -75.598747, 39.589122 ], [ -75.603584, 39.58896 ], [ -75.60464, 39.58992 ], [ -75.611873, 39.597408 ], [ -75.611905, 39.597568 ], [ -75.613793, 39.606192 ], [ -75.613473, 39.606832 ], [ -75.613477, 39.606861 ], [ -75.613233, 39.607408 ], [ -75.611344, 39.610183 ], [ -75.613665, 39.61256 ], [ -75.613345, 39.613056 ], [ -75.614273, 39.61464 ], [ -75.614929, 39.615952 ], [ -75.614065, 39.61832 ], [ -75.613377, 39.620288 ], [ -75.613153, 39.62096 ], [ -75.611969, 39.621968 ], [ -75.6004949, 39.6353937 ], [ -75.5917468, 39.6456298 ], [ -75.5871559, 39.6510016 ], [ -75.587147, 39.651012 ], [ -75.569037, 39.656494 ], [ -75.5680125, 39.6565269 ], [ -75.562246, 39.656712 ], [ -75.5615438, 39.6575496 ], [ -75.5613568, 39.6577727 ], [ -75.5582831, 39.6614389 ], [ -75.5568449, 39.6631544 ], [ -75.5565726, 39.6634792 ], [ -75.5537716, 39.6668203 ], [ -75.5508078, 39.6703555 ], [ -75.5350761, 39.6891202 ], [ -75.5319118, 39.6928946 ], [ -75.525533, 39.7005032 ], [ -75.5126823, 39.7158315 ], [ -75.509113, 39.720089 ], [ -75.4964905, 39.7432991 ], [ -75.490243, 39.754787 ], [ -75.4897514, 39.7555035 ], [ -75.4780527, 39.7725541 ], [ -75.4719916, 39.781388 ], [ -75.4697456, 39.7846615 ], [ -75.4690046, 39.7857415 ], [ -75.468502, 39.786474 ], [ -75.423416, 39.806615 ], [ -75.428038, 39.809212 ], [ -75.4339085, 39.8117473 ], [ -75.4370684, 39.813112 ], [ -75.4373079, 39.8132154 ], [ -75.4498744, 39.8186425 ], [ -75.45374, 39.820312 ], [ -75.4549972, 39.8207703 ], [ -75.4577341, 39.821768 ], [ -75.4580581, 39.8218861 ], [ -75.4598175, 39.8225275 ], [ -75.4599264, 39.8225672 ], [ -75.463341, 39.823812 ], [ -75.4725475, 39.8265378 ], [ -75.4726776, 39.8265763 ], [ -75.475487, 39.8274081 ], [ -75.481242, 39.829112 ], [ -75.498843, 39.833312 ], [ -75.498982, 39.8333333 ], [ -75.4989861, 39.8333339 ], [ -75.518444, 39.836311 ], [ -75.5188176, 39.836345 ], [ -75.5281894, 39.8371969 ], [ -75.532798, 39.8376158 ], [ -75.539346, 39.838211 ], [ -75.539734, 39.8382209 ], [ -75.5400583, 39.8382292 ], [ -75.5408864, 39.8382504 ], [ -75.5513216, 39.8385173 ], [ -75.570464, 39.839007 ], [ -75.5771683, 39.8386634 ], [ -75.579394, 39.8385493 ], [ -75.579849, 39.838526 ], [ -75.5798997, 39.8385221 ], [ -75.5930817, 39.8375003 ], [ -75.593666, 39.837455 ], [ -75.5948458, 39.8372862 ], [ -75.595756, 39.837156 ], [ -75.617251, 39.833999 ], [ -75.634706, 39.830164 ], [ -75.6348128, 39.8301358 ], [ -75.641518, 39.828363 ], [ -75.6581539, 39.8227305 ], [ -75.662822, 39.82115 ], [ -75.680794100000014, 39.8133186 ], [ -75.6815569, 39.8129862 ], [ -75.685991, 39.811054 ], [ -75.6945623, 39.8062955 ], [ -75.701208, 39.802606 ], [ -75.7057873, 39.7995239 ], [ -75.716969, 39.791998 ], [ -75.7193346, 39.7901506 ], [ -75.7248663, 39.7858306 ], [ -75.727049, 39.784126 ], [ -75.736489, 39.775759 ], [ -75.7393236, 39.7729248 ], [ -75.744394, 39.767855 ], [ -75.7514366, 39.7595521 ], [ -75.753066, 39.757631 ], [ -75.7544659, 39.7556311 ], [ -75.7592138, 39.7488485 ], [ -75.7601016, 39.7475801 ], [ -75.760346, 39.747231 ], [ -75.7658792, 39.7381059 ], [ -75.766058, 39.737811 ], [ -75.773786, 39.7222 ], [ -75.788596, 39.722199 ], [ -75.7883976, 39.7005718 ], [ -75.788395, 39.700287 ], [ -75.788395, 39.700031 ], [ -75.7884408, 39.6968722 ], [ -75.7884665, 39.6951022 ], [ -75.788479200000012, 39.6942314 ], [ -75.7885717, 39.6878564 ], [ -75.7885804, 39.6872592 ], [ -75.7886037, 39.6856552 ], [ -75.788658, 39.681911 ], [ -75.788616, 39.680742 ], [ -75.7886332, 39.6715131 ], [ -75.7886555, 39.6595728 ], [ -75.788658, 39.658211 ] ] ] ] } },
{ "type": "Feature", "properties": { "STATEFP": "10", "COUNTYFP": "005", "COUNTYNS": "00217269", "GEOIDFQ": "0500000US10005", "GEOID": "10005", "NAME": "Sussex", "NAMELSAD": "Sussex County", "STUSPS": "DE", "STATE_NAME": "Delaware", "LSAD": "06", "ALAND": 2424605748.0, "AWATER": 674113743.0, "STATE_NAME_HYPHEN": "Delaware" }, "geometry": { "type": "MultiPolygon", "coordinates": [ [ [ [ -75.722028, 38.822078 ], [ -75.7204404, 38.8018784 ], [ -75.7204376, 38.8018434 ], [ -75.7175895, 38.765607 ], [ -75.7128762, 38.7056398 ], [ -75.7122766, 38.6980116 ], [ -75.7095268, 38.6630262 ], [ -75.7073557, 38.6354032 ], [ -75.707346, 38.63528 ], [ -75.706585, 38.626125 ], [ -75.706235, 38.621296 ], [ -75.70586, 38.616268 ], [ -75.705774, 38.61474 ], [ -75.703981, 38.592066 ], [ -75.703445, 38.58512 ], [ -75.701565, 38.560736 ], [ -75.7003946, 38.5455204 ], [ -75.700179, 38.542717 ], [ -75.7001723, 38.5426187 ], [ -75.698779, 38.5220306 ], [ -75.698777, 38.522001 ], [ -75.6979008, 38.5112905 ], [ -75.696688, 38.496467 ], [ -75.696369, 38.492373 ], [ -75.69367, 38.46008 ], [ -75.6916523, 38.4599952 ], [ -75.665585, 38.4589 ], [ -75.662843, 38.458759 ], [ -75.64808, 38.4583693 ], [ -75.630457, 38.457904 ], [ -75.598069, 38.456855 ], [ -75.5979383, 38.4568432 ], [ -75.593082, 38.456404 ], [ -75.589307, 38.456286 ], [ -75.583601, 38.456424 ], [ -75.5830567, 38.4563992 ], [ -75.5829404, 38.4563939 ], [ -75.5818922, 38.456346 ], [ -75.5742232, 38.4559962 ], [ -75.57411, 38.455991 ], [ -75.5643519, 38.4557074 ], [ -75.5641119, 38.4557004 ], [ -75.5631782, 38.4556733 ], [ -75.5599751, 38.4555802 ], [ -75.559934, 38.455579 ], [ -75.559212, 38.455563 ], [ -75.558396, 38.4555436 ], [ -75.5581387, 38.4555375 ], [ -75.5553434, 38.455471 ], [ -75.5553393, 38.4554709 ], [ -75.5524441, 38.4554021 ], [ -75.5440571, 38.4552027 ], [ -75.5411417, 38.4551334 ], [ -75.5395031, 38.4550945 ], [ -75.5380329, 38.4550595 ], [ -75.5341367, 38.4549669 ], [ -75.533763, 38.454958 ], [ -75.5325346, 38.4549245 ], [ -75.52273, 38.454657 ], [ -75.521304, 38.454657 ], [ -75.502961, 38.45422 ], [ -75.500142, 38.454144 ], [ -75.47915, 38.453699 ], [ -75.4775393, 38.4536662 ], [ -75.4440966, 38.4529843 ], [ -75.428728, 38.452671 ], [ -75.4286445, 38.4526697 ], [ -75.424831, 38.45261 ], [ -75.410884, 38.4524 ], [ -75.40199, 38.452261 ], [ -75.38421, 38.452123 ], [ -75.370891, 38.452238 ], [ -75.355433, 38.452131 ], [ -75.34125, 38.45197 ], [ -75.3314753, 38.4519122 ], [ -75.26035, 38.451492 ], [ -75.252861400000015, 38.4513987 ], [ -75.252723, 38.451397 ], [ -75.2362936, 38.4513503 ], [ -75.2327057, 38.4513401 ], [ -75.2202523, 38.4513047 ], [ -75.2185099, 38.4512997 ], [ -75.2051497, 38.4512617 ], [ -75.2051329, 38.451261699999989 ], [ -75.185554, 38.451206 ], [ -75.184717, 38.4512058 ], [ -75.1419647, 38.451196 ], [ -75.141894, 38.451196 ], [ -75.0858646, 38.4513149 ], [ -75.082068, 38.451323 ], [ -75.078485, 38.4513118 ], [ -75.0702309, 38.4512861 ], [ -75.0653929, 38.451271 ], [ -75.0653682, 38.4512709 ], [ -75.0626999, 38.4512626 ], [ -75.05801, 38.451248 ], [ -75.053584, 38.4512553 ], [ -75.0524042, 38.4512573 ], [ -75.048939, 38.451263 ], [ -75.049057, 38.4563847 ], [ -75.0493124, 38.4674742 ], [ -75.0495511, 38.4778389 ], [ -75.049748, 38.486387 ], [ -75.0516235, 38.5085123 ], [ -75.0525736, 38.5197214 ], [ -75.0526117, 38.5201709 ], [ -75.0526976, 38.5211836 ], [ -75.0530517, 38.5253618 ], [ -75.0535866, 38.5316711 ], [ -75.0536282, 38.5321622 ], [ -75.0541713, 38.538569699999989 ], [ -75.0547831, 38.5457874 ], [ -75.0555781, 38.5551653 ], [ -75.060032, 38.607709 ], [ -75.060478, 38.608012 ], [ -75.0610007, 38.6084069 ], [ -75.061259, 38.608602 ], [ -75.06192, 38.608869 ], [ -75.065217, 38.632394 ], [ -75.06551, 38.66103 ], [ -75.0703588, 38.6883343 ], [ -75.071998, 38.6975648 ], [ -75.0731711, 38.7041703 ], [ -75.0736827, 38.7070513 ], [ -75.0749827, 38.714372 ], [ -75.075398, 38.716710299999988 ], [ -75.0777167, 38.7297674 ], [ -75.0781116, 38.731991 ], [ -75.0792136, 38.7381965 ], [ -75.079221, 38.738238 ], [ -75.080217, 38.750112 ], [ -75.082153, 38.772157 ], [ -75.089473, 38.797198 ], [ -75.092014, 38.803902 ], [ -75.09748, 38.805939 ], [ -75.099144, 38.803531 ], [ -75.093295, 38.797618 ], [ -75.093654, 38.793992 ], [ -75.097103, 38.788703 ], [ -75.1030872, 38.7865992 ], [ -75.113331, 38.782998 ], [ -75.134022, 38.782242 ], [ -75.159022, 38.790193 ], [ -75.160748, 38.791224 ], [ -75.1902012, 38.8066769 ], [ -75.190552, 38.806861 ], [ -75.205329, 38.823386 ], [ -75.2272425, 38.840513 ], [ -75.232029, 38.844254 ], [ -75.263115, 38.877351 ], [ -75.2686114, 38.880849 ], [ -75.273363, 38.883873 ], [ -75.280272, 38.892352 ], [ -75.2927502, 38.9032588 ], [ -75.3040085, 38.9130993 ], [ -75.304078, 38.91316 ], [ -75.312282, 38.924594 ], [ -75.317096, 38.93344 ], [ -75.315908, 38.939725 ], [ -75.315717, 38.9399397 ], [ -75.311542, 38.944633 ], [ -75.311882, 38.945698 ], [ -75.3119226, 38.9459168 ], [ -75.314294, 38.947283 ], [ -75.313379, 38.949417 ], [ -75.313534, 38.95043 ], [ -75.316686, 38.952913 ], [ -75.319381, 38.953685 ], [ -75.321266, 38.953455 ], [ -75.322202, 38.951826 ], [ -75.324635, 38.94971 ], [ -75.326288, 38.949007 ], [ -75.328103, 38.949007 ], [ -75.33027, 38.950487 ], [ -75.332444, 38.950707 ], [ -75.33326, 38.948897 ], [ -75.334997, 38.947315 ], [ -75.338704, 38.946264 ], [ -75.343516, 38.947439 ], [ -75.342174, 38.951435 ], [ -75.343238, 38.954694 ], [ -75.344061, 38.955269 ], [ -75.345173, 38.955234 ], [ -75.345967, 38.953443 ], [ -75.349236, 38.949711 ], [ -75.349341, 38.948098 ], [ -75.350213, 38.947438 ], [ -75.352774, 38.947925 ], [ -75.354358, 38.949966 ], [ -75.356842, 38.952342 ], [ -75.356907, 38.95418 ], [ -75.358977, 38.95581 ], [ -75.360153, 38.957559 ], [ -75.361025, 38.957533 ], [ -75.364428, 38.954486 ], [ -75.366208, 38.953935 ], [ -75.368314, 38.95756 ], [ -75.367886, 38.95958 ], [ -75.372131, 38.961436 ], [ -75.376851, 38.960552 ], [ -75.380649, 38.961873 ], [ -75.381339, 38.961285 ], [ -75.381517, 38.958761 ], [ -75.382525, 38.955906 ], [ -75.389005, 38.954672 ], [ -75.390664, 38.95678 ], [ -75.393212, 38.95574 ], [ -75.393134, 38.95414 ], [ -75.393615, 38.952846 ], [ -75.395424, 38.9511 ], [ -75.398344, 38.949906 ], [ -75.400716, 38.947717 ], [ -75.4009, 38.945819 ], [ -75.399719, 38.944471 ], [ -75.398525, 38.94074 ], [ -75.399834, 38.938929 ], [ -75.402873, 38.937472 ], [ -75.400321, 38.935548 ], [ -75.397887, 38.936187 ], [ -75.398613, 38.933517 ], [ -75.400176, 38.93139 ], [ -75.40095, 38.929481 ], [ -75.399109, 38.92691 ], [ -75.399883, 38.925574 ], [ -75.402155, 38.925007 ], [ -75.403351, 38.922773 ], [ -75.401735, 38.920269 ], [ -75.401413, 38.918355 ], [ -75.402507, 38.917559 ], [ -75.402774, 38.917422 ], [ -75.404831, 38.917451 ], [ -75.40561, 38.919408 ], [ -75.408922, 38.919703 ], [ -75.408818, 38.916824 ], [ -75.410463, 38.916418 ], [ -75.410646, 38.917458 ], [ -75.412565, 38.917992 ], [ -75.416679, 38.918031 ], [ -75.418423, 38.916745 ], [ -75.416947, 38.915521 ], [ -75.418318, 38.914263 ], [ -75.41983, 38.915416 ], [ -75.421581, 38.915517 ], [ -75.422073, 38.914042 ], [ -75.423458, 38.91424 ], [ -75.424692, 38.913418 ], [ -75.428404, 38.913206 ], [ -75.430096, 38.913351 ], [ -75.431697, 38.912117 ], [ -75.434048, 38.910817 ], [ -75.44039, 38.913128 ], [ -75.443717, 38.913077 ], [ -75.443988, 38.913074 ], [ -75.446064, 38.912768 ], [ -75.449628, 38.912065 ], [ -75.456385, 38.909809 ], [ -75.460575, 38.909382 ], [ -75.465153, 38.91131 ], [ -75.477222, 38.905841 ], [ -75.479626, 38.905593 ], [ -75.481636, 38.904197 ], [ -75.484125, 38.904448 ], [ -75.484819, 38.903753 ], [ -75.485657, 38.903617 ], [ -75.488156, 38.898983 ], [ -75.487732, 38.895493 ], [ -75.488026, 38.892784 ], [ -75.490453, 38.889664 ], [ -75.491565, 38.888525 ], [ -75.494383, 38.887882 ], [ -75.49778, 38.882127 ], [ -75.501771, 38.88088 ], [ -75.503337, 38.881617 ], [ -75.508168, 38.878951 ], [ -75.5089, 38.876927 ], [ -75.509168, 38.875766 ], [ -75.516306, 38.864002 ], [ -75.517764, 38.861012 ], [ -75.520439, 38.855742 ], [ -75.53518, 38.850368 ], [ -75.536234, 38.84989 ], [ -75.535968, 38.847616 ], [ -75.53958, 38.843634 ], [ -75.541336, 38.842864 ], [ -75.544026, 38.84337 ], [ -75.548726, 38.841077 ], [ -75.551016, 38.838719 ], [ -75.553173, 38.837402 ], [ -75.555013, 38.835649 ], [ -75.582418, 38.834638 ], [ -75.615422, 38.833616 ], [ -75.7225991, 38.8298594 ], [ -75.722028, 38.822078 ] ] ] ] } }
]
}
