{
"type": "FeatureCollection",
"name": "GU_counties_2023",
"crs": { "type": "name", "properties": { "name": "urn:ogc:def:crs:EPSG::4269" } },
"features": [
{ "type": "Feature", "properties": { "STATEFP": "66", "COUNTYFP": "010", "COUNTYNS": "01802705", "GEOIDFQ": "0500000US66010", "GEOID": "66010", "NAME": "Guam", "NAMELSAD": "Guam", "STUSPS": "GU", "STATE_NAME": "Guam", "LSAD": "00", "ALAND": 543555846.0, "AWATER": 934337453.0 }, "geometry": { "type": "MultiPolygon", "coordinates": [ [ [ [ 144.645379, 13.236271 ], [ 144.647637974519, 13.2374509806208 ], [ 144.654293321439013, 13.240927416643601 ], [ 144.657078, 13.242382 ], [ 144.658503, 13.241926 ], [ 144.658596536748007, 13.2404761804061 ], [ 144.658617, 13.240159 ], [ 144.65276660083299, 13.2372315938289 ], [ 144.646686, 13.234189 ], [ 144.645162, 13.234629 ], [ 144.645379, 13.236271 ] ] ], [ [ [ 144.618068, 13.44781 ], [ 144.618205, 13.447969 ], [ 144.619097, 13.449011 ], [ 144.623961, 13.454685 ], [ 144.624038397801002, 13.454775348827001 ], [ 144.625718, 13.456736 ], [ 144.626465, 13.457608 ], [ 144.626573, 13.457734 ], [ 144.630024, 13.460251 ], [ 144.633652, 13.462428 ], [ 144.635893, 13.463902 ], [ 144.635894277022999, 13.463902464665599 ], [ 144.637869, 13.464621 ], [ 144.638345, 13.464794 ], [ 144.638684, 13.464784 ], [ 144.639911, 13.464749 ], [ 144.643926, 13.464754 ], [ 144.648606, 13.464759 ], [ 144.661254, 13.464774 ], [ 144.661638, 13.464775 ], [ 144.662015, 13.465106 ], [ 144.662935, 13.465917 ], [ 144.670515, 13.46369 ], [ 144.672123, 13.463494 ], [ 144.675368, 13.4631 ], [ 144.677467, 13.463735 ], [ 144.68006, 13.465083 ], [ 144.681704, 13.466294 ], [ 144.683277, 13.467054 ], [ 144.686247, 13.467902 ], [ 144.686884, 13.467301 ], [ 144.6863, 13.466258 ], [ 144.687202, 13.465003 ], [ 144.688124657011997, 13.4642723580546 ], [ 144.688139, 13.464261 ], [ 144.689829, 13.463626 ], [ 144.690840184944989, 13.4637771962252 ], [ 144.690879, 13.463783 ], [ 144.69146119359101, 13.464215147196001 ], [ 144.692594, 13.465056 ], [ 144.697686, 13.466887 ], [ 144.699463, 13.467955 ], [ 144.702534, 13.468283 ], [ 144.706472, 13.47133 ], [ 144.706597024138006, 13.4715410701618 ], [ 144.70667432465001, 13.471671571614699 ], [ 144.706812, 13.471904 ], [ 144.706624, 13.474365 ], [ 144.706777, 13.476135 ], [ 144.707597, 13.476545 ], [ 144.708287, 13.476169 ], [ 144.708471, 13.4753 ], [ 144.710538, 13.474142 ], [ 144.71316811865799, 13.473716914551201 ], [ 144.715593, 13.473325 ], [ 144.717133, 13.473431 ], [ 144.722465, 13.476551 ], [ 144.722912376656012, 13.4768586819687 ], [ 144.724742, 13.478117 ], [ 144.728636, 13.47896 ], [ 144.728567, 13.480008 ], [ 144.72927, 13.480921 ], [ 144.730468, 13.480239 ], [ 144.731255, 13.478633 ], [ 144.732866, 13.479005 ], [ 144.738695, 13.47914 ], [ 144.743817, 13.477625 ], [ 144.750774, 13.477728 ], [ 144.753064, 13.48097 ], [ 144.754105, 13.480851 ], [ 144.754613, 13.477715 ], [ 144.754807693039993, 13.477727838216101 ], [ 144.761134, 13.478145 ], [ 144.763779, 13.478703 ], [ 144.76746, 13.479899 ], [ 144.767595915562993, 13.4799844039806 ], [ 144.768167343498988, 13.4803434667638 ], [ 144.769357, 13.481091 ], [ 144.769783818625996, 13.481660860543499 ], [ 144.771424893767005, 13.483851917623999 ], [ 144.773612, 13.486772 ], [ 144.774774, 13.488871 ], [ 144.775153, 13.490944 ], [ 144.774517, 13.494237 ], [ 144.772386, 13.495154 ], [ 144.77005, 13.495161 ], [ 144.769928, 13.497748 ], [ 144.76983799475201, 13.4979607194482 ], [ 144.769119, 13.49966 ], [ 144.770562, 13.502353 ], [ 144.77235, 13.504479 ], [ 144.773574173105999, 13.5054107173749 ], [ 144.775188, 13.506639 ], [ 144.777188, 13.506532 ], [ 144.781365, 13.507978 ], [ 144.782247470865002, 13.508027213793399 ], [ 144.783194, 13.50808 ], [ 144.786258, 13.506409 ], [ 144.786798, 13.50505 ], [ 144.789737, 13.50397 ], [ 144.797674, 13.506329 ], [ 144.800693, 13.508948 ], [ 144.802137, 13.511573 ], [ 144.804903, 13.515444 ], [ 144.806341, 13.519533 ], [ 144.805905, 13.520919 ], [ 144.803594, 13.521195 ], [ 144.803222, 13.522254 ], [ 144.804005, 13.524995 ], [ 144.803356, 13.526041 ], [ 144.803354088546996, 13.5260636977701 ], [ 144.803029, 13.529924 ], [ 144.803363, 13.531837 ], [ 144.80213, 13.533949 ], [ 144.802124, 13.535791 ], [ 144.806089, 13.539898 ], [ 144.806684718615998, 13.540779753641999 ], [ 144.808734, 13.543813 ], [ 144.808943, 13.545014 ], [ 144.810944, 13.548112 ], [ 144.811181, 13.550965 ], [ 144.811332947743011, 13.5512381311434 ], [ 144.812154, 13.552714 ], [ 144.812096880463997, 13.553358589177201 ], [ 144.811975, 13.554734 ], [ 144.813493, 13.55551 ], [ 144.814789, 13.557152 ], [ 144.817242, 13.558288 ], [ 144.818904, 13.562533 ], [ 144.819401356686996, 13.563292233043599 ], [ 144.821768, 13.566905 ], [ 144.821611, 13.56929 ], [ 144.823549735459011, 13.571610099437301 ], [ 144.825195, 13.573579 ], [ 144.828712, 13.576202 ], [ 144.830681, 13.576253 ], [ 144.831817, 13.578591 ], [ 144.831025, 13.580176 ], [ 144.830995, 13.58214 ], [ 144.832504, 13.585183 ], [ 144.834532, 13.58741 ], [ 144.835963, 13.591223 ], [ 144.836534, 13.594471 ], [ 144.836791, 13.597751 ], [ 144.836758685027007, 13.5980957620938 ], [ 144.836323, 13.602744 ], [ 144.836165, 13.605338 ], [ 144.835764, 13.607039 ], [ 144.835905, 13.609401 ], [ 144.835848, 13.611444 ], [ 144.835944, 13.614863 ], [ 144.835963, 13.617437 ], [ 144.836695, 13.624138 ], [ 144.837844, 13.626275 ], [ 144.839108, 13.62745 ], [ 144.844577, 13.633952 ], [ 144.846554, 13.636808 ], [ 144.848005, 13.639517 ], [ 144.851657, 13.648272 ], [ 144.854944, 13.651239 ], [ 144.855088, 13.651369 ], [ 144.855348, 13.651603 ], [ 144.858531, 13.653966 ], [ 144.85977, 13.654383 ], [ 144.863852, 13.65403 ], [ 144.868249, 13.652605 ], [ 144.872749, 13.649659 ], [ 144.875579, 13.647367 ], [ 144.878802, 13.64573 ], [ 144.8816, 13.642836 ], [ 144.885491855190992, 13.637462596874 ], [ 144.889964, 13.631288 ], [ 144.891819, 13.62935 ], [ 144.893308, 13.628541 ], [ 144.895482945682005, 13.6259397405653 ], [ 144.896517, 13.624703 ], [ 144.899406, 13.621994 ], [ 144.900015, 13.620152 ], [ 144.901074, 13.619144 ], [ 144.904418, 13.612417 ], [ 144.904945, 13.608592 ], [ 144.905542, 13.606962 ], [ 144.90749835241499, 13.6055696868527 ], [ 144.907852, 13.605318 ], [ 144.912994, 13.603694 ], [ 144.914599, 13.602963 ], [ 144.925857, 13.600569 ], [ 144.92827, 13.600167 ], [ 144.929419, 13.600305 ], [ 144.931308, 13.601783 ], [ 144.937045, 13.600164 ], [ 144.939118, 13.600158 ], [ 144.940919, 13.600526 ], [ 144.943418, 13.600158 ], [ 144.949317, 13.600318 ], [ 144.951127, 13.600992 ], [ 144.953996, 13.600517 ], [ 144.956102, 13.599368 ], [ 144.956712, 13.598168 ], [ 144.956622, 13.59612 ], [ 144.951782, 13.587513 ], [ 144.950299, 13.580934 ], [ 144.95044, 13.578963 ], [ 144.948746, 13.57524 ], [ 144.947828, 13.57456 ], [ 144.947059236249004, 13.5729953150823 ], [ 144.946724, 13.572313 ], [ 144.944965, 13.571184 ], [ 144.944112, 13.570164 ], [ 144.941647, 13.568862 ], [ 144.94034, 13.568053 ], [ 144.940294, 13.566603 ], [ 144.939508, 13.563894 ], [ 144.938504, 13.562625 ], [ 144.938367, 13.560856 ], [ 144.939156, 13.556857 ], [ 144.940171, 13.552621 ], [ 144.939381, 13.551658 ], [ 144.937749206004014, 13.548003846135201 ], [ 144.936377, 13.544931 ], [ 144.935755, 13.544996 ], [ 144.934971, 13.542909 ], [ 144.933264, 13.540875 ], [ 144.932346, 13.538885 ], [ 144.932012, 13.536266 ], [ 144.932211, 13.533943 ], [ 144.931165, 13.532883 ], [ 144.927648, 13.52461 ], [ 144.926691, 13.522049 ], [ 144.926464257271988, 13.5218665657783 ], [ 144.923508, 13.519488 ], [ 144.922288, 13.519268 ], [ 144.920298, 13.51891 ], [ 144.918182, 13.517662 ], [ 144.917609, 13.517325 ], [ 144.915407, 13.516785 ], [ 144.915298, 13.516246 ], [ 144.912185, 13.515097 ], [ 144.910749, 13.5156 ], [ 144.907788, 13.514808 ], [ 144.906058, 13.513445 ], [ 144.905977, 13.513381 ], [ 144.90576, 13.51321 ], [ 144.905649, 13.513271 ], [ 144.905563, 13.513319 ], [ 144.903756, 13.513061 ], [ 144.901562, 13.51235 ], [ 144.900789, 13.511644 ], [ 144.899033, 13.510039 ], [ 144.897082, 13.509244 ], [ 144.895972, 13.506991 ], [ 144.894213, 13.507164 ], [ 144.891812, 13.506252 ], [ 144.891151, 13.504468 ], [ 144.891305, 13.499442 ], [ 144.891992, 13.498274 ], [ 144.890516, 13.496361 ], [ 144.888083, 13.494455 ], [ 144.886748, 13.492247 ], [ 144.884593, 13.491147 ], [ 144.883731, 13.490706 ], [ 144.881427, 13.490963 ], [ 144.876863, 13.489686 ], [ 144.872364, 13.487163 ], [ 144.871642, 13.486625 ], [ 144.870874, 13.486053 ], [ 144.870873257244995, 13.4860504992947 ], [ 144.869868, 13.482666 ], [ 144.867263982840996, 13.480906163076 ], [ 144.865059, 13.479416 ], [ 144.864244, 13.4781 ], [ 144.86081, 13.473998 ], [ 144.858942, 13.471489 ], [ 144.858700675225009, 13.471324450767201 ], [ 144.85666, 13.469933 ], [ 144.854539, 13.467265 ], [ 144.854538420083998, 13.467264410730801 ], [ 144.851191, 13.463863 ], [ 144.850604, 13.463266 ], [ 144.849558, 13.463181 ], [ 144.848128, 13.462639 ], [ 144.845981, 13.462788 ], [ 144.844436, 13.461863 ], [ 144.843762, 13.460404 ], [ 144.842297, 13.459552 ], [ 144.840871, 13.458974 ], [ 144.839445, 13.457471 ], [ 144.837324, 13.455551 ], [ 144.836851738540986, 13.4552262435808 ], [ 144.835784, 13.454492 ], [ 144.834487, 13.452785 ], [ 144.833786410386011, 13.4512873204445 ], [ 144.832671, 13.44811 ], [ 144.830862061956992, 13.446590907096301 ], [ 144.830056, 13.445914 ], [ 144.827078903363997, 13.444650193271301 ], [ 144.825931, 13.442759 ], [ 144.8243, 13.442342 ], [ 144.82387, 13.442232 ], [ 144.819949, 13.442361 ], [ 144.818119, 13.441687 ], [ 144.817542, 13.441052 ], [ 144.816569191431, 13.4399834501325 ], [ 144.81552, 13.438831 ], [ 144.813973, 13.438028 ], [ 144.811265945445996, 13.434600075012 ], [ 144.810045, 13.433054 ], [ 144.809024, 13.429344 ], [ 144.807605, 13.427437 ], [ 144.805141, 13.42643 ], [ 144.804584, 13.426475 ], [ 144.800872, 13.426776 ], [ 144.796751, 13.428355 ], [ 144.795399, 13.428131 ], [ 144.792785, 13.426507 ], [ 144.79084, 13.42557 ], [ 144.789151, 13.425433 ], [ 144.788857, 13.425409 ], [ 144.786498, 13.424469 ], [ 144.785878, 13.424222 ], [ 144.783946, 13.421628 ], [ 144.784241, 13.418271 ], [ 144.785224, 13.416526 ], [ 144.788227, 13.415441 ], [ 144.788775, 13.413821 ], [ 144.787157, 13.411832 ], [ 144.783579, 13.410389 ], [ 144.782986, 13.407661 ], [ 144.78099, 13.404686 ], [ 144.781907, 13.401764 ], [ 144.780795, 13.399317 ], [ 144.778394, 13.397719 ], [ 144.777473, 13.396437 ], [ 144.776744, 13.395761 ], [ 144.775912, 13.395552 ], [ 144.775033, 13.395931 ], [ 144.773845, 13.394936 ], [ 144.772681, 13.395343 ], [ 144.772223, 13.39401 ], [ 144.771558, 13.393052 ], [ 144.772093, 13.392011 ], [ 144.77337, 13.39193 ], [ 144.774601, 13.389882 ], [ 144.775936, 13.389028 ], [ 144.775955, 13.387109 ], [ 144.775076, 13.38508 ], [ 144.774633, 13.381313 ], [ 144.772611, 13.376852 ], [ 144.77247, 13.371415 ], [ 144.770399, 13.368808 ], [ 144.770161, 13.36638 ], [ 144.770315728529994, 13.365664339832801 ], [ 144.770636, 13.364183 ], [ 144.771684, 13.362362 ], [ 144.771597, 13.359046 ], [ 144.771879, 13.356909 ], [ 144.771879, 13.350939 ], [ 144.772155, 13.346799 ], [ 144.772456834145004, 13.3434796884797 ], [ 144.772230685814009, 13.341691391036701 ], [ 144.772208, 13.341512 ], [ 144.771195828183011, 13.338236802154199 ], [ 144.771186, 13.338205 ], [ 144.771239220760009, 13.336432574189701 ], [ 144.771264130690014, 13.335602991864301 ], [ 144.771308, 13.334142 ], [ 144.771244, 13.330759 ], [ 144.772208, 13.328206 ], [ 144.772386, 13.324912 ], [ 144.772627, 13.320976 ], [ 144.771821, 13.317466 ], [ 144.771295, 13.31511 ], [ 144.771918, 13.310547 ], [ 144.771998, 13.308927 ], [ 144.772393, 13.306452 ], [ 144.77211, 13.302536 ], [ 144.769986, 13.298159 ], [ 144.769065, 13.295831 ], [ 144.767522840444002, 13.293539734442 ], [ 144.767521, 13.293537 ], [ 144.766126, 13.29247 ], [ 144.765201, 13.291832 ], [ 144.764457, 13.290426 ], [ 144.76437767655699, 13.2901938799905 ], [ 144.763535, 13.287728 ], [ 144.763444618042996, 13.2870853061287 ], [ 144.763084, 13.284521 ], [ 144.761381, 13.282792 ], [ 144.760401, 13.282648 ], [ 144.759077, 13.28342 ], [ 144.758173889200009, 13.2831796634513 ], [ 144.7581, 13.28316 ], [ 144.758026, 13.282443 ], [ 144.759159, 13.280593 ], [ 144.759015, 13.279375 ], [ 144.754433, 13.275581 ], [ 144.753384, 13.275637 ], [ 144.751121, 13.278507 ], [ 144.749887, 13.279112 ], [ 144.748617, 13.279167 ], [ 144.747557, 13.278512 ], [ 144.747426, 13.276603 ], [ 144.75015, 13.273807 ], [ 144.750174, 13.272684 ], [ 144.749194, 13.271943 ], [ 144.745434, 13.270841 ], [ 144.742953, 13.269254 ], [ 144.7393, 13.268815 ], [ 144.738423, 13.268742 ], [ 144.737546, 13.268158 ], [ 144.737473, 13.267281 ], [ 144.73813, 13.266951 ], [ 144.7413, 13.266552 ], [ 144.741935, 13.266058 ], [ 144.742298, 13.26526 ], [ 144.74208, 13.264244 ], [ 144.741108, 13.263241 ], [ 144.739089, 13.263266 ], [ 144.738791787439993, 13.2632024251208 ], [ 144.738341, 13.263106 ], [ 144.737873, 13.262636 ], [ 144.73718, 13.260282 ], [ 144.735267, 13.25774 ], [ 144.734606, 13.255879 ], [ 144.733624, 13.254775 ], [ 144.733009, 13.253358 ], [ 144.732514, 13.252818 ], [ 144.731264, 13.252674 ], [ 144.730491, 13.251276 ], [ 144.727219, 13.249759 ], [ 144.726007, 13.247572 ], [ 144.723123, 13.247058 ], [ 144.721259, 13.248738 ], [ 144.721115, 13.249791 ], [ 144.719605, 13.250954 ], [ 144.719073, 13.251116 ], [ 144.717648, 13.250673 ], [ 144.716319, 13.249345 ], [ 144.71509, 13.248614 ], [ 144.706197, 13.246264 ], [ 144.704278, 13.246867 ], [ 144.701171, 13.247027 ], [ 144.698815, 13.247778 ], [ 144.696055, 13.249698 ], [ 144.694435832587999, 13.2503024013524 ], [ 144.692859, 13.250891 ], [ 144.691395, 13.250641 ], [ 144.689052, 13.251007 ], [ 144.687448, 13.252721 ], [ 144.687486, 13.254024 ], [ 144.686949, 13.256002 ], [ 144.686718, 13.256465 ], [ 144.685978, 13.256511 ], [ 144.685331, 13.256187 ], [ 144.684251, 13.255378 ], [ 144.683418, 13.25461 ], [ 144.682351, 13.254373 ], [ 144.680541, 13.254422 ], [ 144.677325, 13.254589 ], [ 144.674341, 13.257939 ], [ 144.674349, 13.261127 ], [ 144.673790249650011, 13.2620034481935 ], [ 144.673394, 13.262625 ], [ 144.6722, 13.262924 ], [ 144.667428, 13.266162 ], [ 144.66461, 13.267663 ], [ 144.663538, 13.269769 ], [ 144.661895, 13.271425 ], [ 144.662492, 13.273479 ], [ 144.663673, 13.275058 ], [ 144.663615, 13.278094 ], [ 144.662049, 13.280533 ], [ 144.661946, 13.282452 ], [ 144.662195079615003, 13.2836953853105 ], [ 144.662441, 13.284923 ], [ 144.660406, 13.285726 ], [ 144.659238, 13.28683 ], [ 144.657613, 13.290182 ], [ 144.657522, 13.292886 ], [ 144.660428, 13.296032 ], [ 144.660866, 13.295934 ], [ 144.662919, 13.297606 ], [ 144.662717, 13.298914 ], [ 144.65854, 13.299583 ], [ 144.658329824103987, 13.300090215027801 ], [ 144.657652, 13.301726 ], [ 144.656811, 13.302421 ], [ 144.657036, 13.303826 ], [ 144.657323212649999, 13.304174838543 ], [ 144.658313, 13.305377 ], [ 144.657941, 13.306762 ], [ 144.654932, 13.307596 ], [ 144.653707, 13.310168 ], [ 144.653167, 13.313224 ], [ 144.653739, 13.314236 ], [ 144.655662, 13.313961 ], [ 144.657524, 13.31495 ], [ 144.657415, 13.316452 ], [ 144.653955, 13.318692 ], [ 144.651972, 13.319058 ], [ 144.650258, 13.322216 ], [ 144.651118, 13.324777 ], [ 144.652338, 13.326921 ], [ 144.65201, 13.328609 ], [ 144.64961, 13.32884 ], [ 144.649147, 13.331728 ], [ 144.647138, 13.33418 ], [ 144.645912, 13.336414 ], [ 144.644487, 13.337653 ], [ 144.642125, 13.337852 ], [ 144.640765, 13.338571 ], [ 144.638801, 13.338815 ], [ 144.636092, 13.340612 ], [ 144.636094739805003, 13.3411616049187 ], [ 144.636097, 13.341615 ], [ 144.639338, 13.343097 ], [ 144.643095, 13.348667 ], [ 144.644045, 13.35232 ], [ 144.646516, 13.35748 ], [ 144.648718917572012, 13.3616813070176 ], [ 144.648724, 13.361691 ], [ 144.649032, 13.365369 ], [ 144.650707, 13.369656 ], [ 144.651567, 13.370491 ], [ 144.652357, 13.372808 ], [ 144.652356120330012, 13.372828616854999 ], [ 144.652222, 13.375972 ], [ 144.651915, 13.378173 ], [ 144.653666, 13.38112 ], [ 144.653898163021012, 13.3816500030524 ], [ 144.655893, 13.386204 ], [ 144.656503699225993, 13.3867155735465 ], [ 144.658188840197994, 13.3881271907663 ], [ 144.658191, 13.388129 ], [ 144.659448, 13.389303 ], [ 144.660011, 13.391271 ], [ 144.66065, 13.393515 ], [ 144.660857052468998, 13.3938215764004 ], [ 144.661418086899005, 13.394652283307501 ], [ 144.661426, 13.394664 ], [ 144.663089, 13.398977 ], [ 144.663404, 13.401061 ], [ 144.662762, 13.40357 ], [ 144.661185, 13.404531 ], [ 144.661308093444006, 13.4077678374729 ], [ 144.661319134642014, 13.408058174312499 ], [ 144.661327, 13.408265 ], [ 144.658454, 13.412463 ], [ 144.65567, 13.414607 ], [ 144.655294820395994, 13.4147038346775 ], [ 144.652245, 13.415491 ], [ 144.64876, 13.415364 ], [ 144.647803, 13.417767 ], [ 144.646394, 13.418573 ], [ 144.644135, 13.418209 ], [ 144.642235, 13.418945 ], [ 144.639828, 13.421025 ], [ 144.639981169956997, 13.4215652912855 ], [ 144.640412, 13.423085 ], [ 144.638525, 13.42928 ], [ 144.636522, 13.431256 ], [ 144.632895, 13.434434 ], [ 144.624243, 13.437739 ], [ 144.620764, 13.441469 ], [ 144.620026, 13.443882 ], [ 144.618689, 13.445376 ], [ 144.618353, 13.445752 ], [ 144.618331, 13.445776 ], [ 144.618204, 13.446758 ], [ 144.618109, 13.447498 ], [ 144.618068, 13.44781 ] ] ] ] } }
]
}
