{
"type": "FeatureCollection",
"name": "MP_counties_2023",
"crs": { "type": "name", "properties": { "name": "urn:ogc:def:crs:EPSG::4269" } },
"features": [
{ "type": "Feature", "properties": { "STATEFP": "69", "COUNTYFP": "110", "COUNTYNS": "01805247", "GEOIDFQ": "0500000US69110", "GEOID": "69110", "NAME": "Saipan", "NAMELSAD": "Saipan Municipality", "STUSPS": "MP", "STATE_NAME": "Commonwealth of the Northern Mariana Islands", "LSAD": "12", "ALAND": 118890991.0, "AWATER": 532767361.0 }, "geometry": { "type": "MultiPolygon", "coordinates": [ [ [ [ 145.813069722806006, 15.257911647626999 ], [ 145.813243910694013, 15.2581752147233 ], [ 145.813446, 15.258481 ], [ 145.814487, 15.258191 ], [ 145.814335, 15.256603 ], [ 145.813443, 15.25646 ], [ 145.81276, 15.257443 ], [ 145.813069722806006, 15.257911647626999 ] ] ], [ [ [ 145.790009, 15.150628 ], [ 145.79094, 15.151511 ], [ 145.792588, 15.150435 ], [ 145.792603, 15.149515 ], [ 145.792556444616991, 15.1494522795532 ], [ 145.792171, 15.148933 ], [ 145.790108, 15.149316 ], [ 145.790044597625013, 15.150156241582099 ], [ 145.790009, 15.150628 ] ] ], [ [ [ 145.711576, 15.242268 ], [ 145.712805, 15.242358 ], [ 145.713727, 15.241111 ], [ 145.713057, 15.240011 ], [ 145.712143, 15.240148 ], [ 145.711529, 15.240658 ], [ 145.711576, 15.242268 ] ] ], [ [ [ 145.690141, 15.120205 ], [ 145.690469, 15.120806 ], [ 145.691634, 15.121299 ], [ 145.693554, 15.122893 ], [ 145.694018, 15.124214 ], [ 145.693924805212987, 15.124593300411499 ], [ 145.693232, 15.127413 ], [ 145.69249, 15.128801 ], [ 145.692374, 15.130464 ], [ 145.693358, 15.132824 ], [ 145.695717, 15.13597 ], [ 145.696319223561005, 15.137061020190799 ], [ 145.697193, 15.138644 ], [ 145.698656, 15.14327 ], [ 145.699233601505995, 15.144705175794201 ], [ 145.700109629069004, 15.1468818556336 ], [ 145.700488, 15.147822 ], [ 145.700048, 15.150773 ], [ 145.700101897962014, 15.151424193409699 ], [ 145.700109, 15.15151 ], [ 145.700619, 15.15238 ], [ 145.700059, 15.155331 ], [ 145.700242, 15.156771 ], [ 145.701322, 15.158092 ], [ 145.704998, 15.160811 ], [ 145.705393691532009, 15.1612526436185 ], [ 145.708141, 15.164319 ], [ 145.708911148358993, 15.1662241038351 ], [ 145.710725, 15.170711 ], [ 145.710746128260013, 15.1707868036815 ], [ 145.714131, 15.182931 ], [ 145.714516098432995, 15.1846648724984 ], [ 145.716812191135006, 15.1950028319485 ], [ 145.717031, 15.195988 ], [ 145.716856, 15.199486 ], [ 145.716267, 15.201256 ], [ 145.716301175355994, 15.2023652857962 ], [ 145.7164, 15.205573 ], [ 145.715814, 15.210064 ], [ 145.715497, 15.214253 ], [ 145.715713, 15.216831 ], [ 145.716237326520002, 15.2177459117833 ], [ 145.717093, 15.219239 ], [ 145.718626, 15.219642 ], [ 145.72026, 15.219429 ], [ 145.720736, 15.218724 ], [ 145.720751, 15.217659 ], [ 145.721896, 15.216878 ], [ 145.725463, 15.217045 ], [ 145.727423, 15.217596 ], [ 145.728782935959998, 15.2182428986712 ], [ 145.729582, 15.218623 ], [ 145.731464, 15.21987 ], [ 145.731488, 15.220622 ], [ 145.730418, 15.221629 ], [ 145.730509, 15.222356 ], [ 145.732281, 15.224155 ], [ 145.73226, 15.224983 ], [ 145.735046, 15.227114 ], [ 145.736004, 15.227212 ], [ 145.736623, 15.226903 ], [ 145.736816, 15.226229 ], [ 145.737499, 15.225919 ], [ 145.737730748258997, 15.2260079855439 ], [ 145.73846, 15.226288 ], [ 145.739528, 15.227467 ], [ 145.740473, 15.228977 ], [ 145.740466, 15.229893 ], [ 145.739897, 15.230215 ], [ 145.739852, 15.231324 ], [ 145.741185, 15.23199 ], [ 145.741732, 15.231932 ], [ 145.744825, 15.233031 ], [ 145.746896, 15.235991 ], [ 145.746967736489012, 15.236358502504499 ], [ 145.74714, 15.237241 ], [ 145.749173, 15.238604 ], [ 145.752673, 15.24021 ], [ 145.75353, 15.241076 ], [ 145.753564, 15.242294 ], [ 145.75557, 15.243522 ], [ 145.761332295180011, 15.244437289644001 ], [ 145.762577, 15.244635 ], [ 145.768268812640997, 15.2477349802158 ], [ 145.768704, 15.247972 ], [ 145.76952, 15.250086 ], [ 145.774711, 15.251477 ], [ 145.777505, 15.252911 ], [ 145.780459847488999, 15.255805657432299 ], [ 145.781776, 15.257095 ], [ 145.782443, 15.259277 ], [ 145.782358, 15.260757 ], [ 145.782703836898008, 15.2615533928576 ], [ 145.782751, 15.261662 ], [ 145.784494, 15.262899 ], [ 145.786516, 15.266688 ], [ 145.791811, 15.271707 ], [ 145.793282, 15.272172 ], [ 145.794006, 15.273311 ], [ 145.794041, 15.274723 ], [ 145.794901, 15.275847 ], [ 145.795731689034, 15.2762106723866 ], [ 145.798912, 15.277603 ], [ 145.802125, 15.281933 ], [ 145.80358, 15.282325 ], [ 145.806466, 15.28528 ], [ 145.808868, 15.288636 ], [ 145.810197, 15.289679 ], [ 145.811102, 15.290037 ], [ 145.812425, 15.289416 ], [ 145.813133, 15.288689 ], [ 145.813677, 15.287419 ], [ 145.815677, 15.286505 ], [ 145.815824330423993, 15.2864665052729 ], [ 145.817893, 15.285926 ], [ 145.818875, 15.286491 ], [ 145.821274, 15.283748 ], [ 145.826387, 15.274899 ], [ 145.827952431498005, 15.273528625446399 ], [ 145.82796, 15.273522 ], [ 145.82984, 15.272901 ], [ 145.830416, 15.271632 ], [ 145.830418, 15.269884 ], [ 145.829435, 15.264182 ], [ 145.828157, 15.261527 ], [ 145.826387, 15.25956 ], [ 145.824616, 15.259078 ], [ 145.817971, 15.260128 ], [ 145.81638, 15.261282 ], [ 145.814842, 15.26141 ], [ 145.810695, 15.258692 ], [ 145.810227, 15.257169 ], [ 145.810227, 15.25615 ], [ 145.810227, 15.255603 ], [ 145.81120517924299, 15.253610795621301 ], [ 145.811315696433013, 15.253385711280901 ], [ 145.811646, 15.252713 ], [ 145.811093, 15.251485 ], [ 145.809792, 15.250905 ], [ 145.808304, 15.248348 ], [ 145.808297, 15.246321 ], [ 145.807584, 15.245419 ], [ 145.807353, 15.244116 ], [ 145.80806, 15.243136 ], [ 145.80927, 15.2429 ], [ 145.809816, 15.242455 ], [ 145.809827, 15.240774 ], [ 145.806424, 15.23706 ], [ 145.805228, 15.236704 ], [ 145.803647, 15.237109 ], [ 145.802491, 15.236423 ], [ 145.802283, 15.234312 ], [ 145.800208, 15.231085 ], [ 145.798397, 15.229071 ], [ 145.796088, 15.228253 ], [ 145.793921, 15.227761 ], [ 145.792710685874994, 15.227954728534201 ], [ 145.792684, 15.227959 ], [ 145.790615, 15.225732 ], [ 145.790457835348008, 15.225356212848499 ], [ 145.789789, 15.223757 ], [ 145.787487, 15.220747 ], [ 145.785058, 15.218817 ], [ 145.784267, 15.217034 ], [ 145.783576, 15.216253 ], [ 145.782264, 15.215822 ], [ 145.780897, 15.211839 ], [ 145.779089, 15.210245 ], [ 145.778741, 15.208897 ], [ 145.778966, 15.207611 ], [ 145.780447666899988, 15.205412869171001 ], [ 145.781702, 15.203552 ], [ 145.781403404873004, 15.199789558534199 ], [ 145.781284, 15.198285 ], [ 145.779349, 15.197024 ], [ 145.778013, 15.195651 ], [ 145.777521, 15.194176 ], [ 145.778344, 15.192578 ], [ 145.778111, 15.189359 ], [ 145.778600103755991, 15.188584723884601 ], [ 145.779291, 15.187491 ], [ 145.779690774470993, 15.186701006060201 ], [ 145.781032610972005, 15.1840494042688 ], [ 145.781634, 15.182861 ], [ 145.783581, 15.182917 ], [ 145.78454, 15.181986 ], [ 145.784832, 15.18047 ], [ 145.784312, 15.178865 ], [ 145.784895, 15.176872 ], [ 145.786277662264013, 15.174287216540501 ], [ 145.786756, 15.173393 ], [ 145.789097, 15.171648 ], [ 145.791612, 15.170352 ], [ 145.794125, 15.168606 ], [ 145.796123, 15.166862 ], [ 145.795912, 15.165697 ], [ 145.792068, 15.163515 ], [ 145.791437, 15.161866 ], [ 145.791728, 15.158889 ], [ 145.791024, 15.157455 ], [ 145.791281, 15.156594 ], [ 145.790763, 15.156093 ], [ 145.78947, 15.155987 ], [ 145.788176, 15.154255 ], [ 145.788391, 15.152489 ], [ 145.788728, 15.151433 ], [ 145.788282, 15.150485 ], [ 145.787637, 15.150448 ], [ 145.785312, 15.151603 ], [ 145.78468, 15.151248 ], [ 145.782928, 15.151973 ], [ 145.78205, 15.151887 ], [ 145.781788, 15.150882 ], [ 145.780143, 15.150562 ], [ 145.779096, 15.151163 ], [ 145.777026, 15.151141 ], [ 145.776105, 15.151598 ], [ 145.774571, 15.151505 ], [ 145.7733, 15.152642 ], [ 145.771974, 15.154402 ], [ 145.77035, 15.15548 ], [ 145.770056, 15.156341 ], [ 145.770353, 15.157273 ], [ 145.769949, 15.158745 ], [ 145.768686, 15.159943 ], [ 145.767673065348987, 15.1615900686991 ], [ 145.76748, 15.161904 ], [ 145.761537, 15.163634 ], [ 145.759505, 15.163027 ], [ 145.758913, 15.162239 ], [ 145.751783, 15.160563 ], [ 145.749538, 15.158991 ], [ 145.749058, 15.157921 ], [ 145.748894, 15.155725 ], [ 145.748230773464996, 15.1544260912786 ], [ 145.745574234383014, 15.1492233413843 ], [ 145.742813459644992, 15.1438164491738 ], [ 145.741839, 15.141908 ], [ 145.740845, 15.139241 ], [ 145.741484, 15.135194 ], [ 145.745665, 15.127907 ], [ 145.748081636716989, 15.1256975437047 ], [ 145.749106, 15.124761 ], [ 145.752646, 15.12309 ], [ 145.754727, 15.12334 ], [ 145.756592, 15.120849 ], [ 145.756845, 15.11914 ], [ 145.755913, 15.116065 ], [ 145.755961, 15.114113 ], [ 145.756303, 15.112739 ], [ 145.754674, 15.108179 ], [ 145.753784, 15.107943 ], [ 145.75266, 15.106609 ], [ 145.752247, 15.105113 ], [ 145.752455, 15.103435 ], [ 145.751903, 15.102798 ], [ 145.752149, 15.101918 ], [ 145.751098, 15.095332 ], [ 145.750483, 15.093396 ], [ 145.748811, 15.091922 ], [ 145.747828, 15.091922 ], [ 145.746845, 15.092905 ], [ 145.746085, 15.094971 ], [ 145.745879, 15.097169 ], [ 145.745158, 15.099928 ], [ 145.74242, 15.103819 ], [ 145.74065, 15.105097 ], [ 145.738684, 15.105883 ], [ 145.737093369180997, 15.1060358549786 ], [ 145.732586, 15.106469 ], [ 145.731791, 15.105295 ], [ 145.727373, 15.106618 ], [ 145.722906, 15.107313 ], [ 145.718461, 15.107511 ], [ 145.717391, 15.107828 ], [ 145.716134, 15.107859 ], [ 145.715502, 15.106396 ], [ 145.712039, 15.105982 ], [ 145.710961, 15.105705 ], [ 145.709216, 15.105894 ], [ 145.708705, 15.106183 ], [ 145.708076, 15.106028 ], [ 145.707933974072006, 15.106103687235001 ], [ 145.707286, 15.106449 ], [ 145.707171, 15.106921 ], [ 145.707523, 15.108175 ], [ 145.707064, 15.110054 ], [ 145.70502, 15.112341 ], [ 145.699955, 15.116096 ], [ 145.696897, 15.117387 ], [ 145.696677, 15.117937 ], [ 145.692374, 15.119153 ], [ 145.690466, 15.119498 ], [ 145.690141, 15.120205 ] ] ] ] } },
{ "type": "Feature", "properties": { "STATEFP": "69", "COUNTYFP": "085", "COUNTYNS": "01805245", "GEOIDFQ": "0500000US69085", "GEOID": "69085", "NAME": "Northern Islands", "NAMELSAD": "Northern Islands Municipality", "STUSPS": "MP", "STATE_NAME": "Commonwealth of the Northern Mariana Islands", "LSAD": "12", "ALAND": 160067127.0, "AWATER": 2939499291.0 }, "geometry": { "type": "MultiPolygon", "coordinates": [ [ [ [ 146.051302, 16.00657 ], [ 146.051735, 16.008432 ], [ 146.053315425041006, 16.0123249983255 ], [ 146.053403082200987, 16.012540920731102 ], [ 146.05379, 16.013494 ], [ 146.05604, 16.015199 ], [ 146.056042559108988, 16.015212596784998 ], [ 146.056567, 16.017999 ], [ 146.057413, 16.018753 ], [ 146.06177, 16.027553 ], [ 146.062397, 16.027858 ], [ 146.063048, 16.027651 ], [ 146.063834, 16.026668 ], [ 146.064525, 16.025126 ], [ 146.06379, 16.02377 ], [ 146.063834, 16.02244 ], [ 146.060251, 16.016544 ], [ 146.057658, 16.013554 ], [ 146.056743191456007, 16.012831 ], [ 146.055259, 16.011658 ], [ 146.05495, 16.008794 ], [ 146.054687, 16.008005 ], [ 146.053128, 16.005918 ], [ 146.052630790698004, 16.005635800125699 ], [ 146.052203, 16.005393 ], [ 146.051518162007, 16.005726336264502 ], [ 146.051449, 16.00576 ], [ 146.051302, 16.00657 ] ] ], [ [ [ 145.832385, 17.315472 ], [ 145.835253, 17.320003 ], [ 145.836236, 17.320888 ], [ 145.840039, 17.321582 ], [ 145.842003, 17.321288 ], [ 145.847627, 17.318605 ], [ 145.8495, 17.317267 ], [ 145.849581, 17.315796 ], [ 145.847926, 17.314524 ], [ 145.847953, 17.312816 ], [ 145.848865, 17.311436 ], [ 145.851092, 17.31133 ], [ 145.852007, 17.310946 ], [ 145.852132, 17.30938 ], [ 145.851386, 17.308483 ], [ 145.850184, 17.307376 ], [ 145.850072135933004, 17.306627979671699 ], [ 145.849689, 17.304066 ], [ 145.847419, 17.299821 ], [ 145.844919, 17.297081 ], [ 145.842709, 17.297184 ], [ 145.840152, 17.29856 ], [ 145.838579, 17.299052 ], [ 145.837301, 17.300133 ], [ 145.834477, 17.301715 ], [ 145.832805, 17.30378 ], [ 145.83216, 17.306345 ], [ 145.832735, 17.30805 ], [ 145.832004, 17.310947 ], [ 145.832385, 17.315472 ] ] ], [ [ [ 145.814982, 17.604046 ], [ 145.815867, 17.606013 ], [ 145.818308, 17.608092 ], [ 145.820723, 17.61165 ], [ 145.820576, 17.613802 ], [ 145.821265, 17.615866 ], [ 145.823599, 17.618046 ], [ 145.832313, 17.620278 ], [ 145.835015, 17.620184 ], [ 145.838013, 17.619196 ], [ 145.838756, 17.617327 ], [ 145.840022, 17.61505 ], [ 145.842709, 17.612994 ], [ 145.845265, 17.612404 ], [ 145.846543, 17.611126 ], [ 145.848116, 17.608668 ], [ 145.851164, 17.601785 ], [ 145.851644350443991, 17.597752789976301 ], [ 145.851656, 17.597655 ], [ 145.850476, 17.591756 ], [ 145.850424179906014, 17.591680589250998 ], [ 145.848778, 17.589285 ], [ 145.842544, 17.584979 ], [ 145.84042, 17.58227 ], [ 145.840023, 17.581069 ], [ 145.83926, 17.580307 ], [ 145.838068, 17.579924 ], [ 145.829078, 17.579891 ], [ 145.825332, 17.581044 ], [ 145.822352, 17.586412 ], [ 145.818423, 17.58861 ], [ 145.815906, 17.5918 ], [ 145.814588, 17.601982 ], [ 145.814982, 17.604046 ] ] ], [ [ [ 145.766704, 16.705255 ], [ 145.766902, 16.705974 ], [ 145.768042, 16.708522 ], [ 145.769899, 16.711169 ], [ 145.7718, 16.711406 ], [ 145.773971, 16.712118 ], [ 145.775008, 16.713706 ], [ 145.777664, 16.715358 ], [ 145.778118, 16.717011 ], [ 145.779673, 16.717497 ], [ 145.781164, 16.717076 ], [ 145.781455, 16.715456 ], [ 145.782913, 16.714192 ], [ 145.784177, 16.714192 ], [ 145.785764, 16.713382 ], [ 145.786866, 16.712021 ], [ 145.787222, 16.70849 ], [ 145.787992, 16.705627 ], [ 145.789187, 16.704741 ], [ 145.789193, 16.70362 ], [ 145.788795, 16.703347 ], [ 145.786257, 16.696922 ], [ 145.786412, 16.694772 ], [ 145.786853, 16.693063 ], [ 145.787293, 16.692674 ], [ 145.787215, 16.691949 ], [ 145.786568, 16.691353 ], [ 145.785661, 16.691431 ], [ 145.785572934534002, 16.691438609683701 ], [ 145.784469, 16.691534 ], [ 145.783148, 16.691949 ], [ 145.782423, 16.692639 ], [ 145.781224, 16.692981 ], [ 145.779193, 16.692799 ], [ 145.777128, 16.693291 ], [ 145.776046, 16.693979 ], [ 145.773195, 16.697322 ], [ 145.77231, 16.698895 ], [ 145.770238, 16.700463 ], [ 145.768869, 16.70096 ], [ 145.766902, 16.702729 ], [ 145.766533, 16.703942 ], [ 145.766704, 16.705255 ] ] ], [ [ [ 145.707909, 18.047577 ], [ 145.709291, 18.049612 ], [ 145.711261, 18.051441 ], [ 145.712171, 18.054433 ], [ 145.711319, 18.056117 ], [ 145.71158, 18.058318 ], [ 145.712954, 18.059356 ], [ 145.713008, 18.060964 ], [ 145.711896, 18.062078 ], [ 145.714232, 18.066133 ], [ 145.713975, 18.067964 ], [ 145.716955, 18.075795 ], [ 145.722964, 18.082058 ], [ 145.729121, 18.085275 ], [ 145.731344, 18.084828 ], [ 145.734358, 18.085529 ], [ 145.735532, 18.085102 ], [ 145.73812, 18.085215 ], [ 145.743986, 18.09099 ], [ 145.746838, 18.091846 ], [ 145.748116, 18.093637 ], [ 145.756529, 18.099574 ], [ 145.757955, 18.103325 ], [ 145.759045, 18.1081 ], [ 145.757855, 18.116785 ], [ 145.758182, 18.121254 ], [ 145.758558713908002, 18.121957617133699 ], [ 145.759324, 18.123387 ], [ 145.758985704102003, 18.125010480315598 ], [ 145.758926, 18.125297 ], [ 145.759519, 18.127186 ], [ 145.761, 18.128718 ], [ 145.760932, 18.132966 ], [ 145.761909, 18.133824 ], [ 145.762437, 18.135615 ], [ 145.761396, 18.142067 ], [ 145.759747, 18.143449 ], [ 145.757195, 18.143865 ], [ 145.755624, 18.147092 ], [ 145.756079, 18.149958 ], [ 145.756538, 18.155906 ], [ 145.759171, 18.159772 ], [ 145.762703, 18.162706 ], [ 145.770713, 18.167779 ], [ 145.777429, 18.168735 ], [ 145.781023, 18.16875 ], [ 145.790182, 18.165676 ], [ 145.794987, 18.166027 ], [ 145.802003, 18.162417 ], [ 145.806435, 18.156624 ], [ 145.806926, 18.149999 ], [ 145.809459, 18.14318 ], [ 145.809672, 18.140786 ], [ 145.808828, 18.138706 ], [ 145.809476, 18.13233 ], [ 145.803955, 18.122668 ], [ 145.803717, 18.119398 ], [ 145.798924, 18.110831 ], [ 145.796706, 18.108858 ], [ 145.794358, 18.108025 ], [ 145.793785, 18.106393 ], [ 145.795301, 18.103668 ], [ 145.794919, 18.102671 ], [ 145.793304, 18.102991 ], [ 145.788885, 18.107913 ], [ 145.784773, 18.109468 ], [ 145.78025, 18.109272 ], [ 145.7764, 18.107961 ], [ 145.77426, 18.106785 ], [ 145.773213, 18.10538 ], [ 145.769552, 18.103525 ], [ 145.767394, 18.10303 ], [ 145.764036, 18.100311 ], [ 145.760651, 18.095698 ], [ 145.752452, 18.082307 ], [ 145.749991, 18.079924 ], [ 145.744749, 18.072094 ], [ 145.744704, 18.070368 ], [ 145.745433, 18.069216 ], [ 145.745389, 18.068025 ], [ 145.744528, 18.067492 ], [ 145.743064, 18.067124 ], [ 145.74254, 18.066272 ], [ 145.743029, 18.064416 ], [ 145.738782, 18.058392 ], [ 145.735767, 18.057003 ], [ 145.734496, 18.055124 ], [ 145.728998, 18.049886 ], [ 145.725553, 18.049099 ], [ 145.723869, 18.048433 ], [ 145.7226, 18.048434 ], [ 145.721149, 18.04804 ], [ 145.719465, 18.046978 ], [ 145.717053, 18.046298 ], [ 145.71489, 18.046003 ], [ 145.711154, 18.044627 ], [ 145.709974, 18.044529 ], [ 145.708696, 18.045217 ], [ 145.707909, 18.047577 ] ] ], [ [ [ 145.636306, 18.777253 ], [ 145.636907, 18.778783 ], [ 145.638008, 18.779507 ], [ 145.638135, 18.78367 ], [ 145.640635, 18.785684 ], [ 145.641113, 18.786945 ], [ 145.640645, 18.790416 ], [ 145.641086, 18.792187 ], [ 145.642136, 18.792999 ], [ 145.641783, 18.795019 ], [ 145.648809, 18.801186 ], [ 145.649767, 18.804653 ], [ 145.649712, 18.806546 ], [ 145.653724, 18.810657 ], [ 145.661216, 18.812781 ], [ 145.664714, 18.811087 ], [ 145.665035, 18.809142 ], [ 145.66715, 18.808013 ], [ 145.669908976753987, 18.808479137588801 ], [ 145.66992, 18.808481 ], [ 145.673664, 18.807823 ], [ 145.677895, 18.806602 ], [ 145.680455, 18.804607 ], [ 145.681955, 18.801708 ], [ 145.687923, 18.795295 ], [ 145.690733, 18.795676 ], [ 145.692073, 18.794419 ], [ 145.692559, 18.793208 ], [ 145.695692, 18.791585 ], [ 145.696643, 18.789447 ], [ 145.696049, 18.785959 ], [ 145.69636, 18.78356 ], [ 145.698103, 18.780745 ], [ 145.698294, 18.775947 ], [ 145.697839, 18.77288 ], [ 145.699524, 18.762437 ], [ 145.698659, 18.759738 ], [ 145.695688, 18.759661 ], [ 145.692365, 18.756704 ], [ 145.692008, 18.754454 ], [ 145.692429, 18.752236 ], [ 145.691531, 18.749777 ], [ 145.692778, 18.748147 ], [ 145.692829, 18.74605 ], [ 145.692008, 18.745114 ], [ 145.690558, 18.740819 ], [ 145.687704, 18.739375 ], [ 145.686036, 18.737739 ], [ 145.684673, 18.73869 ], [ 145.679859, 18.737567 ], [ 145.678257, 18.738392 ], [ 145.67644, 18.737686 ], [ 145.670937, 18.732227 ], [ 145.670872, 18.729892 ], [ 145.670095, 18.727495 ], [ 145.667479, 18.726366 ], [ 145.662734, 18.729029 ], [ 145.658881, 18.73251 ], [ 145.654727, 18.733908 ], [ 145.651704, 18.736945 ], [ 145.651237, 18.740606 ], [ 145.64786, 18.744842 ], [ 145.64508, 18.750591 ], [ 145.642765, 18.751227 ], [ 145.640691, 18.753945 ], [ 145.641825, 18.756593 ], [ 145.641769, 18.758297 ], [ 145.63804, 18.765499 ], [ 145.639122, 18.771617 ], [ 145.637791, 18.77507 ], [ 145.63662, 18.775646 ], [ 145.636306, 18.777253 ] ] ], [ [ [ 145.632698, 16.366471 ], [ 145.632951, 16.367029 ], [ 145.63514, 16.368032 ], [ 145.635961, 16.369337 ], [ 145.638599, 16.369771 ], [ 145.641011, 16.369223 ], [ 145.642686, 16.368716 ], [ 145.644974, 16.368944 ], [ 145.646118, 16.369823 ], [ 145.647048, 16.370303 ], [ 145.648364, 16.370595 ], [ 145.649408, 16.370401 ], [ 145.652461, 16.369543 ], [ 145.654837, 16.370255 ], [ 145.657898, 16.370426 ], [ 145.659324, 16.369742 ], [ 145.660869, 16.369628 ], [ 145.663592, 16.370391 ], [ 145.667248, 16.36981 ], [ 145.67174, 16.369456 ], [ 145.679762, 16.367826 ], [ 145.684953, 16.368216 ], [ 145.687655, 16.368337 ], [ 145.691382, 16.368632 ], [ 145.696995, 16.368828 ], [ 145.69906, 16.369373 ], [ 145.700732, 16.369713 ], [ 145.703519, 16.369656 ], [ 145.705822, 16.369241 ], [ 145.707347, 16.368118 ], [ 145.709337, 16.367285 ], [ 145.711449, 16.367353 ], [ 145.712133, 16.366569 ], [ 145.720363, 16.361313 ], [ 145.720966, 16.360392 ], [ 145.722706, 16.359273 ], [ 145.723744, 16.354208 ], [ 145.723837, 16.351229 ], [ 145.720015, 16.348699 ], [ 145.718495, 16.343831 ], [ 145.718742, 16.342941 ], [ 145.717506, 16.342332 ], [ 145.716775, 16.340567 ], [ 145.714283, 16.337665 ], [ 145.712702, 16.337532 ], [ 145.711136, 16.336327 ], [ 145.706383, 16.335414 ], [ 145.702461, 16.333476 ], [ 145.69647, 16.333737 ], [ 145.69485, 16.335029 ], [ 145.690381, 16.334792 ], [ 145.688304, 16.333973 ], [ 145.687043, 16.334437 ], [ 145.683034, 16.334317 ], [ 145.680684, 16.333922 ], [ 145.678029, 16.33402 ], [ 145.676678, 16.334898 ], [ 145.673548, 16.335003 ], [ 145.672475, 16.334231 ], [ 145.671643, 16.333973 ], [ 145.668628, 16.33508 ], [ 145.665848, 16.33508 ], [ 145.664232, 16.334156 ], [ 145.663886, 16.333262 ], [ 145.662817, 16.332719 ], [ 145.661695, 16.333191 ], [ 145.6615, 16.334118 ], [ 145.660154, 16.335471 ], [ 145.656964, 16.335778 ], [ 145.655599, 16.334852 ], [ 145.654039, 16.33523 ], [ 145.651813, 16.33365 ], [ 145.648879, 16.332474 ], [ 145.647191, 16.332532 ], [ 145.646374, 16.333872 ], [ 145.645825, 16.336678 ], [ 145.644478, 16.337584 ], [ 145.643956, 16.338683 ], [ 145.643773580870999, 16.3387064357909 ], [ 145.6405, 16.339127 ], [ 145.639736, 16.339069 ], [ 145.638855, 16.33977 ], [ 145.638339, 16.343263 ], [ 145.637484, 16.344677 ], [ 145.636822, 16.347984 ], [ 145.635704, 16.349843 ], [ 145.633596, 16.350146 ], [ 145.633085, 16.352165 ], [ 145.63375, 16.353613 ], [ 145.633691, 16.357399 ], [ 145.634499, 16.360535 ], [ 145.634142, 16.361926 ], [ 145.632733, 16.363214 ], [ 145.632549, 16.363996 ], [ 145.632698, 16.366471 ] ] ], [ [ [ 145.389569, 19.692076 ], [ 145.392512, 19.699726 ], [ 145.397388, 19.704854 ], [ 145.401569, 19.706921 ], [ 145.406468, 19.70662 ], [ 145.410697, 19.704778 ], [ 145.415094, 19.701309 ], [ 145.417589, 19.694484 ], [ 145.418065, 19.69068 ], [ 145.417708, 19.687659 ], [ 145.416282, 19.684414 ], [ 145.411008, 19.678708 ], [ 145.405038, 19.676186 ], [ 145.400584681710995, 19.676327268404901 ], [ 145.399742, 19.676354 ], [ 145.394109, 19.679969 ], [ 145.390074, 19.684593 ], [ 145.389569, 19.692076 ] ] ], [ [ [ 145.227716, 20.01283 ], [ 145.229325, 20.016295 ], [ 145.23081, 20.018935 ], [ 145.230068, 20.021369 ], [ 145.230604, 20.023761 ], [ 145.231622, 20.025181 ], [ 145.232335, 20.026521 ], [ 145.232454, 20.027972 ], [ 145.23345, 20.028257 ], [ 145.234593, 20.026856 ], [ 145.235425, 20.025069 ], [ 145.236733, 20.023506 ], [ 145.238317, 20.022317 ], [ 145.23873, 20.020173 ], [ 145.238029, 20.018605 ], [ 145.232914, 20.014645 ], [ 145.231369, 20.013975 ], [ 145.22949, 20.012046 ], [ 145.228521, 20.011882 ], [ 145.227905, 20.012607426086898 ], [ 145.227716, 20.01283 ] ] ], [ [ [ 145.215341, 20.033108 ], [ 145.218977, 20.034481 ], [ 145.220659, 20.035577 ], [ 145.222805, 20.034836 ], [ 145.223762, 20.033879 ], [ 145.22563, 20.032705 ], [ 145.228918, 20.032474 ], [ 145.229721, 20.03188 ], [ 145.229500578955992, 20.031194101573899 ], [ 145.229381, 20.030822 ], [ 145.22472, 20.030388 ], [ 145.224675411322011, 20.030401850950899 ], [ 145.22331, 20.030826 ], [ 145.220783, 20.030452 ], [ 145.218483, 20.030405 ], [ 145.216924, 20.031224 ], [ 145.215349, 20.031702 ], [ 145.214828, 20.032291 ], [ 145.215341, 20.033108 ] ] ], [ [ [ 145.207736, 20.01971 ], [ 145.208073, 20.025601 ], [ 145.208905, 20.028393 ], [ 145.210707, 20.030875 ], [ 145.210996313920987, 20.030728656624301 ], [ 145.212251, 20.030094 ], [ 145.211401, 20.028058 ], [ 145.210489382025003, 20.026238598404898 ], [ 145.21045, 20.02616 ], [ 145.210051, 20.022902 ], [ 145.210392482088992, 20.021227020812599 ], [ 145.210588, 20.020268 ], [ 145.211538, 20.017588 ], [ 145.213202, 20.016806 ], [ 145.216368, 20.014326 ], [ 145.217764, 20.012132 ], [ 145.216695, 20.010792 ], [ 145.215237, 20.010935 ], [ 145.213708, 20.011866 ], [ 145.210317, 20.012398 ], [ 145.209919, 20.014725 ], [ 145.208137, 20.015953 ], [ 145.207752666096013, 20.016571999315801 ], [ 145.207305, 20.017293 ], [ 145.207736, 20.01971 ] ] ], [ [ [ 144.886921, 20.544166 ], [ 144.886921, 20.548296 ], [ 144.887413, 20.550066 ], [ 144.891972, 20.55304 ], [ 144.893375, 20.553247 ], [ 144.894474, 20.552416 ], [ 144.896848, 20.549114 ], [ 144.899229, 20.548525 ], [ 144.900418, 20.548747 ], [ 144.901765, 20.548882 ], [ 144.902911, 20.545739 ], [ 144.900891, 20.542957 ], [ 144.90066, 20.54142 ], [ 144.898375, 20.53936 ], [ 144.897555, 20.537706 ], [ 144.894637696444988, 20.536624092025299 ], [ 144.894295, 20.536497 ], [ 144.890854, 20.536792 ], [ 144.888593, 20.537481 ], [ 144.887511, 20.538169 ], [ 144.886369, 20.540206 ], [ 144.886921, 20.544166 ] ] ] ] } },
{ "type": "Feature", "properties": { "STATEFP": "69", "COUNTYFP": "100", "COUNTYNS": "01805246", "GEOIDFQ": "0500000US69100", "GEOID": "69100", "NAME": "Rota", "NAMELSAD": "Rota Municipality", "STUSPS": "MP", "STATE_NAME": "Commonwealth of the Northern Mariana Islands", "LSAD": "12", "ALAND": 85096796.0, "AWATER": 539092797.0 }, "geometry": { "type": "MultiPolygon", "coordinates": [ [ [ [ 145.121162, 14.120639 ], [ 145.121227, 14.121215 ], [ 145.121259, 14.121887 ], [ 145.121362921568988, 14.1225832745098 ], [ 145.121419, 14.122959 ], [ 145.121933, 14.124572 ], [ 145.122402, 14.125417 ], [ 145.12309, 14.127187 ], [ 145.123397, 14.127519 ], [ 145.124875, 14.12912 ], [ 145.12545, 14.129743 ], [ 145.126428, 14.130511 ], [ 145.127122, 14.130825 ], [ 145.129186, 14.131808 ], [ 145.130555675371994, 14.132774605693401 ], [ 145.131704, 14.133585 ], [ 145.132529, 14.134168 ], [ 145.132923, 14.134463 ], [ 145.133595, 14.135508 ], [ 145.134591121003012, 14.1365213224641 ], [ 145.134869, 14.136804 ], [ 145.135971, 14.137806 ], [ 145.137353, 14.139056 ], [ 145.138962, 14.140967 ], [ 145.1401, 14.141935 ], [ 145.140503, 14.142338 ], [ 145.142362, 14.144197 ], [ 145.143025330412996, 14.145979937690001 ], [ 145.143935, 14.148425 ], [ 145.145606, 14.151669 ], [ 145.153177, 14.159338 ], [ 145.155832, 14.16219 ], [ 145.157576, 14.16361 ], [ 145.157919928929999, 14.164210170597 ], [ 145.157929, 14.164226 ], [ 145.157957, 14.164797 ], [ 145.157945283668994, 14.165128404790099 ], [ 145.157936, 14.165391 ], [ 145.157894, 14.165857 ], [ 145.158, 14.166281 ], [ 145.158191, 14.166614 ], [ 145.158363, 14.166776 ], [ 145.158933, 14.167448 ], [ 145.159675, 14.168084 ], [ 145.160396, 14.168338 ], [ 145.161141, 14.168482 ], [ 145.164091, 14.168482 ], [ 145.168712, 14.167892 ], [ 145.172251, 14.167794 ], [ 145.173825, 14.167007 ], [ 145.176479, 14.168187 ], [ 145.177069, 14.168089 ], [ 145.180215, 14.169269 ], [ 145.180805, 14.169171 ], [ 145.183165, 14.170252 ], [ 145.187688, 14.171727 ], [ 145.190539, 14.173497 ], [ 145.190685468098991, 14.1735262638348 ], [ 145.192506, 14.17389 ], [ 145.194177, 14.173693 ], [ 145.196439, 14.174087 ], [ 145.197866971581988, 14.174959604454701 ], [ 145.198208, 14.175168 ], [ 145.201453, 14.176446 ], [ 145.203032, 14.177108 ], [ 145.203926, 14.177818 ], [ 145.20449, 14.178429 ], [ 145.204819, 14.178992 ], [ 145.204887805519007, 14.1790941964332 ], [ 145.205091, 14.179396 ], [ 145.206446, 14.180543 ], [ 145.207925918936013, 14.1817954687086 ], [ 145.208925, 14.182641 ], [ 145.211678, 14.184312 ], [ 145.213842, 14.186082 ], [ 145.217578, 14.188147 ], [ 145.218266, 14.188835 ], [ 145.220425371419992, 14.190100629478399 ], [ 145.221117, 14.190506 ], [ 145.222297, 14.1909 ], [ 145.229868, 14.195422 ], [ 145.231846470785996, 14.196104853473599 ], [ 145.232719, 14.196406 ], [ 145.235669, 14.198274 ], [ 145.23911, 14.199749 ], [ 145.241273, 14.20024 ], [ 145.247074, 14.200339 ], [ 145.250587077097009, 14.199992271720401 ], [ 145.254055, 14.19965 ], [ 145.256545613419007, 14.199339069110399 ], [ 145.257988, 14.199159 ], [ 145.261588158325992, 14.1990683781657 ], [ 145.261921, 14.19906 ], [ 145.263887, 14.19847 ], [ 145.266149, 14.197389 ], [ 145.270573, 14.197291 ], [ 145.272835, 14.196504 ], [ 145.275588, 14.196307 ], [ 145.278051, 14.195237 ], [ 145.279914, 14.194734 ], [ 145.279975533279014, 14.194722668389799 ], [ 145.28365, 14.194046 ], [ 145.284704, 14.193882 ], [ 145.288237, 14.192352 ], [ 145.28896, 14.191588 ], [ 145.289473, 14.190939 ], [ 145.290003, 14.189997 ], [ 145.290118897512997, 14.189631559815499 ], [ 145.290434, 14.188638 ], [ 145.290356, 14.187641 ], [ 145.290041, 14.186279 ], [ 145.289156, 14.184607 ], [ 145.286720348243989, 14.180825089979001 ], [ 145.28542, 14.178806 ], [ 145.284338, 14.175365 ], [ 145.284043, 14.17271 ], [ 145.28424, 14.170449 ], [ 145.284527, 14.169684 ], [ 145.28424, 14.166614 ], [ 145.284233, 14.165915 ], [ 145.284147130116992, 14.1651827469281 ], [ 145.284142, 14.165139 ], [ 145.284142, 14.163946 ], [ 145.284142, 14.163173 ], [ 145.284056, 14.162265 ], [ 145.283644, 14.1615 ], [ 145.28335, 14.160675 ], [ 145.282512, 14.160081 ], [ 145.28188, 14.159633 ], [ 145.281844929632996, 14.159619838329901 ], [ 145.280601, 14.159153 ], [ 145.279521, 14.158748 ], [ 145.277652, 14.157569 ], [ 145.275981, 14.157274 ], [ 145.274506210232005, 14.1562908068216 ], [ 145.274211, 14.156094 ], [ 145.272163, 14.153967 ], [ 145.271655, 14.153439 ], [ 145.269885, 14.152161 ], [ 145.267132, 14.151768 ], [ 145.264871, 14.153242 ], [ 145.262511, 14.154324 ], [ 145.260544, 14.154717 ], [ 145.252482, 14.154422 ], [ 145.251266, 14.153668 ], [ 145.249743, 14.152722 ], [ 145.249421, 14.152645 ], [ 145.246779, 14.152554 ], [ 145.245698, 14.151964 ], [ 145.245559608890005, 14.1519679413917 ], [ 145.242257, 14.152062 ], [ 145.241077, 14.151374 ], [ 145.239319, 14.149728 ], [ 145.237607907582998, 14.148126278841399 ], [ 145.236456, 14.147048 ], [ 145.235182, 14.146378 ], [ 145.234588, 14.146065 ], [ 145.233983, 14.14536 ], [ 145.233408, 14.144688 ], [ 145.232719, 14.143017 ], [ 145.232133226212994, 14.142514664920901 ], [ 145.232031, 14.142427 ], [ 145.23123, 14.141812 ], [ 145.230122, 14.140961 ], [ 145.229684074360989, 14.1392335727 ], [ 145.229671, 14.139182 ], [ 145.228885, 14.135151 ], [ 145.228998, 14.134253 ], [ 145.229394, 14.133394 ], [ 145.23032, 14.132667 ], [ 145.230782, 14.13227 ], [ 145.231046, 14.131742 ], [ 145.230851, 14.131317 ], [ 145.230253, 14.130685 ], [ 145.229081, 14.129743 ], [ 145.224952, 14.127482 ], [ 145.224635, 14.127514 ], [ 145.223969, 14.12758 ], [ 145.221511, 14.126007 ], [ 145.221151, 14.125467 ], [ 145.220527, 14.124532 ], [ 145.218758, 14.120108 ], [ 145.217044, 14.11887 ], [ 145.216988, 14.11883 ], [ 145.216104, 14.117759 ], [ 145.21512, 14.116568 ], [ 145.214744, 14.116387 ], [ 145.214642, 14.116338 ], [ 145.212465, 14.11529 ], [ 145.209614, 14.116372 ], [ 145.209343133527, 14.1163448913131 ], [ 145.204698, 14.11588 ], [ 145.203616, 14.114602 ], [ 145.201846, 14.114897 ], [ 145.20165, 14.113717 ], [ 145.200273, 14.113619 ], [ 145.198598, 14.112737 ], [ 145.198098, 14.112789 ], [ 145.196635, 14.11352 ], [ 145.195259, 14.115192 ], [ 145.195075066753986, 14.1151743009668 ], [ 145.190146, 14.1147 ], [ 145.186705, 14.11588 ], [ 145.184148, 14.116175 ], [ 145.182666, 14.115582 ], [ 145.181199, 14.114995 ], [ 145.178937, 14.1147 ], [ 145.177757, 14.11352 ], [ 145.177451, 14.112763 ], [ 145.176873, 14.112045 ], [ 145.17592, 14.111252 ], [ 145.175693, 14.111062 ], [ 145.173822, 14.110647 ], [ 145.173038, 14.110472 ], [ 145.169892, 14.110571 ], [ 145.167853735779005, 14.1113468235728 ], [ 145.167827, 14.111357 ], [ 145.167139, 14.112242 ], [ 145.167827, 14.11411 ], [ 145.168827, 14.114476 ], [ 145.169105, 14.115093 ], [ 145.169308, 14.115832 ], [ 145.169358, 14.119025 ], [ 145.169007, 14.121288 ], [ 145.16763, 14.123058 ], [ 145.167494, 14.123883 ], [ 145.167409, 14.1244 ], [ 145.167373873096011, 14.125092 ], [ 145.167349, 14.125582 ], [ 145.166633, 14.127515 ], [ 145.165010268717992, 14.129667037585699 ], [ 145.164582, 14.130235 ], [ 145.163488523723998, 14.130882187225 ], [ 145.159765, 14.133086 ], [ 145.158785, 14.133438 ], [ 145.158234242335993, 14.133722863567501 ], [ 145.158152183292003, 14.133765306248501 ], [ 145.157072, 14.134324 ], [ 145.155438, 14.135446 ], [ 145.1518, 14.137806 ], [ 145.151498430104994, 14.1378614057208 ], [ 145.146983, 14.138691 ], [ 145.146144, 14.138932 ], [ 145.14590859498, 14.1389678821243 ], [ 145.145114, 14.139089 ], [ 145.14423, 14.139576 ], [ 145.140493, 14.137511 ], [ 145.139965, 14.136936 ], [ 145.138232, 14.135053 ], [ 145.138212993622005, 14.135041117995099 ], [ 145.137445, 14.134561 ], [ 145.134791, 14.129547 ], [ 145.134564972215998, 14.129304885997 ], [ 145.133414, 14.128072 ], [ 145.131055, 14.123746 ], [ 145.129776, 14.122271 ], [ 145.129085, 14.121549 ], [ 145.128188, 14.120791 ], [ 145.127168, 14.12003 ], [ 145.126575, 14.119656 ], [ 145.125645, 14.119458 ], [ 145.12482, 14.119211 ], [ 145.12416, 14.118716 ], [ 145.123418, 14.117974 ], [ 145.122758, 14.117438 ], [ 145.122222, 14.117479 ], [ 145.122068264804994, 14.1176937825854 ], [ 145.121809, 14.118056 ], [ 145.121479, 14.11851 ], [ 145.121232, 14.118922 ], [ 145.12119, 14.119417 ], [ 145.121159, 14.119962 ], [ 145.121162, 14.120639 ] ] ] ] } },
{ "type": "Feature", "properties": { "STATEFP": "69", "COUNTYFP": "120", "COUNTYNS": "01805248", "GEOIDFQ": "0500000US69120", "GEOID": "69120", "NAME": "Tinian", "NAMELSAD": "Tinian Municipality", "STUSPS": "MP", "STATE_NAME": "Commonwealth of the Northern Mariana Islands", "LSAD": "12", "ALAND": 108237606.0, "AWATER": 632893009.0 }, "geometry": { "type": "MultiPolygon", "coordinates": [ [ [ [ 145.582412, 15.017776 ], [ 145.583708, 15.020945 ], [ 145.584838, 15.021869 ], [ 145.584862, 15.02291 ], [ 145.584524, 15.023888 ], [ 145.585803, 15.026704 ], [ 145.586538, 15.02735 ], [ 145.587508, 15.029904 ], [ 145.587882, 15.03213 ], [ 145.58781, 15.033827 ], [ 145.588233, 15.035635 ], [ 145.588927, 15.036859 ], [ 145.589818, 15.037191 ], [ 145.590782, 15.0368 ], [ 145.592019, 15.036742 ], [ 145.593183, 15.037686 ], [ 145.594916, 15.038239 ], [ 145.595127425232988, 15.0385004104015 ], [ 145.596849, 15.040629 ], [ 145.597547, 15.044133 ], [ 145.597475, 15.045636 ], [ 145.597998, 15.047805 ], [ 145.598772, 15.04925 ], [ 145.598991, 15.050419 ], [ 145.598261, 15.051739 ], [ 145.596947, 15.052002 ], [ 145.596446, 15.052733 ], [ 145.596818, 15.053483 ], [ 145.602614, 15.057396 ], [ 145.603507, 15.058841 ], [ 145.607696, 15.063618 ], [ 145.61134, 15.067589 ], [ 145.613001, 15.069478 ], [ 145.614141, 15.070254 ], [ 145.616077, 15.072552 ], [ 145.61647, 15.074322 ], [ 145.618043, 15.076387 ], [ 145.620206, 15.077173 ], [ 145.622762, 15.07914 ], [ 145.627502, 15.084509 ], [ 145.629991, 15.085435 ], [ 145.632639, 15.087584 ], [ 145.63316, 15.089447 ], [ 145.636121, 15.09311 ], [ 145.641797, 15.099153 ], [ 145.643807, 15.100723 ], [ 145.645259, 15.100777 ], [ 145.647939, 15.098127 ], [ 145.654422, 15.089782 ], [ 145.656325, 15.085713 ], [ 145.657199, 15.08181 ], [ 145.656572, 15.077218 ], [ 145.65506, 15.07081 ], [ 145.654935, 15.067571 ], [ 145.655663, 15.063768 ], [ 145.65654, 15.061419 ], [ 145.658009, 15.061052 ], [ 145.658712, 15.059761 ], [ 145.658825, 15.057844 ], [ 145.65797, 15.056292 ], [ 145.655937, 15.054116 ], [ 145.6557, 15.053183 ], [ 145.653874, 15.051609 ], [ 145.65308, 15.051281 ], [ 145.649811, 15.048115 ], [ 145.64778, 15.046798 ], [ 145.646923, 15.044486 ], [ 145.646947, 15.041842 ], [ 145.648607, 15.033606 ], [ 145.649721, 15.032513 ], [ 145.650123742140011, 15.0316074574309 ], [ 145.653734, 15.02349 ], [ 145.655799, 15.020343 ], [ 145.657273, 15.018868 ], [ 145.659338, 15.017984 ], [ 145.6623, 15.01843 ], [ 145.664504, 15.018519 ], [ 145.665979, 15.018027 ], [ 145.668092, 15.01629 ], [ 145.670967, 15.011347 ], [ 145.670809, 15.009572 ], [ 145.671422, 15.008705 ], [ 145.672768, 15.008052 ], [ 145.673572, 15.006534 ], [ 145.6733, 15.004022 ], [ 145.671672, 14.999613 ], [ 145.669957, 14.992715 ], [ 145.669571, 14.988838 ], [ 145.667744, 14.982607 ], [ 145.666554, 14.98075 ], [ 145.666204, 14.979322 ], [ 145.664672, 14.978317 ], [ 145.663815, 14.97699 ], [ 145.664118, 14.975041 ], [ 145.664174489157006, 14.9749529422026 ], [ 145.665537, 14.972829 ], [ 145.665378, 14.970665 ], [ 145.663451, 14.968721 ], [ 145.661521, 14.964959 ], [ 145.661936, 14.961451 ], [ 145.661336976676012, 14.958850655199599 ], [ 145.661238, 14.958421 ], [ 145.663075, 14.954476 ], [ 145.66403, 14.951269 ], [ 145.665449, 14.949836 ], [ 145.664831, 14.948279 ], [ 145.662909, 14.94863 ], [ 145.661947, 14.94833 ], [ 145.659949, 14.948768 ], [ 145.658904, 14.94839 ], [ 145.656252, 14.946179 ], [ 145.655138, 14.946225 ], [ 145.654098, 14.945579 ], [ 145.653634, 14.944281 ], [ 145.65136, 14.941471 ], [ 145.651281, 14.940216 ], [ 145.652278, 14.938784 ], [ 145.652314, 14.937701 ], [ 145.651543, 14.936621 ], [ 145.650194, 14.935295 ], [ 145.64765, 14.93165 ], [ 145.647048, 14.929396 ], [ 145.644988, 14.926502 ], [ 145.642254, 14.924257 ], [ 145.639084, 14.92271 ], [ 145.636408, 14.922625 ], [ 145.634364, 14.923201 ], [ 145.632338, 14.925233 ], [ 145.630921, 14.927965 ], [ 145.63053, 14.929297 ], [ 145.630923, 14.930477 ], [ 145.629551, 14.933939 ], [ 145.629551, 14.935807 ], [ 145.62994, 14.937261 ], [ 145.629252, 14.938146 ], [ 145.629842, 14.939031 ], [ 145.62935, 14.940309 ], [ 145.628487, 14.941128 ], [ 145.628538, 14.943367 ], [ 145.631792, 14.950581 ], [ 145.631751, 14.954099 ], [ 145.63135535532399, 14.954845596785599 ], [ 145.625926, 14.965091 ], [ 145.624103, 14.965748 ], [ 145.623709498962, 14.965483551553699 ], [ 145.622304, 14.964539 ], [ 145.617798, 14.967615 ], [ 145.61343, 14.971366 ], [ 145.612474, 14.973993 ], [ 145.612458, 14.978362 ], [ 145.613007, 14.981319 ], [ 145.612988246454989, 14.981343432925501 ], [ 145.609771, 14.985535 ], [ 145.608943, 14.985936 ], [ 145.60885, 14.986816 ], [ 145.609468, 14.988413 ], [ 145.609410489332987, 14.9885456824821 ], [ 145.608312, 14.99108 ], [ 145.605163, 14.992223 ], [ 145.603098, 14.992322 ], [ 145.602217, 14.992015 ], [ 145.599516, 14.991868 ], [ 145.597803, 14.990401 ], [ 145.596392, 14.989791 ], [ 145.595011, 14.9899 ], [ 145.593797, 14.990561 ], [ 145.592581, 14.990006 ], [ 145.590601, 14.991124 ], [ 145.589029, 14.993457 ], [ 145.586963, 14.994054 ], [ 145.585822, 14.994592 ], [ 145.58489, 14.995896 ], [ 145.584938, 14.99772 ], [ 145.586698, 15.001163 ], [ 145.5872, 15.005823 ], [ 145.587517, 15.007292 ], [ 145.58835, 15.008053 ], [ 145.588736, 15.009519 ], [ 145.587659, 15.012409 ], [ 145.586309, 15.013222 ], [ 145.584913, 15.013224 ], [ 145.584014, 15.013884 ], [ 145.582461, 15.016516 ], [ 145.582412, 15.017776 ] ] ], [ [ [ 145.537435, 14.845598 ], [ 145.53787, 14.847338 ], [ 145.538874, 14.850086 ], [ 145.540717, 14.852863 ], [ 145.543318, 14.853983 ], [ 145.545024, 14.854843 ], [ 145.545377, 14.855301 ], [ 145.547435, 14.855818 ], [ 145.550594, 14.856441 ], [ 145.555588, 14.858617 ], [ 145.557919, 14.860141 ], [ 145.564067, 14.861537 ], [ 145.565503, 14.862268 ], [ 145.566805, 14.863977 ], [ 145.56732, 14.864281 ], [ 145.568105, 14.864341 ], [ 145.56957, 14.864306 ], [ 145.57134, 14.864995 ], [ 145.572303, 14.865862 ], [ 145.573144, 14.866105 ], [ 145.573983, 14.865981 ], [ 145.577239, 14.864896 ], [ 145.578339, 14.863104 ], [ 145.578851, 14.860507 ], [ 145.578336, 14.859989 ], [ 145.577928, 14.859073 ], [ 145.577925, 14.856569 ], [ 145.57692, 14.854189 ], [ 145.576216, 14.853579 ], [ 145.575564686406011, 14.8535611135471 ], [ 145.57516, 14.85355 ], [ 145.575011436181001, 14.853263662787301 ], [ 145.57421, 14.851719 ], [ 145.568465, 14.847818 ], [ 145.565047, 14.845134 ], [ 145.562504, 14.843979 ], [ 145.561828, 14.844193 ], [ 145.560609, 14.844103 ], [ 145.559337, 14.844472 ], [ 145.558362, 14.844381 ], [ 145.555492, 14.843957 ], [ 145.554219, 14.843073 ], [ 145.553445, 14.843167 ], [ 145.552595, 14.842785 ], [ 145.551479, 14.842282 ], [ 145.550671, 14.842437 ], [ 145.547936, 14.840974 ], [ 145.545481, 14.840414 ], [ 145.543306, 14.840674 ], [ 145.540565, 14.841594 ], [ 145.539385, 14.841791 ], [ 145.53773, 14.844222 ], [ 145.537435, 14.845598 ] ] ] ] } }
]
}
