{
"type": "FeatureCollection",
"name": "NH_counties_2023",
"crs": { "type": "name", "properties": { "name": "urn:ogc:def:crs:EPSG::4269" } },
"features": [
{ "type": "Feature", "properties": { "STATEFP": "33", "COUNTYFP": "015", "COUNTYNS": "00873181", "GEOIDFQ": "0500000US33015", "GEOID": "33015", "NAME": "Rockingham", "NAMELSAD": "Rockingham County", "STUSPS": "NH", "STATE_NAME": "New Hampshire", "LSAD": "06", "ALAND": 1801055121.0, "AWATER": 258626550.0 }, "geometry": { "type": "MultiPolygon", "coordinates": [ [ [ [ -70.617025, 42.977182 ], [ -70.615289, 42.978353 ], [ -70.614566, 42.978599 ], [ -70.613471, 42.978016 ], [ -70.612059, 42.978056 ], [ -70.610621, 42.976407 ], [ -70.61208, 42.974594 ], [ -70.613409, 42.973408 ], [ -70.613986, 42.973349 ], [ -70.614355, 42.973921 ], [ -70.614122, 42.975454 ], [ -70.614855, 42.976447 ], [ -70.615425, 42.977202 ], [ -70.616462, 42.977 ], [ -70.617025, 42.977182 ] ] ], [ [ [ -70.626782, 42.969493 ], [ -70.626364, 42.969516 ], [ -70.625713, 42.969477 ], [ -70.624952, 42.969039 ], [ -70.624607, 42.968931 ], [ -70.62248, 42.968207 ], [ -70.622316, 42.968122 ], [ -70.622428, 42.967629 ], [ -70.622459, 42.967479 ], [ -70.622681, 42.9672 ], [ -70.623549, 42.966883 ], [ -70.624179, 42.967092 ], [ -70.624454, 42.96722 ], [ -70.626131, 42.967704 ], [ -70.626666, 42.969067 ], [ -70.626957, 42.969377 ], [ -70.626782, 42.969493 ] ] ], [ [ [ -70.62787, 42.976294 ], [ -70.627584, 42.977095 ], [ -70.62734, 42.977718 ], [ -70.626852, 42.978155 ], [ -70.625658, 42.978056 ], [ -70.625495, 42.977559 ], [ -70.624278, 42.976661 ], [ -70.624464, 42.976324 ], [ -70.624487, 42.976124 ], [ -70.624918, 42.975877 ], [ -70.625549, 42.975712 ], [ -70.626048, 42.975715 ], [ -70.626758, 42.975732 ], [ -70.627247, 42.975638 ], [ -70.627759, 42.975383 ], [ -70.627963, 42.975779 ], [ -70.62787, 42.976294 ] ] ], [ [ [ -71.449794, 42.931091 ], [ -71.425295, 42.933773 ], [ -71.42528, 42.933773 ], [ -71.384497, 42.938303 ], [ -71.38406, 42.938349 ], [ -71.375435, 42.939318 ], [ -71.377186, 42.947145 ], [ -71.382172, 42.968698 ], [ -71.390497, 43.001891 ], [ -71.391008, 43.003768 ], [ -71.392007, 43.007793 ], [ -71.392277, 43.009011 ], [ -71.392388, 43.009309 ], [ -71.396309, 43.016892 ], [ -71.397591, 43.025285 ], [ -71.400032, 43.03309 ], [ -71.402962, 43.041054 ], [ -71.4021, 43.040916 ], [ -71.392235, 43.039285 ], [ -71.391228, 43.040963 ], [ -71.373788, 43.070987 ], [ -71.356117, 43.102043 ], [ -71.329268, 43.140954 ], [ -71.317709, 43.162399 ], [ -71.317505, 43.162367 ], [ -71.315512, 43.162055 ], [ -71.280796, 43.218603 ], [ -71.278711, 43.221936 ], [ -71.276153, 43.226114 ], [ -71.262801, 43.250065 ], [ -71.262068, 43.250937 ], [ -71.257024, 43.256721 ], [ -71.252079, 43.263975 ], [ -71.250279, 43.267439 ], [ -71.247336, 43.275232 ], [ -71.214328, 43.254622 ], [ -71.206271, 43.250059 ], [ -71.173511, 43.228873 ], [ -71.141146, 43.208324 ], [ -71.133614, 43.203598 ], [ -71.127948, 43.200072 ], [ -71.085805, 43.174405 ], [ -71.026686, 43.137947 ], [ -71.042021, 43.119525 ], [ -71.072936, 43.081681 ], [ -71.01257, 43.081993 ], [ -70.980801, 43.082367 ], [ -70.943241, 43.088534 ], [ -70.934063, 43.090108 ], [ -70.92647, 43.089082 ], [ -70.892236, 43.083931 ], [ -70.891718, 43.083123 ], [ -70.875436, 43.080422 ], [ -70.86891, 43.084858 ], [ -70.864541, 43.086731 ], [ -70.862782, 43.088569 ], [ -70.86094, 43.09462 ], [ -70.860665, 43.098282 ], [ -70.86097, 43.102333 ], [ -70.862114, 43.108345 ], [ -70.861962, 43.111443 ], [ -70.85978, 43.115593 ], [ -70.861123, 43.117599 ], [ -70.864083, 43.120148 ], [ -70.864373, 43.121696 ], [ -70.86245, 43.124359 ], [ -70.859301, 43.125847 ], [ -70.853307, 43.127105 ], [ -70.846899, 43.126086 ], [ -70.844108, 43.124451 ], [ -70.841412, 43.121858 ], [ -70.837831, 43.119481 ], [ -70.833916, 43.118011 ], [ -70.829811, 43.117638 ], [ -70.825779, 43.118027 ], [ -70.82, 43.122586 ], [ -70.808708, 43.117065 ], [ -70.798990272799003, 43.110268105680902 ], [ -70.793906, 43.106712 ], [ -70.78388, 43.100867 ], [ -70.782696971361105, 43.099634987741197 ], [ -70.779098, 43.095887 ], [ -70.767998, 43.093588 ], [ -70.767841465875406, 43.093499949554896 ], [ -70.766480801186901, 43.092734575667599 ], [ -70.766398, 43.092688 ], [ -70.766339585923404, 43.092633038210799 ], [ -70.762997, 43.089488 ], [ -70.760823400897905, 43.086026342170697 ], [ -70.757597, 43.080888 ], [ -70.756397, 43.079988 ], [ -70.752644579219904, 43.079315152135997 ], [ -70.752599257499597, 43.079307025482699 ], [ -70.741897, 43.077388 ], [ -70.740795933559497, 43.076359588375702 ], [ -70.738078, 43.073821 ], [ -70.737973679565002, 43.073825982271302 ], [ -70.720301348449794, 43.074670000492098 ], [ -70.706503, 43.075329 ], [ -70.706114425747501, 43.073084419072103 ], [ -70.703819, 43.059825 ], [ -70.703799, 43.059574 ], [ -70.711535, 43.057975 ], [ -70.711830062352107, 43.050330202695399 ], [ -70.712085, 43.043725 ], [ -70.71355, 43.042077 ], [ -70.718936, 43.03235 ], [ -70.723178, 43.029298 ], [ -70.728443, 43.027597 ], [ -70.730426, 43.025392 ], [ -70.732135, 43.022416 ], [ -70.732684, 43.016916 ], [ -70.734363, 43.013307 ], [ -70.735477, 43.012201 ], [ -70.74036, 43.011171 ], [ -70.743793, 43.008027 ], [ -70.745461, 43.004023 ], [ -70.743015, 43.001666 ], [ -70.745265671720304, 42.999344163755303 ], [ -70.749024, 42.995467 ], [ -70.749194, 42.992677 ], [ -70.749969, 42.991689 ], [ -70.752804, 42.991255 ], [ -70.755138, 42.991789 ], [ -70.756701, 42.991337 ], [ -70.759175, 42.989475 ], [ -70.761474, 42.986681 ], [ -70.764567, 42.980201 ], [ -70.765222, 42.975349 ], [ -70.764322, 42.973751 ], [ -70.768303, 42.971701 ], [ -70.770417438472194, 42.969501911431699 ], [ -70.7718, 42.968064 ], [ -70.771913, 42.966457 ], [ -70.769673, 42.964419 ], [ -70.771729, 42.961321 ], [ -70.775597, 42.957213 ], [ -70.779068, 42.956802 ], [ -70.780383, 42.955798 ], [ -70.783895928618094, 42.952093403273103 ], [ -70.78513, 42.950792 ], [ -70.786564, 42.947378 ], [ -70.786158, 42.944039 ], [ -70.790682, 42.942772 ], [ -70.791165436270504, 42.942351582579398 ], [ -70.793360360047501, 42.9404427804294 ], [ -70.793996, 42.93989 ], [ -70.797806, 42.930037 ], [ -70.798296398211605, 42.926640253833 ], [ -70.798636, 42.924288 ], [ -70.798153, 42.920926 ], [ -70.794748, 42.918125 ], [ -70.802527, 42.91764 ], [ -70.805971, 42.916549 ], [ -70.808457719182499, 42.913135998334603 ], [ -70.808712, 42.912787 ], [ -70.810069, 42.909549 ], [ -70.810681, 42.906887 ], [ -70.810739696906595, 42.904208353748402 ], [ -70.810751921970805, 42.903650460252699 ], [ -70.810813293767595, 42.900849744793298 ], [ -70.810905194050093, 42.896655855173101 ], [ -70.810999, 42.892375 ], [ -70.812447097584695, 42.889320746025099 ], [ -70.813491, 42.887119 ], [ -70.815744, 42.884529 ], [ -70.816105, 42.877889 ], [ -70.817296, 42.87229 ], [ -70.821769, 42.87188 ], [ -70.823271639464494, 42.871386889198597 ], [ -70.824185838764905, 42.8710868827364 ], [ -70.830795, 42.868918 ], [ -70.837376, 42.864996 ], [ -70.848625, 42.860939 ], [ -70.848859671469199, 42.861074575308798 ], [ -70.872553814497707, 42.874763247260198 ], [ -70.883389666287499, 42.881023377465702 ], [ -70.8834992324132, 42.8810866764316 ], [ -70.886136, 42.88261 ], [ -70.902768, 42.88653 ], [ -70.914525235716695, 42.886562987787897 ], [ -70.914599197429098, 42.886563195305499 ], [ -70.914886, 42.886564 ], [ -70.914899, 42.886589 ], [ -70.927629, 42.885326 ], [ -70.930564578650404, 42.884643501115001 ], [ -70.930799, 42.884589 ], [ -70.931699, 42.884189 ], [ -70.949199, 42.876089 ], [ -70.955660932677802, 42.873437146233599 ], [ -70.9665, 42.868989 ], [ -70.974724441921595, 42.867730565431401 ], [ -70.997238514725694, 42.864285652357999 ], [ -70.997441328618706, 42.864254619490801 ], [ -71.004638745097196, 42.8631533316724 ], [ -71.031201, 42.859089 ], [ -71.034844624727995, 42.8562458685835 ], [ -71.044401, 42.848789 ], [ -71.047501, 42.844089 ], [ -71.053565269831196, 42.833153431451898 ], [ -71.053590420031597, 42.833108078631497 ], [ -71.053601, 42.833089 ], [ -71.064201, 42.806289 ], [ -71.065419322756597, 42.8065583431177 ], [ -71.091179642333302, 42.812253356815802 ], [ -71.099743964331594, 42.814146731272999 ], [ -71.102787752512, 42.814819642776698 ], [ -71.115753530338395, 42.817686077803202 ], [ -71.132503, 42.821389 ], [ -71.147905816287405, 42.816105475808399 ], [ -71.149703, 42.815489 ], [ -71.165603, 42.808689 ], [ -71.166271832786904, 42.808274960655702 ], [ -71.167703, 42.807389 ], [ -71.1743700929581, 42.801617486692997 ], [ -71.174403, 42.801589 ], [ -71.182278710330706, 42.794252426834902 ], [ -71.184653925959495, 42.792039808224999 ], [ -71.186104, 42.790689 ], [ -71.184080459176599, 42.765706904166201 ], [ -71.182888900248301, 42.750996235127403 ], [ -71.181803, 42.73759 ], [ -71.1937396072816, 42.740165975513797 ], [ -71.197751124231701, 42.741031679578001 ], [ -71.208137, 42.743273 ], [ -71.208227, 42.743294 ], [ -71.208302, 42.743314 ], [ -71.213638703006893, 42.744468427166296 ], [ -71.216506462121799, 42.745088776289002 ], [ -71.223904, 42.746689 ], [ -71.233404, 42.745489 ], [ -71.245504, 42.742589 ], [ -71.245539259393993, 42.742567357762297 ], [ -71.26009, 42.755734 ], [ -71.265308, 42.756691 ], [ -71.266076, 42.7569 ], [ -71.284261, 42.760113 ], [ -71.319429, 42.766471 ], [ -71.351035, 42.772183 ], [ -71.349861, 42.77406 ], [ -71.350882, 42.776753 ], [ -71.352867, 42.777874 ], [ -71.351539, 42.780606 ], [ -71.353095, 42.781712 ], [ -71.35308, 42.783261 ], [ -71.353965, 42.783139 ], [ -71.358055, 42.785137 ], [ -71.362434, 42.782963 ], [ -71.364418, 42.785237 ], [ -71.364204, 42.788929 ], [ -71.365043, 42.79179 ], [ -71.366203, 42.791691 ], [ -71.364041, 42.794157 ], [ -71.362419, 42.795734 ], [ -71.362922, 42.79739 ], [ -71.360679, 42.798962 ], [ -71.368885, 42.806471 ], [ -71.3872, 42.823559 ], [ -71.407886, 42.824239 ], [ -71.427067, 42.82484 ], [ -71.431573, 42.84441 ], [ -71.432856, 42.849842 ], [ -71.441677, 42.887749 ], [ -71.442301, 42.890399 ], [ -71.443651, 42.896168 ], [ -71.448183, 42.916854 ], [ -71.451231, 42.930438 ], [ -71.449794, 42.931091 ] ] ] ] } },
{ "type": "Feature", "properties": { "STATEFP": "33", "COUNTYFP": "017", "COUNTYNS": "00873182", "GEOIDFQ": "0500000US33017", "GEOID": "33017", "NAME": "Strafford", "NAMELSAD": "Strafford County", "STUSPS": "NH", "STATE_NAME": "New Hampshire", "LSAD": "06", "ALAND": 951743430.0, "AWATER": 39154072.0 }, "geometry": { "type": "MultiPolygon", "coordinates": [ [ [ [ -71.246967, 43.276189 ], [ -71.236011, 43.284994 ], [ -71.207568, 43.307996 ], [ -71.20025, 43.315932 ], [ -71.193224, 43.324163 ], [ -71.159364, 43.355123 ], [ -71.162412, 43.366443 ], [ -71.174121, 43.423173 ], [ -71.183876, 43.475477 ], [ -71.190799, 43.515033 ], [ -71.162675, 43.538959 ], [ -71.15268, 43.547618 ], [ -71.127808, 43.572787 ], [ -71.124513, 43.559806 ], [ -71.111496, 43.506709 ], [ -71.106536, 43.512248 ], [ -71.102081, 43.506877 ], [ -71.096939, 43.511684 ], [ -71.093276, 43.507335 ], [ -71.089477, 43.512691 ], [ -71.084838, 43.506686 ], [ -71.067565, 43.52724 ], [ -71.063093, 43.52418 ], [ -71.056426, 43.52811 ], [ -71.052519, 43.524692 ], [ -71.046431, 43.529689 ], [ -71.044523, 43.524798 ], [ -71.037931, 43.529826 ], [ -71.029255, 43.499774 ], [ -71.024244, 43.482913 ], [ -71.016022, 43.490973 ], [ -70.999307, 43.507274 ], [ -70.969186, 43.535546 ], [ -70.962536, 43.541301 ], [ -70.962160936760199, 43.541029460681699 ], [ -70.962182, 43.541032 ], [ -70.963281, 43.538929 ], [ -70.963531, 43.536756 ], [ -70.963342, 43.535247 ], [ -70.962556, 43.53431 ], [ -70.95822, 43.531586 ], [ -70.957046, 43.528743 ], [ -70.957214, 43.524994 ], [ -70.956787, 43.524216 ], [ -70.954066, 43.52261 ], [ -70.954045, 43.518797 ], [ -70.956856, 43.512719 ], [ -70.955871790663494, 43.511807099920901 ], [ -70.955386, 43.511357 ], [ -70.954755, 43.509802 ], [ -70.954839750820994, 43.5097554042474 ], [ -70.957958, 43.508041 ], [ -70.959185, 43.499351 ], [ -70.961948, 43.49775 ], [ -70.965909386820499, 43.492375137211297 ], [ -70.966718, 43.491278 ], [ -70.969572, 43.486201 ], [ -70.968975, 43.483961 ], [ -70.967404, 43.482635 ], [ -70.967968, 43.480783 ], [ -70.969132334241095, 43.480159189891197 ], [ -70.974245, 43.47742 ], [ -70.972956, 43.47502 ], [ -70.970946, 43.4739 ], [ -70.966017, 43.472918 ], [ -70.964542, 43.473262 ], [ -70.964433, 43.473276 ], [ -70.961428, 43.469696 ], [ -70.96045, 43.466592 ], [ -70.96399, 43.456752 ], [ -70.966266, 43.453627 ], [ -70.9669, 43.450458 ], [ -70.96581, 43.447557 ], [ -70.96164, 43.443039 ], [ -70.961046, 43.440475 ], [ -70.96115, 43.438321 ], [ -70.966633017652001, 43.435856803125503 ], [ -70.966767350537793, 43.435796430772498 ], [ -70.968782, 43.434891 ], [ -70.969362, 43.432731 ], [ -70.968359, 43.429283 ], [ -70.971039, 43.425606 ], [ -70.97462, 43.423022 ], [ -70.978052, 43.421954 ], [ -70.982898, 43.419332 ], [ -70.985881034714893, 43.415469450195403 ], [ -70.986812, 43.414264 ], [ -70.987249, 43.411863 ], [ -70.986677, 43.403541 ], [ -70.985767, 43.40162 ], [ -70.982817, 43.399312 ], [ -70.982565, 43.39778 ], [ -70.982876, 43.394808 ], [ -70.98739, 43.393457 ], [ -70.987733, 43.391513 ], [ -70.987729258699204, 43.391424277723203 ], [ -70.987649, 43.389521 ], [ -70.985205, 43.386745 ], [ -70.985958, 43.38424 ], [ -70.985965, 43.380023 ], [ -70.985535623721304, 43.379192958748099 ], [ -70.984305, 43.376814 ], [ -70.984335, 43.376128 ], [ -70.981859, 43.373862 ], [ -70.981488431647307, 43.373414000468898 ], [ -70.976408, 43.367272 ], [ -70.974156, 43.362925 ], [ -70.974863, 43.357969 ], [ -70.973290391719999, 43.355045440043298 ], [ -70.972999371432095, 43.354504418308103 ], [ -70.970844813442596, 43.350498983806297 ], [ -70.967229, 43.343777 ], [ -70.966160531571006, 43.343146466772097 ], [ -70.964028, 43.341888 ], [ -70.960439, 43.341048 ], [ -70.95786, 43.337776 ], [ -70.957211799227693, 43.336274724187298 ], [ -70.956528, 43.334691 ], [ -70.953034, 43.333257 ], [ -70.951525, 43.334672 ], [ -70.93711, 43.337367 ], [ -70.932735, 43.33676 ], [ -70.932292690225097, 43.334947930158698 ], [ -70.932198, 43.33456 ], [ -70.931641, 43.331019 ], [ -70.930783, 43.329569 ], [ -70.923949, 43.324768 ], [ -70.923594152285304, 43.324556401781201 ], [ -70.916421, 43.320279 ], [ -70.915406, 43.319858 ], [ -70.912004, 43.319821 ], [ -70.911625, 43.309952 ], [ -70.91246, 43.308289 ], [ -70.909805, 43.306682 ], [ -70.907405, 43.304782 ], [ -70.906623275118406, 43.304917998712298 ], [ -70.904485, 43.30529 ], [ -70.90231, 43.304872 ], [ -70.900386, 43.301358 ], [ -70.90139, 43.298764 ], [ -70.903905, 43.296882 ], [ -70.907405, 43.293582 ], [ -70.906005, 43.291682 ], [ -70.9003, 43.291468 ], [ -70.897332, 43.292738 ], [ -70.896332, 43.29212 ], [ -70.898264, 43.290746 ], [ -70.89922, 43.287542 ], [ -70.898667006645596, 43.287113411186297 ], [ -70.896304, 43.285282 ], [ -70.890204, 43.284182 ], [ -70.886504, 43.282783 ], [ -70.883913653214606, 43.277879843584699 ], [ -70.883704, 43.277483 ], [ -70.882804, 43.273183 ], [ -70.882067064705893, 43.272714041176499 ], [ -70.881704, 43.272483 ], [ -70.876842, 43.27246 ], [ -70.874298, 43.271872 ], [ -70.872585, 43.270152 ], [ -70.872748, 43.268638 ], [ -70.871252, 43.267604 ], [ -70.870289, 43.266314 ], [ -70.868417, 43.26575 ], [ -70.865888, 43.265859 ], [ -70.864578948281206, 43.265489628747503 ], [ -70.863759137963996, 43.265258305294601 ], [ -70.86323, 43.265109 ], [ -70.863231, 43.265098 ], [ -70.861384, 43.263143 ], [ -70.859853, 43.259763 ], [ -70.859607, 43.257342 ], [ -70.858207, 43.256286 ], [ -70.855082, 43.255191 ], [ -70.852015, 43.256808 ], [ -70.843302, 43.254321 ], [ -70.843223236258197, 43.254261344507597 ], [ -70.839213, 43.251224 ], [ -70.839717, 43.250393 ], [ -70.841059, 43.249699 ], [ -70.841273, 43.248653 ], [ -70.839300448539603, 43.244303505026501 ], [ -70.838678, 43.242931 ], [ -70.837274, 43.242321 ], [ -70.83365, 43.242868 ], [ -70.828022, 43.241597 ], [ -70.826711, 43.241301 ], [ -70.825071, 43.24093 ], [ -70.824491394134, 43.240736907693901 ], [ -70.823309, 43.240343 ], [ -70.822959, 43.240187 ], [ -70.817865, 43.237911 ], [ -70.817828208162993, 43.237709844630203 ], [ -70.817773, 43.237408 ], [ -70.816232, 43.234997 ], [ -70.815453, 43.229023 ], [ -70.814019, 43.229053 ], [ -70.811852, 43.228306 ], [ -70.811181483520599, 43.2274272354096 ], [ -70.811167553347403, 43.227408978821899 ], [ -70.80964, 43.225407 ], [ -70.80967, 43.224561 ], [ -70.8125190887678, 43.218523310871497 ], [ -70.813119, 43.217252 ], [ -70.816033, 43.21568 ], [ -70.816903, 43.214604 ], [ -70.820763, 43.19978 ], [ -70.820366, 43.197629 ], [ -70.819977217279899, 43.196841236980198 ], [ -70.819146, 43.195157 ], [ -70.819344, 43.193036 ], [ -70.820702, 43.191663 ], [ -70.823754, 43.191075 ], [ -70.827201, 43.189485 ], [ -70.827901, 43.188685 ], [ -70.828301, 43.186685 ], [ -70.8248158, 43.1797146 ], [ -70.824801, 43.179685 ], [ -70.823501, 43.174585 ], [ -70.824001, 43.173285 ], [ -70.825015171974499, 43.172731815286603 ], [ -70.826201, 43.172085 ], [ -70.828301, 43.168985 ], [ -70.827801, 43.166385 ], [ -70.829101, 43.157886 ], [ -70.8338, 43.146886 ], [ -70.8329, 43.143286 ], [ -70.83, 43.138386 ], [ -70.8293, 43.132486 ], [ -70.8281, 43.129086 ], [ -70.8268, 43.127086 ], [ -70.82, 43.122586 ], [ -70.825779, 43.118027 ], [ -70.829811, 43.117638 ], [ -70.833916, 43.118011 ], [ -70.837831, 43.119481 ], [ -70.841412, 43.121858 ], [ -70.844108, 43.124451 ], [ -70.846899, 43.126086 ], [ -70.853307, 43.127105 ], [ -70.859301, 43.125847 ], [ -70.86245, 43.124359 ], [ -70.864373, 43.121696 ], [ -70.864083, 43.120148 ], [ -70.861123, 43.117599 ], [ -70.85978, 43.115593 ], [ -70.861962, 43.111443 ], [ -70.862114, 43.108345 ], [ -70.86097, 43.102333 ], [ -70.860665, 43.098282 ], [ -70.86094, 43.09462 ], [ -70.862782, 43.088569 ], [ -70.864541, 43.086731 ], [ -70.86891, 43.084858 ], [ -70.875436, 43.080422 ], [ -70.891718, 43.083123 ], [ -70.892236, 43.083931 ], [ -70.92647, 43.089082 ], [ -70.934063, 43.090108 ], [ -70.943241, 43.088534 ], [ -70.980801, 43.082367 ], [ -71.01257, 43.081993 ], [ -71.072936, 43.081681 ], [ -71.042021, 43.119525 ], [ -71.026686, 43.137947 ], [ -71.085805, 43.174405 ], [ -71.127948, 43.200072 ], [ -71.133614, 43.203598 ], [ -71.141146, 43.208324 ], [ -71.173511, 43.228873 ], [ -71.206271, 43.250059 ], [ -71.214328, 43.254622 ], [ -71.247336, 43.275232 ], [ -71.246967, 43.276189 ] ] ] ] } },
{ "type": "Feature", "properties": { "STATEFP": "33", "COUNTYFP": "007", "COUNTYNS": "00873177", "GEOIDFQ": "0500000US33007", "GEOID": "33007", "NAME": "Coos", "NAMELSAD": "Coos County", "STUSPS": "NH", "STATE_NAME": "New Hampshire", "LSAD": "06", "ALAND": 4647923888.0, "AWATER": 92542131.0 }, "geometry": { "type": "MultiPolygon", "coordinates": [ [ [ [ -71.764977, 44.406587 ], [ -71.761966, 44.407027 ], [ -71.756091, 44.406401 ], [ -71.75434, 44.405577 ], [ -71.749533, 44.401955 ], [ -71.745959, 44.400942 ], [ -71.742317, 44.40141 ], [ -71.738719323144693, 44.407468472156701 ], [ -71.738643, 44.407597 ], [ -71.736624, 44.409445 ], [ -71.731072, 44.410665 ], [ -71.722616, 44.410872 ], [ -71.714615, 44.40956 ], [ -71.702186, 44.413828 ], [ -71.701056586723496, 44.414561006516003 ], [ -71.695331, 44.418277 ], [ -71.688813, 44.421741 ], [ -71.683943, 44.423978 ], [ -71.682701, 44.42734 ], [ -71.680331, 44.427714 ], [ -71.67806, 44.426552 ], [ -71.676967, 44.426848 ], [ -71.675993, 44.428712 ], [ -71.677427, 44.431484 ], [ -71.679282, 44.434337 ], [ -71.677382, 44.435499 ], [ -71.669186, 44.435897 ], [ -71.663454, 44.437788 ], [ -71.660240283739199, 44.440941678860703 ], [ -71.659707, 44.441465 ], [ -71.65695, 44.448606 ], [ -71.656371, 44.455159 ], [ -71.652553, 44.460518 ], [ -71.651012, 44.460854 ], [ -71.646094, 44.459999 ], [ -71.643522, 44.460591 ], [ -71.638986, 44.464411 ], [ -71.639627, 44.466351 ], [ -71.64556, 44.468926 ], [ -71.647305, 44.470435 ], [ -71.647353411554604, 44.471639593389099 ], [ -71.647373, 44.472127 ], [ -71.646702, 44.473182 ], [ -71.644899, 44.475198 ], [ -71.642308, 44.476501 ], [ -71.638321, 44.477893 ], [ -71.632795, 44.48389 ], [ -71.631007, 44.484323 ], [ -71.627655, 44.484207 ], [ -71.625548, 44.48346 ], [ -71.624663, 44.481744 ], [ -71.626341, 44.480225 ], [ -71.633437, 44.478211 ], [ -71.634871, 44.477441 ], [ -71.634505, 44.475625 ], [ -71.631789, 44.474023 ], [ -71.626952, 44.474267 ], [ -71.624557, 44.475183 ], [ -71.620391, 44.482888 ], [ -71.617843, 44.485841 ], [ -71.615923, 44.485944 ], [ -71.609526, 44.4842 ], [ -71.606184295147202, 44.484882897204798 ], [ -71.599333, 44.486283 ], [ -71.59702, 44.490741 ], [ -71.595213, 44.493409 ], [ -71.594517, 44.499331 ], [ -71.593885, 44.501031 ], [ -71.591429, 44.501336 ], [ -71.589623, 44.499371 ], [ -71.589048, 44.4982 ], [ -71.586972, 44.498526 ], [ -71.585881, 44.500057 ], [ -71.587203, 44.504133 ], [ -71.588438, 44.505799 ], [ -71.587782, 44.506745 ], [ -71.586302, 44.506554 ], [ -71.584801, 44.504398 ], [ -71.583987, 44.502881 ], [ -71.581251, 44.501679 ], [ -71.578138, 44.501641 ], [ -71.576765, 44.502618 ], [ -71.576812, 44.504081 ], [ -71.57829, 44.505418 ], [ -71.582853, 44.50818 ], [ -71.584715, 44.510865 ], [ -71.585798, 44.51378 ], [ -71.58708, 44.515275 ], [ -71.591932, 44.517907 ], [ -71.593458, 44.519639 ], [ -71.594259, 44.52168 ], [ -71.592375, 44.523278 ], [ -71.587085, 44.522362 ], [ -71.582948, 44.523352 ], [ -71.578642, 44.526772 ], [ -71.574531, 44.531745 ], [ -71.571943, 44.536973 ], [ -71.572004, 44.538224 ], [ -71.5722259660226, 44.5384432380501 ], [ -71.574445, 44.540635 ], [ -71.580519, 44.54451 ], [ -71.587324, 44.547425 ], [ -71.597135, 44.553849 ], [ -71.598116, 44.555412 ], [ -71.597797, 44.557172 ], [ -71.596137, 44.560898 ], [ -71.593625, 44.563702 ], [ -71.591521, 44.565155 ], [ -71.587664, 44.565798 ], [ -71.574125, 44.564507 ], [ -71.569599, 44.562777 ], [ -71.56207, 44.563172 ], [ -71.559049, 44.564446 ], [ -71.558469, 44.566116 ], [ -71.558985, 44.568779 ], [ -71.557838, 44.570268 ], [ -71.556802146984694, 44.570276358468099 ], [ -71.556103, 44.570282 ], [ -71.552826, 44.569209 ], [ -71.549374, 44.569641 ], [ -71.547726, 44.571381 ], [ -71.548168, 44.572676 ], [ -71.552243, 44.575447 ], [ -71.553891, 44.577629 ], [ -71.554883, 44.579628 ], [ -71.554444, 44.581336 ], [ -71.55194, 44.581378 ], [ -71.550594, 44.580389 ], [ -71.549405, 44.578171 ], [ -71.546533, 44.577819 ], [ -71.544491, 44.578476 ], [ -71.540463, 44.580841 ], [ -71.537381, 44.583359 ], [ -71.537182, 44.585259 ], [ -71.535397, 44.587113 ], [ -71.535584114332593, 44.5873389686748 ], [ -71.535946, 44.587776 ], [ -71.538449, 44.587479 ], [ -71.540051, 44.588524 ], [ -71.539878, 44.589969 ], [ -71.537976, 44.592018 ], [ -71.538274, 44.593524 ], [ -71.540175, 44.59327 ], [ -71.543918, 44.590985 ], [ -71.545939, 44.590604 ], [ -71.547424, 44.591831 ], [ -71.545463, 44.594624 ], [ -71.545055, 44.596773 ], [ -71.546087, 44.597377 ], [ -71.547253, 44.59684 ], [ -71.549146, 44.594994 ], [ -71.553372, 44.593171 ], [ -71.555402, 44.593842 ], [ -71.554211, 44.595352 ], [ -71.554151, 44.597961 ], [ -71.550634, 44.599591 ], [ -71.550331, 44.600896 ], [ -71.551562, 44.601227 ], [ -71.557279, 44.599381 ], [ -71.560421, 44.599769 ], [ -71.5622, 44.601592 ], [ -71.561903, 44.603128 ], [ -71.558563, 44.603276 ], [ -71.555233, 44.604034 ], [ -71.55386, 44.605598 ], [ -71.553616, 44.608299 ], [ -71.5556, 44.614326 ], [ -71.556531, 44.619575 ], [ -71.555801, 44.622699 ], [ -71.555062, 44.624185 ], [ -71.55415, 44.625419 ], [ -71.550442, 44.62313 ], [ -71.546948, 44.622123 ], [ -71.545978, 44.623118 ], [ -71.547756, 44.625007 ], [ -71.54971, 44.625129 ], [ -71.552945, 44.626747 ], [ -71.556467, 44.627221 ], [ -71.55735, 44.628448 ], [ -71.554837, 44.629631 ], [ -71.551128, 44.627755 ], [ -71.546931, 44.62855 ], [ -71.547226, 44.630355 ], [ -71.54951, 44.630903 ], [ -71.55214, 44.630082 ], [ -71.555791, 44.632047 ], [ -71.559554, 44.634964 ], [ -71.563279, 44.636648 ], [ -71.563599, 44.639049 ], [ -71.559704, 44.639298 ], [ -71.557866, 44.641218 ], [ -71.558068096115505, 44.641874374938098 ], [ -71.55879, 44.644219 ], [ -71.561667, 44.646822 ], [ -71.562806, 44.652356 ], [ -71.565076, 44.653796 ], [ -71.567053, 44.653349 ], [ -71.567708, 44.651536 ], [ -71.569025, 44.65029 ], [ -71.571626, 44.649897 ], [ -71.57881, 44.650982 ], [ -71.579419, 44.652309 ], [ -71.576098, 44.652762 ], [ -71.57449, 44.654832 ], [ -71.5766, 44.656189 ], [ -71.581315, 44.65545 ], [ -71.585748, 44.6579 ], [ -71.587365, 44.659715 ], [ -71.587237552770802, 44.6610581564277 ], [ -71.587198, 44.661475 ], [ -71.58511, 44.663112 ], [ -71.585157, 44.666057 ], [ -71.587339, 44.66877 ], [ -71.586965, 44.67047 ], [ -71.582027, 44.672018 ], [ -71.581463, 44.673204 ], [ -71.582502, 44.674246 ], [ -71.586162, 44.67435 ], [ -71.596089, 44.677637 ], [ -71.596623, 44.679056 ], [ -71.594208, 44.68144 ], [ -71.594224, 44.683815 ], [ -71.596437, 44.687059 ], [ -71.597955, 44.691767 ], [ -71.596497, 44.694609 ], [ -71.593802, 44.695632 ], [ -71.594136, 44.696932 ], [ -71.598656, 44.698005 ], [ -71.600496, 44.698737 ], [ -71.600975, 44.699934 ], [ -71.598792, 44.703274 ], [ -71.6001, 44.705999 ], [ -71.603948, 44.707583 ], [ -71.607551, 44.712317 ], [ -71.612512, 44.716673 ], [ -71.612548, 44.719186 ], [ -71.618732, 44.722471 ], [ -71.617038, 44.72825 ], [ -71.619079, 44.729035 ], [ -71.622234, 44.727538 ], [ -71.625038, 44.727708 ], [ -71.626248, 44.72904 ], [ -71.625013, 44.736299 ], [ -71.626166, 44.739864 ], [ -71.625148, 44.74275 ], [ -71.626986, 44.747014 ], [ -71.63106, 44.748509 ], [ -71.632043, 44.750269 ], [ -71.631883, 44.752463 ], [ -71.630257, 44.753475 ], [ -71.625482, 44.753788 ], [ -71.621157, 44.755772 ], [ -71.616669, 44.756299 ], [ -71.612856, 44.758998 ], [ -71.611767, 44.764345 ], [ -71.610179, 44.765584 ], [ -71.604615, 44.767738 ], [ -71.602229414466905, 44.771022732752101 ], [ -71.601471, 44.772067 ], [ -71.595099, 44.775405 ], [ -71.595164, 44.780152 ], [ -71.592486, 44.782669 ], [ -71.584177, 44.784794 ], [ -71.57972, 44.784725 ], [ -71.571315, 44.793339 ], [ -71.573129, 44.797947 ], [ -71.571888, 44.801415 ], [ -71.56877, 44.805722 ], [ -71.568672, 44.807457 ], [ -71.574135, 44.81162 ], [ -71.57605, 44.812429 ], [ -71.576865, 44.815197 ], [ -71.57489, 44.818109 ], [ -71.573456, 44.820644 ], [ -71.568404, 44.822703 ], [ -71.564533, 44.823548 ], [ -71.562353, 44.823282 ], [ -71.561496503264607, 44.824359008540803 ], [ -71.560811, 44.825221 ], [ -71.556923, 44.834201 ], [ -71.553328, 44.835164 ], [ -71.551114, 44.836965 ], [ -71.550647, 44.838499 ], [ -71.551424, 44.84216 ], [ -71.555482, 44.847006 ], [ -71.555656, 44.849118 ], [ -71.553217, 44.851858 ], [ -71.548358, 44.854686 ], [ -71.547516, 44.856747 ], [ -71.549747, 44.859696 ], [ -71.549741, 44.861458 ], [ -71.545525, 44.866127 ], [ -71.539286, 44.86863 ], [ -71.53433, 44.869465 ], [ -71.528751, 44.873494 ], [ -71.528889, 44.876928 ], [ -71.527343, 44.878277 ], [ -71.523349, 44.87919 ], [ -71.521979803135693, 44.880350093577498 ], [ -71.521915, 44.880405 ], [ -71.518745, 44.884806 ], [ -71.515641, 44.885371 ], [ -71.510669, 44.89043 ], [ -71.51409, 44.893149 ], [ -71.5132, 44.894785 ], [ -71.508642, 44.897703 ], [ -71.504963272717504, 44.9006947611892 ], [ -71.502473, 44.90272 ], [ -71.501088, 44.904433 ], [ -71.499528, 44.904774 ], [ -71.497841, 44.904342 ], [ -71.496609, 44.903603 ], [ -71.495793, 44.903728 ], [ -71.495378, 44.903621 ], [ -71.49491, 44.904299 ], [ -71.494835, 44.905919 ], [ -71.495951, 44.90736 ], [ -71.496017, 44.908898 ], [ -71.494716, 44.910102 ], [ -71.493082, 44.910394 ], [ -71.493268947812595, 44.911204328952898 ], [ -71.493363, 44.911612 ], [ -71.494403, 44.911837 ], [ -71.495326, 44.911794 ], [ -71.498926, 44.910917 ], [ -71.499945, 44.911174 ], [ -71.500548, 44.911956 ], [ -71.500552, 44.913089 ], [ -71.500788, 44.914535 ], [ -71.504483, 44.919062 ], [ -71.509207, 44.923429 ], [ -71.515437, 44.926923 ], [ -71.515605, 44.927992 ], [ -71.51345, 44.928808 ], [ -71.517077, 44.935876 ], [ -71.520128, 44.93664 ], [ -71.523048, 44.939258 ], [ -71.522441, 44.940289 ], [ -71.521127, 44.940357 ], [ -71.520107, 44.939009 ], [ -71.517983, 44.938745 ], [ -71.516183, 44.939862 ], [ -71.515351695665402, 44.942719691780702 ], [ -71.514933, 44.944159 ], [ -71.517288, 44.944692 ], [ -71.517508, 44.948812 ], [ -71.518987, 44.950115 ], [ -71.515857, 44.952758 ], [ -71.514843, 44.958741 ], [ -71.516246, 44.964089 ], [ -71.517674, 44.964383 ], [ -71.518864, 44.963626 ], [ -71.520216, 44.963487 ], [ -71.523376, 44.96396 ], [ -71.523563, 44.964607 ], [ -71.51886, 44.966622 ], [ -71.518947, 44.967869 ], [ -71.523117, 44.966852 ], [ -71.522035, 44.968545 ], [ -71.526607, 44.971265 ], [ -71.532238, 44.977353 ], [ -71.532818283385794, 44.978153349610302 ], [ -71.536602, 44.983372 ], [ -71.54086, 44.983788 ], [ -71.541324, 44.985071 ], [ -71.539989683037703, 44.986160085753703 ], [ -71.538647, 44.987256 ], [ -71.538143, 44.98985 ], [ -71.534008, 44.990414 ], [ -71.532749, 44.991066 ], [ -71.533713, 44.991963 ], [ -71.537091, 44.992611 ], [ -71.536188, 44.994592 ], [ -71.529667039440895, 44.999527011412503 ], [ -71.529305, 44.999801 ], [ -71.525381697089998, 45.0016448045155 ], [ -71.524794, 45.001921 ], [ -71.519996, 45.002417 ], [ -71.514452, 45.004259 ], [ -71.513859390190504, 45.004603712775499 ], [ -71.508129, 45.007937 ], [ -71.504251, 45.008223 ], [ -71.501055, 45.006742 ], [ -71.496864, 45.003947 ], [ -71.494648, 45.003998 ], [ -71.489675, 45.00114 ], [ -71.488547836346001, 45.001287520925402 ], [ -71.480552, 45.002334 ], [ -71.478458, 45.007486 ], [ -71.476676, 45.009179 ], [ -71.473269, 45.010586 ], [ -71.465964, 45.011919 ], [ -71.464555, 45.013637 ], [ -71.465049961356797, 45.013633098079197 ], [ -71.501088, 45.013349 ], [ -71.500069, 45.014212 ], [ -71.500164, 45.015377 ], [ -71.500969, 45.01604 ], [ -71.500378, 45.021977 ], [ -71.496995, 45.023613 ], [ -71.499945, 45.026323 ], [ -71.494009, 45.034345 ], [ -71.491148, 45.041774 ], [ -71.491085, 45.043671 ], [ -71.49315, 45.045772 ], [ -71.497179, 45.044582 ], [ -71.499527, 45.044672 ], [ -71.500874, 45.04511 ], [ -71.505222, 45.048791 ], [ -71.505091, 45.051465 ], [ -71.504542, 45.052379 ], [ -71.502768, 45.05263 ], [ -71.500545, 45.051943 ], [ -71.497738, 45.054751 ], [ -71.499316, 45.057707 ], [ -71.49671, 45.061255 ], [ -71.496105, 45.065082 ], [ -71.498399, 45.069629 ], [ -71.497917, 45.070589 ], [ -71.497304, 45.070544 ], [ -71.494864, 45.071068 ], [ -71.492742, 45.071417 ], [ -71.489116, 45.070853 ], [ -71.489146, 45.073565 ], [ -71.487147, 45.075562 ], [ -71.486345, 45.078503 ], [ -71.482862, 45.079144 ], [ -71.480219, 45.081316 ], [ -71.479929, 45.082139 ], [ -71.480897, 45.08303 ], [ -71.480769, 45.083556 ], [ -71.477323, 45.082946 ], [ -71.474979, 45.083706 ], [ -71.471382, 45.084199 ], [ -71.468299, 45.084092 ], [ -71.467447, 45.086851 ], [ -71.464837, 45.093023 ], [ -71.462063, 45.093526 ], [ -71.459999, 45.095058 ], [ -71.458323, 45.098807 ], [ -71.455452, 45.101458 ], [ -71.452451, 45.102282 ], [ -71.449257, 45.104522 ], [ -71.448355, 45.107882 ], [ -71.448678, 45.109001 ], [ -71.450373, 45.109958 ], [ -71.448096, 45.112111 ], [ -71.444735, 45.112591 ], [ -71.441683, 45.11307 ], [ -71.440577, 45.114464 ], [ -71.438589, 45.117813 ], [ -71.432444, 45.120453 ], [ -71.428828, 45.123881 ], [ -71.427208, 45.127364 ], [ -71.426755, 45.129672 ], [ -71.428392, 45.1318 ], [ -71.427538, 45.133352 ], [ -71.42887, 45.1357 ], [ -71.433083, 45.137899 ], [ -71.435795, 45.139659 ], [ -71.437216, 45.142333 ], [ -71.433835, 45.144475 ], [ -71.433179, 45.149166 ], [ -71.430473, 45.150123 ], [ -71.427688, 45.152251 ], [ -71.42675, 45.153257 ], [ -71.424004, 45.15929 ], [ -71.423616, 45.161096 ], [ -71.424616, 45.165872 ], [ -71.422031, 45.167495 ], [ -71.419058, 45.170488 ], [ -71.415844, 45.176349 ], [ -71.414497, 45.179214 ], [ -71.415468, 45.183309 ], [ -71.414853, 45.184908 ], [ -71.410636, 45.186172 ], [ -71.408777, 45.18797 ], [ -71.405281, 45.193018 ], [ -71.405346, 45.196037 ], [ -71.405636, 45.198139 ], [ -71.399955, 45.20093 ], [ -71.39781, 45.203553 ], [ -71.398002, 45.205953 ], [ -71.3991, 45.208628 ], [ -71.403267, 45.215348 ], [ -71.407405, 45.216812 ], [ -71.409119, 45.216606 ], [ -71.415553, 45.218001 ], [ -71.41607, 45.218322 ], [ -71.416167, 45.219533 ], [ -71.417233, 45.221293 ], [ -71.421372, 45.224036 ], [ -71.426157, 45.225098 ], [ -71.428192, 45.227119 ], [ -71.431753, 45.228743 ], [ -71.438545, 45.232765 ], [ -71.440583, 45.234982 ], [ -71.44288, 45.234799 ], [ -71.443882, 45.235462 ], [ -71.443883, 45.237061 ], [ -71.443365, 45.237724 ], [ -71.442298, 45.238547 ], [ -71.438546, 45.239004 ], [ -71.433014, 45.237656 ], [ -71.430394, 45.236125 ], [ -71.429326, 45.234228 ], [ -71.420335, 45.232719 ], [ -71.418556, 45.233839 ], [ -71.417132, 45.235575 ], [ -71.413348, 45.236123 ], [ -71.411924, 45.23882 ], [ -71.406973, 45.241516 ], [ -71.402638, 45.242589 ], [ -71.394422, 45.241216 ], [ -71.391901, 45.237216 ], [ -71.389412, 45.235021 ], [ -71.385629, 45.233214 ], [ -71.384917, 45.233351 ], [ -71.38317, 45.234904 ], [ -71.380158, 45.238857 ], [ -71.379833, 45.240616 ], [ -71.37763, 45.244203 ], [ -71.376691, 45.244911 ], [ -71.37194, 45.246349 ], [ -71.368381, 45.246579 ], [ -71.363013, 45.248205 ], [ -71.359224, 45.250912 ], [ -71.357253, 45.253336 ], [ -71.356736, 45.254776 ], [ -71.356835, 45.257175 ], [ -71.358657, 45.259494 ], [ -71.359558, 45.262682 ], [ -71.362245, 45.264738 ], [ -71.363218, 45.266429 ], [ -71.362831, 45.267617 ], [ -71.360664, 45.269835 ], [ -71.354999, 45.268626 ], [ -71.353446, 45.268695 ], [ -71.351666, 45.269199 ], [ -71.347622, 45.272125 ], [ -71.344029, 45.271167 ], [ -71.336392, 45.273066 ], [ -71.333965, 45.275306 ], [ -71.333674, 45.276769 ], [ -71.331733, 45.279969 ], [ -71.328464, 45.281135 ], [ -71.320922, 45.282324 ], [ -71.318397, 45.284655 ], [ -71.314318, 45.287033 ], [ -71.309008, 45.287238 ], [ -71.306872, 45.288861 ], [ -71.304896, 45.292449 ], [ -71.301107, 45.296563 ], [ -71.296509, 45.29919 ], [ -71.291975, 45.298938 ], [ -71.288639, 45.300881 ], [ -71.286236, 45.300669 ], [ -71.284396, 45.302434 ], [ -71.283684, 45.301977 ], [ -71.282552, 45.299279 ], [ -71.282747, 45.297497 ], [ -71.28074, 45.295188 ], [ -71.279219, 45.294982 ], [ -71.27232, 45.296694 ], [ -71.266557, 45.294589 ], [ -71.264939, 45.293446 ], [ -71.266754, 45.29123 ], [ -71.264385, 45.286732 ], [ -71.263815, 45.282726 ], [ -71.263042, 45.277401 ], [ -71.262136, 45.276098 ], [ -71.259485, 45.27244 ], [ -71.256441, 45.27333 ], [ -71.248382, 45.268023 ], [ -71.245503, 45.26887 ], [ -71.244499, 45.268139 ], [ -71.239346, 45.261925 ], [ -71.236271, 45.261126 ], [ -71.235364, 45.260349 ], [ -71.231572, 45.253472 ], [ -71.233027, 45.251551 ], [ -71.231122, 45.249712 ], [ -71.228048, 45.24969 ], [ -71.225811, 45.251691 ], [ -71.221994, 45.253543 ], [ -71.220634, 45.251121 ], [ -71.2118, 45.250457 ], [ -71.205145389569097, 45.253375555618398 ], [ -71.203033, 45.254302 ], [ -71.198276, 45.254257 ], [ -71.196658, 45.253594 ], [ -71.194878, 45.250515 ], [ -71.191744, 45.249694 ], [ -71.189964, 45.248062 ], [ -71.187441, 45.247697 ], [ -71.187505, 45.244977 ], [ -71.183785, 45.244932 ], [ -71.182782, 45.242715 ], [ -71.182587, 45.241069 ], [ -71.180905, 45.239858 ], [ -71.179838, 45.240178 ], [ -71.178576, 45.241389 ], [ -71.177508, 45.243629 ], [ -71.173367, 45.246348 ], [ -71.171264, 45.246143 ], [ -71.167446, 45.247491 ], [ -71.162845, 45.250332 ], [ -71.158192, 45.248746 ], [ -71.155734, 45.24646 ], [ -71.150254, 45.243732 ], [ -71.148165, 45.242412 ], [ -71.147906, 45.23928 ], [ -71.144801, 45.242251 ], [ -71.13943, 45.242958 ], [ -71.133994, 45.244167 ], [ -71.131953, 45.245423 ], [ -71.127962, 45.253672 ], [ -71.124517, 45.25527 ], [ -71.123663, 45.25936 ], [ -71.119914, 45.262287 ], [ -71.120112, 45.265738 ], [ -71.118749, 45.268113 ], [ -71.116638, 45.269679 ], [ -71.116332, 45.272322 ], [ -71.115881, 45.274562 ], [ -71.113162, 45.274861 ], [ -71.110735, 45.275456 ], [ -71.107339, 45.278612 ], [ -71.105691, 45.282498 ], [ -71.109349, 45.282222 ], [ -71.110159, 45.282999 ], [ -71.110743, 45.284576 ], [ -71.108675, 45.288965 ], [ -71.107353, 45.290369 ], [ -71.104436, 45.291778 ], [ -71.105151, 45.294635 ], [ -71.097772, 45.301906 ], [ -71.089483, 45.304584 ], [ -71.085564, 45.305476 ], [ -71.083924, 45.305451 ], [ -71.076914, 45.246912 ], [ -71.0726, 45.180935 ], [ -71.069387, 45.144037 ], [ -71.059729035533707, 45.014632554408102 ], [ -71.059004, 45.004918 ], [ -71.057861, 45.000049 ], [ -71.057159514433394, 44.990629303729797 ], [ -71.055851758204398, 44.973068477021997 ], [ -71.052707, 44.93084 ], [ -71.049434503081002, 44.8960076580886 ], [ -71.046347914526805, 44.863154118262003 ], [ -71.044646, 44.845039 ], [ -71.043342081623194, 44.828679287839698 ], [ -71.039291847429695, 44.777862713149901 ], [ -71.037518, 44.755607 ], [ -71.036705, 44.736498 ], [ -71.034849536966405, 44.709958591135099 ], [ -71.031055978432605, 44.655697849119598 ], [ -71.031039, 44.655455 ], [ -71.029047341493296, 44.611248722021799 ], [ -71.026655, 44.558149 ], [ -71.022992, 44.500058 ], [ -71.020773, 44.473737 ], [ -71.018885122995002, 44.440367988774902 ], [ -71.0174597497479, 44.415173923825201 ], [ -71.015363, 44.378113 ], [ -71.014894888314799, 44.3714281717305 ], [ -71.012754945006606, 44.340868897151097 ], [ -71.012749, 44.340784 ], [ -71.01127, 44.301846 ], [ -71.010271167868396, 44.284888321571998 ], [ -71.044385, 44.283778 ], [ -71.043668, 44.274928 ], [ -71.042112, 44.274943 ], [ -71.04228, 44.237514 ], [ -71.070357, 44.237537 ], [ -71.098434, 44.235454 ], [ -71.243228, 44.243749 ], [ -71.251957, 44.244266 ], [ -71.260319, 44.227703 ], [ -71.306036, 44.137272 ], [ -71.30245, 44.137402 ], [ -71.307345, 44.113264 ], [ -71.311758, 44.091756 ], [ -71.32357, 44.091606 ], [ -71.324103, 44.091596 ], [ -71.335882, 44.085752 ], [ -71.343588, 44.092054 ], [ -71.343223, 44.123471 ], [ -71.355781, 44.163639 ], [ -71.356482, 44.165836 ], [ -71.373618, 44.173886 ], [ -71.384239, 44.178844 ], [ -71.394874, 44.214679 ], [ -71.415898, 44.212169 ], [ -71.443338, 44.249172 ], [ -71.469706, 44.259936 ], [ -71.50584, 44.255557 ], [ -71.507412, 44.262897 ], [ -71.575819, 44.254596 ], [ -71.579752, 44.272244 ], [ -71.587004, 44.304759 ], [ -71.686921, 44.336581 ], [ -71.696885, 44.332118 ], [ -71.737251, 44.375065 ], [ -71.74956, 44.38916 ], [ -71.752764, 44.391908 ], [ -71.765688977432305, 44.406307687658 ], [ -71.764977, 44.406587 ] ] ] ] } },
{ "type": "Feature", "properties": { "STATEFP": "33", "COUNTYFP": "009", "COUNTYNS": "00873178", "GEOIDFQ": "0500000US33009", "GEOID": "33009", "NAME": "Grafton", "NAMELSAD": "Grafton County", "STUSPS": "NH", "STATE_NAME": "New Hampshire", "LSAD": "06", "ALAND": 4425249956.0, "AWATER": 106463890.0 }, "geometry": { "type": "MultiPolygon", "coordinates": [ [ [ [ -72.334401, 43.61925 ], [ -72.33236, 43.62507 ], [ -72.328966, 43.626991 ], [ -72.327236, 43.630534 ], [ -72.327362, 43.631174 ], [ -72.329471, 43.632843 ], [ -72.32966, 43.634648 ], [ -72.329614976524596, 43.634725146966296 ], [ -72.329498211532396, 43.634925221812402 ], [ -72.329126, 43.635563 ], [ -72.327395, 43.636774 ], [ -72.322517, 43.638901 ], [ -72.319317173603906, 43.6398970394958 ], [ -72.315247, 43.641164 ], [ -72.314083, 43.64281 ], [ -72.313863, 43.646558 ], [ -72.314747639278906, 43.648671222758999 ], [ -72.315059, 43.649415 ], [ -72.31402, 43.656158 ], [ -72.312887, 43.658444 ], [ -72.310841, 43.659724 ], [ -72.309120825673801, 43.662034869297003 ], [ -72.305771, 43.666535 ], [ -72.304322, 43.669507 ], [ -72.303408, 43.674055 ], [ -72.303092, 43.678078 ], [ -72.304351, 43.681141 ], [ -72.30602, 43.683061 ], [ -72.305988371958705, 43.683498158721598 ], [ -72.305344179348097, 43.692402106191601 ], [ -72.305337119990497, 43.692499679725202 ], [ -72.305133, 43.695321 ], [ -72.301028, 43.701424 ], [ -72.300307688654499, 43.703811753387598 ], [ -72.299564, 43.706277 ], [ -72.294894, 43.709003 ], [ -72.292215, 43.711333 ], [ -72.28695, 43.717252 ], [ -72.284805, 43.72036 ], [ -72.282522681978506, 43.722330170687997 ], [ -72.279855, 43.724633 ], [ -72.275271, 43.727532 ], [ -72.271776, 43.733407 ], [ -72.268389, 43.734292 ], [ -72.264467, 43.733895 ], [ -72.261935780498206, 43.735095173048997 ], [ -72.245068, 43.743093 ], [ -72.234178, 43.745965 ], [ -72.230439, 43.749352 ], [ -72.225373, 43.756363 ], [ -72.220116, 43.763626 ], [ -72.218099, 43.765729 ], [ -72.216491, 43.766507 ], [ -72.210815, 43.767696 ], [ -72.2051729288236, 43.771122822144399 ], [ -72.205143, 43.771141 ], [ -72.205138520061197, 43.771259813024102 ], [ -72.204788, 43.780556 ], [ -72.205536, 43.784584 ], [ -72.202316, 43.787346 ], [ -72.197708, 43.789597 ], [ -72.195084, 43.792328 ], [ -72.192932, 43.795898 ], [ -72.190754, 43.800807 ], [ -72.184847, 43.804698 ], [ -72.183333, 43.808177 ], [ -72.184052434025304, 43.811851946778098 ], [ -72.184184, 43.812524 ], [ -72.187469, 43.817337 ], [ -72.188949, 43.821319 ], [ -72.188522, 43.823288 ], [ -72.186238, 43.826931 ], [ -72.183337, 43.830699 ], [ -72.182203, 43.834032 ], [ -72.182864, 43.845109 ], [ -72.187379, 43.853612 ], [ -72.187916, 43.856126 ], [ -72.184788, 43.863393 ], [ -72.182846, 43.865524 ], [ -72.179386, 43.866181 ], [ -72.174712, 43.866569 ], [ -72.167907, 43.869109 ], [ -72.1690171831725, 43.871667222409201 ], [ -72.169425680988496, 43.872608533981001 ], [ -72.16978, 43.873425 ], [ -72.171904, 43.876149 ], [ -72.173576, 43.87967 ], [ -72.172714, 43.884254 ], [ -72.170562, 43.886184 ], [ -72.169626635881798, 43.886164104597803 ], [ -72.167224, 43.886113 ], [ -72.161636, 43.886756 ], [ -72.159216, 43.888313 ], [ -72.158585, 43.892762 ], [ -72.155724, 43.89712 ], [ -72.151324, 43.901704 ], [ -72.145041, 43.905288 ], [ -72.135481, 43.909568 ], [ -72.132851, 43.913011 ], [ -72.132158161425096, 43.913324040244497 ], [ -72.123936, 43.917039 ], [ -72.120421, 43.919593 ], [ -72.118147, 43.923606 ], [ -72.117384, 43.93196 ], [ -72.116926, 43.934393 ], [ -72.1192, 43.943411 ], [ -72.11862, 43.946044 ], [ -72.116911, 43.947493 ], [ -72.110872, 43.947654 ], [ -72.106293, 43.949474 ], [ -72.104437, 43.950886 ], [ -72.099125012503706, 43.957336057728199 ], [ -72.099088, 43.957381 ], [ -72.098955, 43.958879 ], [ -72.101224, 43.961378 ], [ -72.100492, 43.963186 ], [ -72.095563, 43.964583 ], [ -72.091413, 43.965452 ], [ -72.091104, 43.966443 ], [ -72.097989, 43.968542 ], [ -72.105146, 43.969885 ], [ -72.107343, 43.969557 ], [ -72.110149, 43.967249 ], [ -72.112943, 43.967222 ], [ -72.114726, 43.968332 ], [ -72.114423, 43.970274 ], [ -72.113189, 43.97392 ], [ -72.112699, 43.977911 ], [ -72.112697684216101, 43.9779955437482 ], [ -72.112628, 43.982473 ], [ -72.11218, 43.986845 ], [ -72.116706, 43.991954 ], [ -72.116985, 43.99448 ], [ -72.11038, 43.999304 ], [ -72.104367, 44.002157 ], [ -72.103576, 44.004231 ], [ -72.105726, 44.011098 ], [ -72.105283, 44.013059 ], [ -72.102475, 44.014882 ], [ -72.097593, 44.015226 ], [ -72.095247, 44.01358 ], [ -72.093411, 44.01087 ], [ -72.093257, 44.009376 ], [ -72.09123, 44.009125 ], [ -72.090059, 44.009903 ], [ -72.089807, 44.011274 ], [ -72.090504, 44.012736 ], [ -72.095193, 44.016666 ], [ -72.095868, 44.019682 ], [ -72.095258, 44.021894 ], [ -72.093256, 44.024017 ], [ -72.090283, 44.02403 ], [ -72.085477, 44.021261 ], [ -72.082913, 44.021581 ], [ -72.081673, 44.023638 ], [ -72.081864, 44.026952 ], [ -72.080411, 44.029211 ], [ -72.079144858241804, 44.029671953807998 ], [ -72.079079964954801, 44.029695578972898 ], [ -72.078274, 44.029989 ], [ -72.075391, 44.031522 ], [ -72.074841, 44.032987 ], [ -72.078244, 44.037771 ], [ -72.079434, 44.040578 ], [ -72.07832, 44.043378 ], [ -72.07417, 44.045835 ], [ -72.065625, 44.049146 ], [ -72.062496, 44.049344 ], [ -72.061856, 44.050611 ], [ -72.062573, 44.051771 ], [ -72.067868, 44.053525 ], [ -72.06915, 44.054817 ], [ -72.067626798281395, 44.058003046767702 ], [ -72.067612, 44.058034 ], [ -72.065415, 44.058344 ], [ -72.059338, 44.057683 ], [ -72.057293, 44.058339 ], [ -72.055309, 44.060773 ], [ -72.053482, 44.06473 ], [ -72.048931, 44.069012 ], [ -72.048244, 44.070355 ], [ -72.049117, 44.072355 ], [ -72.051235, 44.073789 ], [ -72.052902, 44.075345 ], [ -72.052494, 44.076716 ], [ -72.051141, 44.077256 ], [ -72.046369, 44.078231 ], [ -72.043056, 44.079266 ], [ -72.041362, 44.078877 ], [ -72.040279, 44.077603 ], [ -72.038036, 44.076543 ], [ -72.034175, 44.077115 ], [ -72.0321579058715, 44.078348244782099 ], [ -72.031841, 44.078542 ], [ -72.031657, 44.079602 ], [ -72.033245, 44.08151 ], [ -72.038204, 44.083035 ], [ -72.041316, 44.084554 ], [ -72.044383, 44.085996 ], [ -72.045146, 44.08785 ], [ -72.043483, 44.088902 ], [ -72.039912, 44.088712 ], [ -72.036021, 44.088963 ], [ -72.033689, 44.09014 ], [ -72.032359, 44.091527 ], [ -72.030909, 44.096562 ], [ -72.030897, 44.099719 ], [ -72.033046, 44.101781 ], [ -72.037471, 44.103352 ], [ -72.04005, 44.103352 ], [ -72.042263, 44.101353 ], [ -72.042583, 44.099171 ], [ -72.043132, 44.097241 ], [ -72.044909, 44.096402 ], [ -72.048334, 44.096905 ], [ -72.050997, 44.098848 ], [ -72.052391, 44.101088 ], [ -72.053117983964796, 44.103554193966303 ], [ -72.055141, 44.110417 ], [ -72.053707, 44.113797 ], [ -72.052530468765497, 44.119049587064303 ], [ -72.052342, 44.119891 ], [ -72.04643, 44.123911 ], [ -72.042537, 44.125035 ], [ -72.04063, 44.125363 ], [ -72.038839, 44.124628 ], [ -72.036922, 44.125271 ], [ -72.035976, 44.12846 ], [ -72.033412, 44.1311 ], [ -72.033794, 44.132344 ], [ -72.03744, 44.133396 ], [ -72.041103, 44.136113 ], [ -72.041881, 44.137623 ], [ -72.042258266380401, 44.142944609492098 ], [ -72.042827, 44.150967 ], [ -72.042476, 44.152226 ], [ -72.041218296862098, 44.1540672845655 ], [ -72.041073, 44.15428 ], [ -72.039658407972397, 44.155688018644597 ], [ -72.038921, 44.156422 ], [ -72.040167, 44.157023 ], [ -72.042381, 44.156581 ], [ -72.043505, 44.156918 ], [ -72.043569551921394, 44.157078021496503 ], [ -72.044004, 44.158155 ], [ -72.042387, 44.160817 ], [ -72.042359, 44.161701 ], [ -72.045111, 44.161749 ], [ -72.046568, 44.161403 ], [ -72.047593, 44.161801 ], [ -72.048969, 44.165039 ], [ -72.051523, 44.166219 ], [ -72.053021, 44.167903 ], [ -72.057496, 44.179444 ], [ -72.061338, 44.184951 ], [ -72.066166, 44.189773 ], [ -72.064577, 44.196949 ], [ -72.063561, 44.198457 ], [ -72.060067, 44.200446 ], [ -72.058987, 44.202114 ], [ -72.058066, 44.206067 ], [ -72.059536, 44.210315 ], [ -72.058285, 44.211803 ], [ -72.05537, 44.212833 ], [ -72.052947184687795, 44.217937976614998 ], [ -72.052502, 44.218876 ], [ -72.0539, 44.222703 ], [ -72.053582, 44.22604 ], [ -72.050548, 44.232974 ], [ -72.047889, 44.238493 ], [ -72.04846, 44.241212 ], [ -72.050112, 44.244046 ], [ -72.05399, 44.246926 ], [ -72.059180220961693, 44.255853359336399 ], [ -72.05978, 44.256885 ], [ -72.061174, 44.263377 ], [ -72.060543, 44.264491 ], [ -72.059444, 44.264896 ], [ -72.058969, 44.265911 ], [ -72.058475, 44.267886 ], [ -72.058559, 44.269077 ], [ -72.060039, 44.269855 ], [ -72.064544, 44.267997 ], [ -72.067135, 44.268237 ], [ -72.068432, 44.271296 ], [ -72.065434, 44.277235 ], [ -72.05888, 44.28624 ], [ -72.057425466972106, 44.287361767462798 ], [ -72.053355, 44.290501 ], [ -72.053160162457004, 44.290541939917603 ], [ -72.046302, 44.291983 ], [ -72.044506, 44.294963 ], [ -72.042812, 44.29552 ], [ -72.039506, 44.295943 ], [ -72.034818214196505, 44.3004558838999 ], [ -72.032725, 44.302471 ], [ -72.032317, 44.306677 ], [ -72.031902, 44.315653 ], [ -72.033806, 44.317349 ], [ -72.032816, 44.320446 ], [ -72.029061, 44.322398 ], [ -72.025783, 44.322054 ], [ -72.018901, 44.320216 ], [ -72.013514, 44.321078 ], [ -72.003881, 44.32409 ], [ -71.992716, 44.328631 ], [ -71.988306, 44.329768 ], [ -71.986484, 44.331218 ], [ -71.984645680707402, 44.336165806344397 ], [ -71.984624608959194, 44.336222520610697 ], [ -71.984617, 44.336243 ], [ -71.98112, 44.3375 ], [ -71.963133, 44.336556 ], [ -71.958047, 44.337427 ], [ -71.945163, 44.337744 ], [ -71.939049, 44.335844 ], [ -71.935395, 44.33577 ], [ -71.92911, 44.337577 ], [ -71.925088, 44.342024 ], [ -71.917434, 44.346535 ], [ -71.909416, 44.348398 ], [ -71.902332, 44.347499 ], [ -71.890357, 44.343119 ], [ -71.87583, 44.337801 ], [ -71.872472, 44.336628 ], [ -71.86991, 44.336962 ], [ -71.861941, 44.340109 ], [ -71.852628, 44.340873 ], [ -71.845015554428997, 44.3439247578766 ], [ -71.844319, 44.344204 ], [ -71.837764853491294, 44.347719933902098 ], [ -71.833261, 44.350136 ], [ -71.826246, 44.352006 ], [ -71.818838, 44.352939 ], [ -71.814351, 44.354541 ], [ -71.812902, 44.355547 ], [ -71.812413, 44.357325 ], [ -71.813023, 44.359301 ], [ -71.814991, 44.363686 ], [ -71.816289, 44.367403 ], [ -71.81549, 44.368836 ], [ -71.812832, 44.370448 ], [ -71.812235, 44.371492 ], [ -71.812424, 44.372532 ], [ -71.815251, 44.374594 ], [ -71.815773, 44.375464 ], [ -71.814388, 44.381932 ], [ -71.81313, 44.382801 ], [ -71.808828, 44.383862 ], [ -71.803461, 44.383335 ], [ -71.800316, 44.384276 ], [ -71.799899, 44.385951 ], [ -71.803489, 44.390384 ], [ -71.803488, 44.39189 ], [ -71.802353, 44.39338 ], [ -71.793924, 44.399271 ], [ -71.790688, 44.40026 ], [ -71.778613, 44.399799 ], [ -71.775399, 44.401126 ], [ -71.772801, 44.403097 ], [ -71.767888, 44.405445 ], [ -71.765688977432305, 44.406307687658 ], [ -71.752764, 44.391908 ], [ -71.74956, 44.38916 ], [ -71.737251, 44.375065 ], [ -71.696885, 44.332118 ], [ -71.686921, 44.336581 ], [ -71.587004, 44.304759 ], [ -71.579752, 44.272244 ], [ -71.575819, 44.254596 ], [ -71.507412, 44.262897 ], [ -71.50584, 44.255557 ], [ -71.469706, 44.259936 ], [ -71.443338, 44.249172 ], [ -71.415898, 44.212169 ], [ -71.426507, 44.210903 ], [ -71.413171, 44.167462 ], [ -71.387138, 44.155201 ], [ -71.376518, 44.11887 ], [ -71.376488, 44.104069 ], [ -71.38163, 44.097874 ], [ -71.366355, 44.068524 ], [ -71.346656, 44.068822 ], [ -71.349952, 44.06381 ], [ -71.376411, 44.029714 ], [ -71.383613, 44.022611 ], [ -71.379546, 44.001544 ], [ -71.361965, 43.915938 ], [ -71.374535, 43.914603 ], [ -71.37487, 43.914626 ], [ -71.564603, 43.893172 ], [ -71.560621, 43.875045 ], [ -71.543805, 43.796043 ], [ -71.538021, 43.796478 ], [ -71.532332, 43.764818 ], [ -71.531658, 43.760979 ], [ -71.521466, 43.697992 ], [ -71.581403, 43.691949 ], [ -71.621452, 43.687799 ], [ -71.642227, 43.685257 ], [ -71.648346, 43.684511 ], [ -71.650573, 43.681962 ], [ -71.651215, 43.680215 ], [ -71.648819, 43.67325 ], [ -71.648758, 43.671739 ], [ -71.650558, 43.666711 ], [ -71.652237, 43.664247 ], [ -71.654358, 43.662645 ], [ -71.655121, 43.661264 ], [ -71.654465, 43.65809 ], [ -71.654175, 43.653589 ], [ -71.652954, 43.649126 ], [ -71.650741, 43.645052 ], [ -71.651458, 43.643015 ], [ -71.653671, 43.641199 ], [ -71.652222, 43.636667 ], [ -71.654633, 43.633776 ], [ -71.656753, 43.631967 ], [ -71.656936, 43.630311 ], [ -71.654724, 43.628542 ], [ -71.652234, 43.623 ], [ -71.651153, 43.621119 ], [ -71.652724, 43.619847 ], [ -71.656265, 43.618021 ], [ -71.658402, 43.617594 ], [ -71.661743, 43.615984 ], [ -71.665054, 43.613573 ], [ -71.665497, 43.612505 ], [ -71.665268, 43.611246 ], [ -71.66304, 43.608042 ], [ -71.662827, 43.605997 ], [ -71.664581, 43.604449 ], [ -71.669083, 43.604883 ], [ -71.67041, 43.604571 ], [ -71.681275, 43.598139 ], [ -71.686188, 43.595553 ], [ -71.688096, 43.59495 ], [ -71.694337, 43.594683 ], [ -71.697709, 43.594294 ], [ -71.70334, 43.594614 ], [ -71.704576, 43.595362 ], [ -71.706194, 43.599261 ], [ -71.707704, 43.601023 ], [ -71.710222, 43.601084 ], [ -71.713286, 43.600544 ], [ -71.71657, 43.59878 ], [ -71.72014, 43.595225 ], [ -71.724993, 43.595805 ], [ -71.726977, 43.595545 ], [ -71.728121, 43.594904 ], [ -71.730623, 43.592615 ], [ -71.731533, 43.590716 ], [ -71.731493, 43.588496 ], [ -71.729486, 43.586813 ], [ -71.727755, 43.586039 ], [ -71.724611, 43.585657 ], [ -71.720293, 43.582804 ], [ -71.718508, 43.580668 ], [ -71.716066, 43.578768 ], [ -71.715715, 43.577898 ], [ -71.717516, 43.574641 ], [ -71.718538, 43.573649 ], [ -71.721498, 43.572459 ], [ -71.72481, 43.57059 ], [ -71.7251, 43.568888 ], [ -71.724214, 43.566371 ], [ -71.725755, 43.564432 ], [ -71.727573, 43.563411 ], [ -71.730517, 43.564738 ], [ -71.728472, 43.565509 ], [ -71.730547, 43.567729 ], [ -71.733797, 43.567614 ], [ -71.735995, 43.569315 ], [ -71.741618, 43.568568 ], [ -71.74341, 43.567591 ], [ -71.743121, 43.566012 ], [ -71.744845, 43.565219 ], [ -71.746386, 43.566493 ], [ -71.749545, 43.567614 ], [ -71.755481, 43.565447 ], [ -71.758746, 43.567141 ], [ -71.76102, 43.567729 ], [ -71.7775, 43.552501 ], [ -71.780658, 43.559031 ], [ -71.78255, 43.56058 ], [ -71.785572, 43.561564 ], [ -71.786776, 43.561273 ], [ -71.789799, 43.559039 ], [ -71.793384, 43.55836 ], [ -71.797489, 43.559413 ], [ -71.799427, 43.558467 ], [ -71.801623, 43.556194 ], [ -71.802235, 43.55408 ], [ -71.80428, 43.552745 ], [ -71.80666, 43.553126 ], [ -71.8084, 43.552745 ], [ -71.810978, 43.550525 ], [ -71.813344, 43.551204 ], [ -71.815144, 43.550921 ], [ -71.818104, 43.548144 ], [ -71.816243, 43.546641 ], [ -71.817921, 43.544208 ], [ -71.849203, 43.6112 ], [ -71.864599, 43.598063 ], [ -71.892112, 43.574618 ], [ -71.905176, 43.559678 ], [ -71.928368, 43.536777 ], [ -71.930992, 43.533855 ], [ -71.93531, 43.52888 ], [ -72.067165, 43.543971 ], [ -72.069516, 43.553172 ], [ -72.090893, 43.528857 ], [ -72.109235, 43.534366 ], [ -72.120176, 43.538302 ], [ -72.106412, 43.553485 ], [ -72.14908, 43.567091 ], [ -72.149586, 43.567256 ], [ -72.171188, 43.573985 ], [ -72.208313, 43.585207 ], [ -72.224893, 43.587271 ], [ -72.274691, 43.592844 ], [ -72.281053, 43.593643 ], [ -72.304197, 43.596759 ], [ -72.329677284081598, 43.600183640558903 ], [ -72.32962, 43.600201 ], [ -72.328514, 43.600805 ], [ -72.327665, 43.602679 ], [ -72.328087961400797, 43.605782208866799 ], [ -72.328232, 43.606839 ], [ -72.329522, 43.608393 ], [ -72.3327, 43.610313 ], [ -72.334745, 43.614519 ], [ -72.334401, 43.61925 ] ] ] ] } },
{ "type": "Feature", "properties": { "STATEFP": "33", "COUNTYFP": "001", "COUNTYNS": "00873174", "GEOIDFQ": "0500000US33001", "GEOID": "33001", "NAME": "Belknap", "NAMELSAD": "Belknap County", "STUSPS": "NH", "STATE_NAME": "New Hampshire", "LSAD": "06", "ALAND": 1040780145.0, "AWATER": 176540721.0 }, "geometry": { "type": "MultiPolygon", "coordinates": [ [ [ [ -71.731533, 43.590716 ], [ -71.730623, 43.592615 ], [ -71.728121, 43.594904 ], [ -71.726977, 43.595545 ], [ -71.724993, 43.595805 ], [ -71.72014, 43.595225 ], [ -71.71657, 43.59878 ], [ -71.713286, 43.600544 ], [ -71.710222, 43.601084 ], [ -71.707704, 43.601023 ], [ -71.706194, 43.599261 ], [ -71.704576, 43.595362 ], [ -71.70334, 43.594614 ], [ -71.697709, 43.594294 ], [ -71.694337, 43.594683 ], [ -71.688096, 43.59495 ], [ -71.686188, 43.595553 ], [ -71.681275, 43.598139 ], [ -71.67041, 43.604571 ], [ -71.669083, 43.604883 ], [ -71.664581, 43.604449 ], [ -71.662827, 43.605997 ], [ -71.66304, 43.608042 ], [ -71.665268, 43.611246 ], [ -71.665497, 43.612505 ], [ -71.665054, 43.613573 ], [ -71.661743, 43.615984 ], [ -71.658402, 43.617594 ], [ -71.656265, 43.618021 ], [ -71.652724, 43.619847 ], [ -71.651153, 43.621119 ], [ -71.652234, 43.623 ], [ -71.654724, 43.628542 ], [ -71.656936, 43.630311 ], [ -71.656753, 43.631967 ], [ -71.654633, 43.633776 ], [ -71.652222, 43.636667 ], [ -71.653671, 43.641199 ], [ -71.651458, 43.643015 ], [ -71.650741, 43.645052 ], [ -71.652954, 43.649126 ], [ -71.654175, 43.653589 ], [ -71.654465, 43.65809 ], [ -71.655121, 43.661264 ], [ -71.654358, 43.662645 ], [ -71.652237, 43.664247 ], [ -71.650558, 43.666711 ], [ -71.648758, 43.671739 ], [ -71.648819, 43.67325 ], [ -71.651215, 43.680215 ], [ -71.650573, 43.681962 ], [ -71.648346, 43.684511 ], [ -71.642227, 43.685257 ], [ -71.621452, 43.687799 ], [ -71.581403, 43.691949 ], [ -71.521466, 43.697992 ], [ -71.531658, 43.760979 ], [ -71.46039, 43.709715 ], [ -71.43989, 43.695558 ], [ -71.357413, 43.638452 ], [ -71.357246, 43.638368 ], [ -71.344245, 43.62922 ], [ -71.34362, 43.628794 ], [ -71.340766, 43.626772 ], [ -71.338614, 43.625261 ], [ -71.338553, 43.624216 ], [ -71.335639, 43.621431 ], [ -71.333167, 43.619806 ], [ -71.330603, 43.620065 ], [ -71.284459, 43.589091 ], [ -71.283681, 43.588557 ], [ -71.257954, 43.571291 ], [ -71.249531, 43.569399 ], [ -71.22768, 43.564585 ], [ -71.220966, 43.559588 ], [ -71.208941, 43.550517 ], [ -71.203921, 43.552424 ], [ -71.199465, 43.55913 ], [ -71.162675, 43.538959 ], [ -71.190799, 43.515033 ], [ -71.183876, 43.475477 ], [ -71.174121, 43.423173 ], [ -71.162412, 43.366443 ], [ -71.159364, 43.355123 ], [ -71.193224, 43.324163 ], [ -71.20025, 43.315932 ], [ -71.207568, 43.307996 ], [ -71.236011, 43.284994 ], [ -71.305137, 43.322745 ], [ -71.349051, 43.346578 ], [ -71.454982, 43.40265 ], [ -71.471454, 43.411298 ], [ -71.488922, 43.420948 ], [ -71.536655, 43.445796 ], [ -71.549423, 43.452389 ], [ -71.555435, 43.454967 ], [ -71.559384, 43.45554 ], [ -71.561154, 43.4548 ], [ -71.561978, 43.453052 ], [ -71.560824, 43.451099 ], [ -71.561918, 43.450527 ], [ -71.567806, 43.452572 ], [ -71.570013, 43.452035 ], [ -71.570435, 43.451771 ], [ -71.572508, 43.449062 ], [ -71.5753, 43.446545 ], [ -71.579984, 43.444332 ], [ -71.584669, 43.444576 ], [ -71.585875, 43.443943 ], [ -71.58855, 43.441652 ], [ -71.591276, 43.442486 ], [ -71.591903, 43.443037 ], [ -71.59312, 43.443113 ], [ -71.595594, 43.440556 ], [ -71.595045, 43.438068 ], [ -71.598036, 43.437382 ], [ -71.598982, 43.435703 ], [ -71.601077, 43.435009 ], [ -71.601485, 43.436932 ], [ -71.603087, 43.439961 ], [ -71.60446, 43.44064 ], [ -71.607726, 43.44064 ], [ -71.610274, 43.439617 ], [ -71.611891, 43.437824 ], [ -71.613936, 43.439587 ], [ -71.615004, 43.442707 ], [ -71.617568, 43.443935 ], [ -71.619979, 43.443867 ], [ -71.621393, 43.446998 ], [ -71.622012, 43.44686 ], [ -71.628148, 43.458556 ], [ -71.62503, 43.459504 ], [ -71.628413, 43.46864 ], [ -71.624114, 43.469852 ], [ -71.627608, 43.478069 ], [ -71.630019, 43.477359 ], [ -71.638046, 43.491756 ], [ -71.653473, 43.487621 ], [ -71.653595, 43.490596 ], [ -71.654861, 43.492 ], [ -71.659897, 43.494678 ], [ -71.664215, 43.496166 ], [ -71.670166, 43.497089 ], [ -71.673462, 43.499385 ], [ -71.677293, 43.500491 ], [ -71.67923, 43.503345 ], [ -71.680314, 43.505893 ], [ -71.683198, 43.508075 ], [ -71.6848, 43.510753 ], [ -71.688599, 43.51292 ], [ -71.691453, 43.516139 ], [ -71.691026, 43.517932 ], [ -71.689255, 43.522144 ], [ -71.687492, 43.52483 ], [ -71.687623, 43.52814 ], [ -71.68866, 43.529269 ], [ -71.696839, 43.533671 ], [ -71.702195, 43.536303 ], [ -71.706346, 43.537623 ], [ -71.708848, 43.539675 ], [ -71.710374, 43.542216 ], [ -71.710344, 43.544848 ], [ -71.713822, 43.549876 ], [ -71.715608, 43.551241 ], [ -71.719609, 43.552036 ], [ -71.7222, 43.552958 ], [ -71.725099, 43.555536 ], [ -71.726396, 43.55768 ], [ -71.728014, 43.558939 ], [ -71.729066, 43.560846 ], [ -71.728838, 43.56238 ], [ -71.727573, 43.563411 ], [ -71.725755, 43.564432 ], [ -71.724214, 43.566371 ], [ -71.7251, 43.568888 ], [ -71.72481, 43.57059 ], [ -71.721498, 43.572459 ], [ -71.718538, 43.573649 ], [ -71.717516, 43.574641 ], [ -71.715715, 43.577898 ], [ -71.716066, 43.578768 ], [ -71.718508, 43.580668 ], [ -71.720293, 43.582804 ], [ -71.724611, 43.585657 ], [ -71.727755, 43.586039 ], [ -71.729486, 43.586813 ], [ -71.731493, 43.588496 ], [ -71.731533, 43.590716 ] ] ] ] } },
{ "type": "Feature", "properties": { "STATEFP": "33", "COUNTYFP": "011", "COUNTYNS": "00873179", "GEOIDFQ": "0500000US33011", "GEOID": "33011", "NAME": "Hillsborough", "NAMELSAD": "Hillsborough County", "STUSPS": "NH", "STATE_NAME": "New Hampshire", "LSAD": "06", "ALAND": 2270202107.0, "AWATER": 41309760.0 }, "geometry": { "type": "MultiPolygon", "coordinates": [ [ [ [ -72.061246, 42.965806 ], [ -72.058801, 43.005106 ], [ -72.057949, 43.018922 ], [ -72.041972, 43.082238 ], [ -72.043499, 43.081993 ], [ -72.034083, 43.128746 ], [ -72.038149, 43.128807 ], [ -72.023478, 43.160125 ], [ -72.036845, 43.182471 ], [ -72.009074, 43.187882 ], [ -71.999527, 43.190091 ], [ -71.961772, 43.197534 ], [ -71.913215, 43.207099 ], [ -71.882195, 43.157375 ], [ -71.87493, 43.145752 ], [ -71.8561, 43.115135 ], [ -71.810277, 43.124271 ], [ -71.796176, 43.127582 ], [ -71.761854, 43.134115 ], [ -71.73256, 43.139786 ], [ -71.667771, 43.152534 ], [ -71.652565, 43.09732 ], [ -71.641291, 43.054168 ], [ -71.60122, 43.058771 ], [ -71.54505, 43.065456 ], [ -71.517467, 43.068909 ], [ -71.512767, 43.049615 ], [ -71.489109, 43.051779 ], [ -71.484415, 43.044136 ], [ -71.483576, 43.04171 ], [ -71.480025, 43.039405 ], [ -71.479548, 43.038819 ], [ -71.476406, 43.037876 ], [ -71.475791, 43.037603 ], [ -71.473981, 43.035274 ], [ -71.457178, 43.04239 ], [ -71.454783, 43.044 ], [ -71.454597, 43.04311 ], [ -71.453562, 43.038249 ], [ -71.450683, 43.024538 ], [ -71.449962, 43.020069 ], [ -71.447499, 43.01965 ], [ -71.440622, 43.018387 ], [ -71.439841, 43.018236 ], [ -71.435975, 43.017515 ], [ -71.396924, 43.010167 ], [ -71.392388, 43.009309 ], [ -71.392277, 43.009011 ], [ -71.392007, 43.007793 ], [ -71.391008, 43.003768 ], [ -71.390497, 43.001891 ], [ -71.382172, 42.968698 ], [ -71.377186, 42.947145 ], [ -71.375435, 42.939318 ], [ -71.38406, 42.938349 ], [ -71.384497, 42.938303 ], [ -71.42528, 42.933773 ], [ -71.425295, 42.933773 ], [ -71.449794, 42.931091 ], [ -71.451231, 42.930438 ], [ -71.448183, 42.916854 ], [ -71.443651, 42.896168 ], [ -71.442301, 42.890399 ], [ -71.441677, 42.887749 ], [ -71.432856, 42.849842 ], [ -71.431573, 42.84441 ], [ -71.427067, 42.82484 ], [ -71.407886, 42.824239 ], [ -71.3872, 42.823559 ], [ -71.368885, 42.806471 ], [ -71.360679, 42.798962 ], [ -71.362922, 42.79739 ], [ -71.362419, 42.795734 ], [ -71.364041, 42.794157 ], [ -71.366203, 42.791691 ], [ -71.365043, 42.79179 ], [ -71.364204, 42.788929 ], [ -71.364418, 42.785237 ], [ -71.362434, 42.782963 ], [ -71.358055, 42.785137 ], [ -71.353965, 42.783139 ], [ -71.35308, 42.783261 ], [ -71.353095, 42.781712 ], [ -71.351539, 42.780606 ], [ -71.352867, 42.777874 ], [ -71.350882, 42.776753 ], [ -71.349861, 42.77406 ], [ -71.351035, 42.772183 ], [ -71.319429, 42.766471 ], [ -71.284261, 42.760113 ], [ -71.266076, 42.7569 ], [ -71.265308, 42.756691 ], [ -71.26009, 42.755734 ], [ -71.245539259393993, 42.742567357762297 ], [ -71.255198770389399, 42.736638343984403 ], [ -71.255605, 42.736389 ], [ -71.266374565148695, 42.727196344349899 ], [ -71.267905, 42.72589 ], [ -71.275406885434194, 42.715932853077597 ], [ -71.278516885459695, 42.7118049938274 ], [ -71.278929, 42.711258 ], [ -71.288832514129695, 42.702007977768901 ], [ -71.294205, 42.69699 ], [ -71.313446645428996, 42.697096895060803 ], [ -71.313492215809404, 42.697097148222497 ], [ -71.330206, 42.69719 ], [ -71.330330636992699, 42.697195545046199 ], [ -71.351624238497195, 42.6981428882182 ], [ -71.351797292683102, 42.698150587324498 ], [ -71.351874, 42.698154 ], [ -71.365186651846798, 42.698469482361801 ], [ -71.367434834858997, 42.698522759657301 ], [ -71.369725041666797, 42.698577032830002 ], [ -71.386943026923205, 42.698985063530102 ], [ -71.388194833244796, 42.699014728755301 ], [ -71.432335697233, 42.700060776092897 ], [ -71.4323540138531, 42.700061210158999 ], [ -71.449174167048596, 42.700459813060696 ], [ -71.451714344807201, 42.700520010028796 ], [ -71.457687763627007, 42.700661567721298 ], [ -71.467553246573004, 42.700895359297597 ], [ -71.488035032965996, 42.701380735345701 ], [ -71.488101021295805, 42.701382299132902 ], [ -71.542537731342094, 42.702672336764003 ], [ -71.5426896188347, 42.702675936184001 ], [ -71.567309278074603, 42.703259371275102 ], [ -71.619789600454098, 42.704503046557903 ], [ -71.630622319120306, 42.704759759623599 ], [ -71.631814, 42.704788 ], [ -71.636214, 42.704888 ], [ -71.651825915830599, 42.705229714971999 ], [ -71.672385089970405, 42.705679715964301 ], [ -71.701391660188307, 42.706314614297 ], [ -71.726856504954299, 42.706871991034802 ], [ -71.745817, 42.707287 ], [ -71.772556879175596, 42.708009877156002 ], [ -71.805390068401493, 42.708897478864799 ], [ -71.823802474552394, 42.709395233836197 ], [ -71.898770029480005, 42.711421882219298 ], [ -71.928811, 42.712234 ], [ -71.929019404364794, 42.712238200502497 ], [ -71.93481, 42.743094 ], [ -71.941048, 42.776066 ], [ -71.941094, 42.776173 ], [ -71.944283, 42.78841 ], [ -71.97471, 42.789402 ], [ -71.976595, 42.798213 ], [ -71.984216, 42.833805 ], [ -71.990686, 42.865115 ], [ -71.995024, 42.884548 ], [ -71.997075, 42.896416 ], [ -71.999412, 42.909648 ], [ -71.999872, 42.913653 ], [ -72.001215, 42.919443 ], [ -72.003473, 42.930224 ], [ -72.00619, 42.943789 ], [ -72.062222, 42.944796 ], [ -72.061246, 42.965806 ] ] ] ] } },
{ "type": "Feature", "properties": { "STATEFP": "33", "COUNTYFP": "003", "COUNTYNS": "00873175", "GEOIDFQ": "0500000US33003", "GEOID": "33003", "NAME": "Carroll", "NAMELSAD": "Carroll County", "STUSPS": "NH", "STATE_NAME": "New Hampshire", "LSAD": "06", "ALAND": 2413515422.0, "AWATER": 159620276.0 }, "geometry": { "type": "MultiPolygon", "coordinates": [ [ [ [ -71.564603, 43.893172 ], [ -71.37487, 43.914626 ], [ -71.374535, 43.914603 ], [ -71.361965, 43.915938 ], [ -71.379546, 44.001544 ], [ -71.383613, 44.022611 ], [ -71.376411, 44.029714 ], [ -71.349952, 44.06381 ], [ -71.346656, 44.068822 ], [ -71.366355, 44.068524 ], [ -71.38163, 44.097874 ], [ -71.376488, 44.104069 ], [ -71.376518, 44.11887 ], [ -71.387138, 44.155201 ], [ -71.413171, 44.167462 ], [ -71.426507, 44.210903 ], [ -71.415898, 44.212169 ], [ -71.394874, 44.214679 ], [ -71.384239, 44.178844 ], [ -71.373618, 44.173886 ], [ -71.356482, 44.165836 ], [ -71.355781, 44.163639 ], [ -71.343223, 44.123471 ], [ -71.343588, 44.092054 ], [ -71.335882, 44.085752 ], [ -71.324103, 44.091596 ], [ -71.32357, 44.091606 ], [ -71.311758, 44.091756 ], [ -71.307345, 44.113264 ], [ -71.30245, 44.137402 ], [ -71.306036, 44.137272 ], [ -71.260319, 44.227703 ], [ -71.251957, 44.244266 ], [ -71.243228, 44.243749 ], [ -71.098434, 44.235454 ], [ -71.070357, 44.237537 ], [ -71.04228, 44.237514 ], [ -71.042112, 44.274943 ], [ -71.043668, 44.274928 ], [ -71.044385, 44.283778 ], [ -71.010271167868396, 44.284888321571998 ], [ -71.009587085490793, 44.273274308957397 ], [ -71.008736, 44.258825 ], [ -71.008764, 44.258443 ], [ -71.008567, 44.245491 ], [ -71.002161997775303, 44.1106192952439 ], [ -71.001335, 44.093205 ], [ -71.001367, 44.092931 ], [ -71.000045655021594, 44.069500294246303 ], [ -70.998444, 44.041099 ], [ -70.9975738927252, 44.021710301121203 ], [ -70.997566214614906, 44.021539208921197 ], [ -70.996776734037994, 44.003947123877701 ], [ -70.996611261248304, 44.0002598749778 ], [ -70.994806719643194, 43.960049070163898 ], [ -70.9946862935724, 43.957365602398497 ], [ -70.993249975170698, 43.925359956901097 ], [ -70.992842, 43.916269 ], [ -70.992653, 43.89624 ], [ -70.992176142315401, 43.886261525375602 ], [ -70.991748972621593, 43.877322795670104 ], [ -70.989929, 43.839239 ], [ -70.989067, 43.79244 ], [ -70.989036761866899, 43.792153608733202 ], [ -70.989030119862093, 43.792090701007503 ], [ -70.985208552718603, 43.755895891891797 ], [ -70.985208427338407, 43.755894704390997 ], [ -70.984901, 43.752983 ], [ -70.982083, 43.715043 ], [ -70.982238, 43.711865 ], [ -70.981978, 43.701965 ], [ -70.981946, 43.70096 ], [ -70.980577970397803, 43.684326636392498 ], [ -70.9796640134618, 43.673214173611399 ], [ -70.975705, 43.625078 ], [ -70.975123330996993, 43.614409268065202 ], [ -70.974527811617307, 43.6034864982594 ], [ -70.972716, 43.570255 ], [ -70.970124, 43.568544 ], [ -70.968546, 43.568856 ], [ -70.961848, 43.562964 ], [ -70.957234, 43.561358 ], [ -70.95586, 43.559787 ], [ -70.955017, 43.554239 ], [ -70.953322, 43.552718 ], [ -70.951876, 43.552238 ], [ -70.950838, 43.551026 ], [ -70.953429, 43.544382 ], [ -70.953504, 43.540603 ], [ -70.954685, 43.540509 ], [ -70.955252, 43.540887 ], [ -70.955337, 43.54098 ], [ -70.955928, 43.541925 ], [ -70.958806, 43.540625 ], [ -70.962160936760199, 43.541029460681699 ], [ -70.962536, 43.541301 ], [ -70.969186, 43.535546 ], [ -70.999307, 43.507274 ], [ -71.016022, 43.490973 ], [ -71.024244, 43.482913 ], [ -71.029255, 43.499774 ], [ -71.037931, 43.529826 ], [ -71.044523, 43.524798 ], [ -71.046431, 43.529689 ], [ -71.052519, 43.524692 ], [ -71.056426, 43.52811 ], [ -71.063093, 43.52418 ], [ -71.067565, 43.52724 ], [ -71.084838, 43.506686 ], [ -71.089477, 43.512691 ], [ -71.093276, 43.507335 ], [ -71.096939, 43.511684 ], [ -71.102081, 43.506877 ], [ -71.106536, 43.512248 ], [ -71.111496, 43.506709 ], [ -71.124513, 43.559806 ], [ -71.127808, 43.572787 ], [ -71.15268, 43.547618 ], [ -71.162675, 43.538959 ], [ -71.199465, 43.55913 ], [ -71.203921, 43.552424 ], [ -71.208941, 43.550517 ], [ -71.220966, 43.559588 ], [ -71.22768, 43.564585 ], [ -71.249531, 43.569399 ], [ -71.257954, 43.571291 ], [ -71.283681, 43.588557 ], [ -71.284459, 43.589091 ], [ -71.330603, 43.620065 ], [ -71.333167, 43.619806 ], [ -71.335639, 43.621431 ], [ -71.338553, 43.624216 ], [ -71.338614, 43.625261 ], [ -71.340766, 43.626772 ], [ -71.34362, 43.628794 ], [ -71.344245, 43.62922 ], [ -71.357246, 43.638368 ], [ -71.357413, 43.638452 ], [ -71.43989, 43.695558 ], [ -71.46039, 43.709715 ], [ -71.531658, 43.760979 ], [ -71.532332, 43.764818 ], [ -71.538021, 43.796478 ], [ -71.543805, 43.796043 ], [ -71.560621, 43.875045 ], [ -71.564603, 43.893172 ] ] ] ] } },
{ "type": "Feature", "properties": { "STATEFP": "33", "COUNTYFP": "019", "COUNTYNS": "00873183", "GEOIDFQ": "0500000US33019", "GEOID": "33019", "NAME": "Sullivan", "NAMELSAD": "Sullivan County", "STUSPS": "NH", "STATE_NAME": "New Hampshire", "LSAD": "06", "ALAND": 1393091317.0, "AWATER": 36932078.0 }, "geometry": { "type": "MultiPolygon", "coordinates": [ [ [ [ -72.452556, 43.172117 ], [ -72.451430916722003, 43.172977426991999 ], [ -72.444904, 43.177969 ], [ -72.443405, 43.179729 ], [ -72.443749, 43.182221 ], [ -72.449435, 43.18917 ], [ -72.45028, 43.192485 ], [ -72.438969, 43.201035 ], [ -72.437719, 43.20275 ], [ -72.438594, 43.209013 ], [ -72.440563, 43.215254 ], [ -72.4405, 43.219049 ], [ -72.437656, 43.225266 ], [ -72.435478063405895, 43.228793028352698 ], [ -72.435104878919702, 43.229397376646098 ], [ -72.434466, 43.230432 ], [ -72.433785292783, 43.2330390564128 ], [ -72.433684, 43.233427 ], [ -72.433688684947995, 43.233440482434801 ], [ -72.434216, 43.234958 ], [ -72.436654, 43.238319 ], [ -72.438937, 43.24424 ], [ -72.438693, 43.252905 ], [ -72.436378, 43.257454 ], [ -72.435221, 43.258483 ], [ -72.427711061083698, 43.261213736697897 ], [ -72.4276791218808, 43.261225350314803 ], [ -72.421583, 43.263442 ], [ -72.41545, 43.271374 ], [ -72.407842, 43.282892 ], [ -72.401666, 43.303395 ], [ -72.395462, 43.312994 ], [ -72.395805, 43.314617 ], [ -72.397619, 43.317064 ], [ -72.402532, 43.32038 ], [ -72.408696, 43.327674 ], [ -72.410197, 43.330395 ], [ -72.410353, 43.331675 ], [ -72.409037, 43.334395 ], [ -72.406699128666503, 43.337697504440897 ], [ -72.406326271158306, 43.338224207326199 ], [ -72.400981, 43.345775 ], [ -72.399289, 43.347581 ], [ -72.395403, 43.350414 ], [ -72.39092, 43.354984 ], [ -72.390286366897001, 43.356490138905698 ], [ -72.390103, 43.356926 ], [ -72.39217, 43.357865 ], [ -72.400441, 43.357685 ], [ -72.403949, 43.358098 ], [ -72.413377, 43.362741 ], [ -72.414692, 43.364273 ], [ -72.415099, 43.365896 ], [ -72.415978, 43.376531 ], [ -72.415381, 43.380211 ], [ -72.413154, 43.384302 ], [ -72.411109704396196, 43.385774224020501 ], [ -72.405253, 43.389992 ], [ -72.403811, 43.391935 ], [ -72.401624713554, 43.403259726150402 ], [ -72.401542269708202, 43.4036867763106 ], [ -72.400131, 43.410997 ], [ -72.399972, 43.415249 ], [ -72.396503984753394, 43.428694399347499 ], [ -72.396439728308394, 43.428943519810403 ], [ -72.395916, 43.430974 ], [ -72.395659, 43.438541 ], [ -72.393992, 43.444666 ], [ -72.391196, 43.449305 ], [ -72.390567, 43.451225 ], [ -72.392628, 43.465078 ], [ -72.3925, 43.467364 ], [ -72.391526, 43.46878 ], [ -72.390466449594697, 43.469595560120098 ], [ -72.384719535530095, 43.474019090988499 ], [ -72.384491, 43.474195 ], [ -72.382951, 43.476 ], [ -72.382170999983799, 43.478598517969203 ], [ -72.381723, 43.480091 ], [ -72.380462839060897, 43.488298102209001 ], [ -72.380428, 43.488525 ], [ -72.380362, 43.491634 ], [ -72.380894, 43.493394 ], [ -72.384773, 43.500259 ], [ -72.389556, 43.503899 ], [ -72.396305, 43.508062 ], [ -72.398376, 43.510829 ], [ -72.398563, 43.513435 ], [ -72.396396011821395, 43.5190740762499 ], [ -72.396211742053694, 43.519553594911301 ], [ -72.395825, 43.52056 ], [ -72.395949, 43.52388 ], [ -72.394218, 43.5274 ], [ -72.3907, 43.527261 ], [ -72.389097, 43.528266 ], [ -72.38331, 43.53519 ], [ -72.380383, 43.54088 ], [ -72.381187, 43.554915 ], [ -72.382784, 43.561689 ], [ -72.382625, 43.564127 ], [ -72.379861, 43.566598 ], [ -72.380146, 43.573624 ], [ -72.373372, 43.579667 ], [ -72.364094544781807, 43.5835767566671 ], [ -72.363916, 43.583652 ], [ -72.349926, 43.587726 ], [ -72.346179186923607, 43.590211488519301 ], [ -72.332382, 43.599364 ], [ -72.329677284081598, 43.600183640558903 ], [ -72.304197, 43.596759 ], [ -72.281053, 43.593643 ], [ -72.274691, 43.592844 ], [ -72.224893, 43.587271 ], [ -72.208313, 43.585207 ], [ -72.171188, 43.573985 ], [ -72.149586, 43.567256 ], [ -72.14908, 43.567091 ], [ -72.106412, 43.553485 ], [ -72.120176, 43.538302 ], [ -72.109235, 43.534366 ], [ -72.090893, 43.528857 ], [ -72.069516, 43.553172 ], [ -72.067165, 43.543971 ], [ -71.93531, 43.52888 ], [ -71.990305, 43.464923 ], [ -71.999561, 43.453702 ], [ -72.008709, 43.440657 ], [ -72.011363, 43.436871 ], [ -72.053752, 43.441097 ], [ -72.054159, 43.439418 ], [ -72.056513, 43.429516 ], [ -72.05804, 43.423245 ], [ -72.057766, 43.422428 ], [ -72.047542, 43.412655 ], [ -72.04681, 43.410862 ], [ -72.048271, 43.391543 ], [ -72.048748, 43.385754 ], [ -72.04974, 43.380261 ], [ -72.051189, 43.376485 ], [ -72.051586, 43.376118 ], [ -72.078625, 43.33859 ], [ -72.090146, 43.322553 ], [ -72.065442, 43.25508 ], [ -72.045284, 43.254767 ], [ -72.041545, 43.222724 ], [ -72.009074, 43.187882 ], [ -72.036845, 43.182471 ], [ -72.023478, 43.160125 ], [ -72.038149, 43.128807 ], [ -72.123152, 43.129715 ], [ -72.178497, 43.131866 ], [ -72.173202, 43.148956 ], [ -72.156661, 43.181968 ], [ -72.219716, 43.174797 ], [ -72.262483, 43.169952 ], [ -72.27039, 43.168918 ], [ -72.332139, 43.162842 ], [ -72.330326, 43.155166 ], [ -72.372594, 43.1576 ], [ -72.376439, 43.157684 ], [ -72.372151, 43.132682 ], [ -72.372045, 43.132118 ], [ -72.379052, 43.132512 ], [ -72.431632, 43.135635 ], [ -72.43209, 43.15982 ], [ -72.443886, 43.160723 ], [ -72.446254, 43.160903 ], [ -72.452093744289201, 43.161342419572598 ], [ -72.4521, 43.161414 ], [ -72.451868, 43.170174 ], [ -72.452556, 43.172117 ] ] ] ] } },
{ "type": "Feature", "properties": { "STATEFP": "33", "COUNTYFP": "005", "COUNTYNS": "00873176", "GEOIDFQ": "0500000US33005", "GEOID": "33005", "NAME": "Cheshire", "NAMELSAD": "Cheshire County", "STUSPS": "NH", "STATE_NAME": "New Hampshire", "LSAD": "06", "ALAND": 1830367249.0, "AWATER": 57589052.0 }, "geometry": { "type": "MultiPolygon", "coordinates": [ [ [ [ -72.557247, 42.853019 ], [ -72.556270395012007, 42.855292562325303 ], [ -72.555057030600906, 42.858117306869602 ], [ -72.554232, 42.860038 ], [ -72.555132, 42.865731 ], [ -72.556112, 42.866252 ], [ -72.556177362185096, 42.8666992824039 ], [ -72.556214, 42.86695 ], [ -72.555131, 42.871058 ], [ -72.555415, 42.875428 ], [ -72.552834, 42.884968 ], [ -72.552025, 42.885631 ], [ -72.546491, 42.88714 ], [ -72.540708, 42.889379 ], [ -72.537287, 42.89187 ], [ -72.5329339570782, 42.895929622733703 ], [ -72.532777, 42.896076 ], [ -72.531469, 42.89795 ], [ -72.531588, 42.907164 ], [ -72.530218, 42.911576 ], [ -72.529191, 42.912719 ], [ -72.525271, 42.914363 ], [ -72.52443, 42.915575 ], [ -72.524242, 42.918501 ], [ -72.527097, 42.928584 ], [ -72.526498144831606, 42.934271927984298 ], [ -72.526346, 42.935717 ], [ -72.526624, 42.939901 ], [ -72.527431, 42.943148 ], [ -72.52855, 42.94532 ], [ -72.529763, 42.94612 ], [ -72.531693, 42.94651 ], [ -72.533901, 42.948591 ], [ -72.534554, 42.949894 ], [ -72.534117, 42.952133 ], [ -72.532186, 42.954945 ], [ -72.520476561691197, 42.961942248626102 ], [ -72.518422, 42.96317 ], [ -72.514840091482299, 42.963510793691299 ], [ -72.507901, 42.964171 ], [ -72.504226, 42.965815 ], [ -72.492597, 42.967648 ], [ -72.486872, 42.971789 ], [ -72.481706, 42.973985 ], [ -72.479245, 42.973597 ], [ -72.476722, 42.971746 ], [ -72.473827, 42.972045 ], [ -72.465985, 42.97847 ], [ -72.461627, 42.982906 ], [ -72.461597, 42.984049 ], [ -72.464026, 42.986107 ], [ -72.465335, 42.989558 ], [ -72.464714, 42.993582 ], [ -72.46294, 42.996943 ], [ -72.459951, 43.00008 ], [ -72.456936, 43.001306 ], [ -72.451797, 43.000577 ], [ -72.448714, 43.001169 ], [ -72.444977, 43.004416 ], [ -72.443762, 43.006245 ], [ -72.443825, 43.008965 ], [ -72.444635, 43.010566 ], [ -72.452984, 43.015731 ], [ -72.457035, 43.017285 ], [ -72.458998, 43.019388 ], [ -72.459572856879106, 43.020431841323301 ], [ -72.459628533285198, 43.020532940110698 ], [ -72.462397, 43.02556 ], [ -72.46299, 43.028531 ], [ -72.460905, 43.035961 ], [ -72.460252, 43.040671 ], [ -72.462248, 43.044214 ], [ -72.465896, 43.047505 ], [ -72.466832, 43.049197 ], [ -72.467363, 43.052648 ], [ -72.466491, 43.054729 ], [ -72.463812, 43.057404 ], [ -72.461465633714894, 43.058972110977003 ], [ -72.45471, 43.063487 ], [ -72.450703673736598, 43.066801025669101 ], [ -72.445202, 43.071352 ], [ -72.43987, 43.077043 ], [ -72.43619, 43.08173 ], [ -72.435316, 43.083536 ], [ -72.435276853503694, 43.084502448699901 ], [ -72.435191, 43.086622 ], [ -72.439214, 43.094852 ], [ -72.443051, 43.100841 ], [ -72.442427, 43.10363 ], [ -72.440587, 43.106145 ], [ -72.434845, 43.109917 ], [ -72.433129, 43.112637 ], [ -72.432661, 43.114077 ], [ -72.432972, 43.119655 ], [ -72.435936, 43.123381 ], [ -72.438274729863295, 43.125345979354499 ], [ -72.440967, 43.127608 ], [ -72.442933, 43.130192 ], [ -72.442746, 43.131152 ], [ -72.44078, 43.131472 ], [ -72.440624, 43.132203 ], [ -72.440872397652299, 43.135376478902401 ], [ -72.440905, 43.135793 ], [ -72.441904, 43.136615 ], [ -72.444214, 43.13737 ], [ -72.448303, 43.137187 ], [ -72.451986, 43.138924 ], [ -72.45689, 43.146558 ], [ -72.45714, 43.148493 ], [ -72.456537, 43.149528 ], [ -72.452801, 43.151977 ], [ -72.451802, 43.153486 ], [ -72.451553, 43.155155 ], [ -72.452093744289201, 43.161342419572598 ], [ -72.446254, 43.160903 ], [ -72.443886, 43.160723 ], [ -72.43209, 43.15982 ], [ -72.431632, 43.135635 ], [ -72.379052, 43.132512 ], [ -72.372045, 43.132118 ], [ -72.372151, 43.132682 ], [ -72.376439, 43.157684 ], [ -72.372594, 43.1576 ], [ -72.330326, 43.155166 ], [ -72.332139, 43.162842 ], [ -72.27039, 43.168918 ], [ -72.262483, 43.169952 ], [ -72.219716, 43.174797 ], [ -72.156661, 43.181968 ], [ -72.173202, 43.148956 ], [ -72.178497, 43.131866 ], [ -72.123152, 43.129715 ], [ -72.038149, 43.128807 ], [ -72.034083, 43.128746 ], [ -72.043499, 43.081993 ], [ -72.041972, 43.082238 ], [ -72.057949, 43.018922 ], [ -72.058801, 43.005106 ], [ -72.061246, 42.965806 ], [ -72.062222, 42.944796 ], [ -72.00619, 42.943789 ], [ -72.003473, 42.930224 ], [ -72.001215, 42.919443 ], [ -71.999872, 42.913653 ], [ -71.999412, 42.909648 ], [ -71.997075, 42.896416 ], [ -71.995024, 42.884548 ], [ -71.990686, 42.865115 ], [ -71.984216, 42.833805 ], [ -71.976595, 42.798213 ], [ -71.97471, 42.789402 ], [ -71.944283, 42.78841 ], [ -71.941094, 42.776173 ], [ -71.941048, 42.776066 ], [ -71.93481, 42.743094 ], [ -71.929019404364794, 42.712238200502497 ], [ -71.955866542370202, 42.712779319064303 ], [ -71.981402, 42.713294 ], [ -71.981429003221095, 42.713294819205601 ], [ -72.015729214808104, 42.714335396039097 ], [ -72.077672557328199, 42.7162145916542 ], [ -72.078626996368499, 42.716243546786203 ], [ -72.089326931404997, 42.716568154245003 ], [ -72.111058349948095, 42.7172274274578 ], [ -72.124526, 42.717636 ], [ -72.1453998112964, 42.718152582477202 ], [ -72.203569553658198, 42.719592160002399 ], [ -72.283032875650903, 42.721558708379099 ], [ -72.285954, 42.721631 ], [ -72.326282472605996, 42.722851382371601 ], [ -72.412033237422307, 42.725446291500703 ], [ -72.429220084710906, 42.725966383735802 ], [ -72.437871926157499, 42.726228197638001 ], [ -72.451195743325101, 42.726631390482702 ], [ -72.458519, 42.726853 ], [ -72.458488, 42.729094 ], [ -72.461001, 42.733209 ], [ -72.467827, 42.741209 ], [ -72.473071, 42.745916 ], [ -72.474723, 42.750729 ], [ -72.475938, 42.757702 ], [ -72.477615, 42.761245 ], [ -72.479354, 42.763119 ], [ -72.484878, 42.76554 ], [ -72.4864, 42.76698 ], [ -72.487767, 42.76938 ], [ -72.491122, 42.772465 ], [ -72.495343, 42.773286 ], [ -72.497949, 42.772918 ], [ -72.498786, 42.771981 ], [ -72.499249, 42.769054 ], [ -72.50069, 42.767657 ], [ -72.507985, 42.764414 ], [ -72.510871, 42.763752 ], [ -72.513105, 42.763822 ], [ -72.516082, 42.765949 ], [ -72.516731, 42.76867 ], [ -72.514836, 42.771436 ], [ -72.510154, 42.773221 ], [ -72.508372, 42.77461 ], [ -72.508048, 42.776885 ], [ -72.508858, 42.779919 ], [ -72.511746, 42.784114 ], [ -72.511753056352504, 42.7841216667994 ], [ -72.515838, 42.78856 ], [ -72.518354, 42.790651 ], [ -72.525930308158294, 42.795707934293198 ], [ -72.5396, 42.804832 ], [ -72.54146, 42.808948 ], [ -72.542616, 42.816702 ], [ -72.543815, 42.819001 ], [ -72.544773, 42.820468 ], [ -72.5454185789212, 42.824294640234697 ], [ -72.545669, 42.825779 ], [ -72.546050090642396, 42.827814628935997 ], [ -72.547244, 42.834192 ], [ -72.547402, 42.837587 ], [ -72.54855, 42.842021 ], [ -72.553426, 42.846709 ], [ -72.556282382898104, 42.851426031166497 ], [ -72.556576630203395, 42.851911951212699 ], [ -72.557247, 42.853019 ] ] ] ] } },
{ "type": "Feature", "properties": { "STATEFP": "33", "COUNTYFP": "013", "COUNTYNS": "00873180", "GEOIDFQ": "0500000US33013", "GEOID": "33013", "NAME": "Merrimack", "NAMELSAD": "Merrimack County", "STUSPS": "NH", "STATE_NAME": "New Hampshire", "LSAD": "06", "ALAND": 2416197730.0, "AWATER": 57178203.0 }, "geometry": { "type": "MultiPolygon", "coordinates": [ [ [ [ -72.078625, 43.33859 ], [ -72.051586, 43.376118 ], [ -72.051189, 43.376485 ], [ -72.04974, 43.380261 ], [ -72.048748, 43.385754 ], [ -72.048271, 43.391543 ], [ -72.04681, 43.410862 ], [ -72.047542, 43.412655 ], [ -72.057766, 43.422428 ], [ -72.05804, 43.423245 ], [ -72.056513, 43.429516 ], [ -72.054159, 43.439418 ], [ -72.053752, 43.441097 ], [ -72.011363, 43.436871 ], [ -72.008709, 43.440657 ], [ -71.999561, 43.453702 ], [ -71.990305, 43.464923 ], [ -71.93531, 43.52888 ], [ -71.930992, 43.533855 ], [ -71.928368, 43.536777 ], [ -71.905176, 43.559678 ], [ -71.892112, 43.574618 ], [ -71.864599, 43.598063 ], [ -71.849203, 43.6112 ], [ -71.817921, 43.544208 ], [ -71.816243, 43.546641 ], [ -71.818104, 43.548144 ], [ -71.815144, 43.550921 ], [ -71.813344, 43.551204 ], [ -71.810978, 43.550525 ], [ -71.8084, 43.552745 ], [ -71.80666, 43.553126 ], [ -71.80428, 43.552745 ], [ -71.802235, 43.55408 ], [ -71.801623, 43.556194 ], [ -71.799427, 43.558467 ], [ -71.797489, 43.559413 ], [ -71.793384, 43.55836 ], [ -71.789799, 43.559039 ], [ -71.786776, 43.561273 ], [ -71.785572, 43.561564 ], [ -71.78255, 43.56058 ], [ -71.780658, 43.559031 ], [ -71.7775, 43.552501 ], [ -71.76102, 43.567729 ], [ -71.758746, 43.567141 ], [ -71.755481, 43.565447 ], [ -71.749545, 43.567614 ], [ -71.746386, 43.566493 ], [ -71.744845, 43.565219 ], [ -71.743121, 43.566012 ], [ -71.74341, 43.567591 ], [ -71.741618, 43.568568 ], [ -71.735995, 43.569315 ], [ -71.733797, 43.567614 ], [ -71.730547, 43.567729 ], [ -71.728472, 43.565509 ], [ -71.730517, 43.564738 ], [ -71.727573, 43.563411 ], [ -71.728838, 43.56238 ], [ -71.729066, 43.560846 ], [ -71.728014, 43.558939 ], [ -71.726396, 43.55768 ], [ -71.725099, 43.555536 ], [ -71.7222, 43.552958 ], [ -71.719609, 43.552036 ], [ -71.715608, 43.551241 ], [ -71.713822, 43.549876 ], [ -71.710344, 43.544848 ], [ -71.710374, 43.542216 ], [ -71.708848, 43.539675 ], [ -71.706346, 43.537623 ], [ -71.702195, 43.536303 ], [ -71.696839, 43.533671 ], [ -71.68866, 43.529269 ], [ -71.687623, 43.52814 ], [ -71.687492, 43.52483 ], [ -71.689255, 43.522144 ], [ -71.691026, 43.517932 ], [ -71.691453, 43.516139 ], [ -71.688599, 43.51292 ], [ -71.6848, 43.510753 ], [ -71.683198, 43.508075 ], [ -71.680314, 43.505893 ], [ -71.67923, 43.503345 ], [ -71.677293, 43.500491 ], [ -71.673462, 43.499385 ], [ -71.670166, 43.497089 ], [ -71.664215, 43.496166 ], [ -71.659897, 43.494678 ], [ -71.654861, 43.492 ], [ -71.653595, 43.490596 ], [ -71.653473, 43.487621 ], [ -71.638046, 43.491756 ], [ -71.630019, 43.477359 ], [ -71.627608, 43.478069 ], [ -71.624114, 43.469852 ], [ -71.628413, 43.46864 ], [ -71.62503, 43.459504 ], [ -71.628148, 43.458556 ], [ -71.622012, 43.44686 ], [ -71.621393, 43.446998 ], [ -71.619979, 43.443867 ], [ -71.617568, 43.443935 ], [ -71.615004, 43.442707 ], [ -71.613936, 43.439587 ], [ -71.611891, 43.437824 ], [ -71.610274, 43.439617 ], [ -71.607726, 43.44064 ], [ -71.60446, 43.44064 ], [ -71.603087, 43.439961 ], [ -71.601485, 43.436932 ], [ -71.601077, 43.435009 ], [ -71.598982, 43.435703 ], [ -71.598036, 43.437382 ], [ -71.595045, 43.438068 ], [ -71.595594, 43.440556 ], [ -71.59312, 43.443113 ], [ -71.591903, 43.443037 ], [ -71.591276, 43.442486 ], [ -71.58855, 43.441652 ], [ -71.585875, 43.443943 ], [ -71.584669, 43.444576 ], [ -71.579984, 43.444332 ], [ -71.5753, 43.446545 ], [ -71.572508, 43.449062 ], [ -71.570435, 43.451771 ], [ -71.570013, 43.452035 ], [ -71.567806, 43.452572 ], [ -71.561918, 43.450527 ], [ -71.560824, 43.451099 ], [ -71.561978, 43.453052 ], [ -71.561154, 43.4548 ], [ -71.559384, 43.45554 ], [ -71.555435, 43.454967 ], [ -71.549423, 43.452389 ], [ -71.536655, 43.445796 ], [ -71.488922, 43.420948 ], [ -71.471454, 43.411298 ], [ -71.454982, 43.40265 ], [ -71.349051, 43.346578 ], [ -71.305137, 43.322745 ], [ -71.236011, 43.284994 ], [ -71.246967, 43.276189 ], [ -71.247336, 43.275232 ], [ -71.250279, 43.267439 ], [ -71.252079, 43.263975 ], [ -71.257024, 43.256721 ], [ -71.262068, 43.250937 ], [ -71.262801, 43.250065 ], [ -71.276153, 43.226114 ], [ -71.278711, 43.221936 ], [ -71.280796, 43.218603 ], [ -71.315512, 43.162055 ], [ -71.317505, 43.162367 ], [ -71.317709, 43.162399 ], [ -71.329268, 43.140954 ], [ -71.356117, 43.102043 ], [ -71.373788, 43.070987 ], [ -71.391228, 43.040963 ], [ -71.392235, 43.039285 ], [ -71.4021, 43.040916 ], [ -71.402962, 43.041054 ], [ -71.400032, 43.03309 ], [ -71.397591, 43.025285 ], [ -71.396309, 43.016892 ], [ -71.392388, 43.009309 ], [ -71.396924, 43.010167 ], [ -71.435975, 43.017515 ], [ -71.439841, 43.018236 ], [ -71.440622, 43.018387 ], [ -71.447499, 43.01965 ], [ -71.449962, 43.020069 ], [ -71.450683, 43.024538 ], [ -71.453562, 43.038249 ], [ -71.454597, 43.04311 ], [ -71.454783, 43.044 ], [ -71.457178, 43.04239 ], [ -71.473981, 43.035274 ], [ -71.475791, 43.037603 ], [ -71.476406, 43.037876 ], [ -71.479548, 43.038819 ], [ -71.480025, 43.039405 ], [ -71.483576, 43.04171 ], [ -71.484415, 43.044136 ], [ -71.489109, 43.051779 ], [ -71.512767, 43.049615 ], [ -71.517467, 43.068909 ], [ -71.54505, 43.065456 ], [ -71.60122, 43.058771 ], [ -71.641291, 43.054168 ], [ -71.652565, 43.09732 ], [ -71.667771, 43.152534 ], [ -71.73256, 43.139786 ], [ -71.761854, 43.134115 ], [ -71.796176, 43.127582 ], [ -71.810277, 43.124271 ], [ -71.8561, 43.115135 ], [ -71.87493, 43.145752 ], [ -71.882195, 43.157375 ], [ -71.913215, 43.207099 ], [ -71.961772, 43.197534 ], [ -71.999527, 43.190091 ], [ -72.009074, 43.187882 ], [ -72.041545, 43.222724 ], [ -72.045284, 43.254767 ], [ -72.065442, 43.25508 ], [ -72.090146, 43.322553 ], [ -72.078625, 43.33859 ] ] ] ] } }
]
}
