{
"type": "FeatureCollection",
"name": "VT_counties_2023",
"crs": { "type": "name", "properties": { "name": "urn:ogc:def:crs:EPSG::4269" } },
"features": [
{ "type": "Feature", "properties": { "STATEFP": "50", "COUNTYFP": "009", "COUNTYNS": "01461761", "GEOIDFQ": "0500000US50009", "GEOID": "50009", "NAME": "Essex", "NAMELSAD": "Essex County", "STUSPS": "VT", "STATE_NAME": "Vermont", "LSAD": "06", "ALAND": 1715530571.0, "AWATER": 28688490.0 }, "geometry": { "type": "MultiPolygon", "coordinates": [ [ [ [ -71.974825, 44.787232 ], [ -71.929316, 44.829639 ], [ -71.91995, 44.836895 ], [ -71.877857, 44.878762 ], [ -71.902822, 44.892235 ], [ -71.920145, 44.901525 ], [ -71.914156, 44.93301 ], [ -71.911939, 44.944603 ], [ -71.899319218792598, 45.008178680301697 ], [ -71.767452, 45.011437 ], [ -71.697765972269295, 45.011420397986903 ], [ -71.691898, 45.011419 ], [ -71.60984, 45.012709 ], [ -71.560562, 45.012555 ], [ -71.556667458020897, 45.012606993582601 ], [ -71.518801530757301, 45.013112517782197 ], [ -71.501088, 45.013349 ], [ -71.465049961356797, 45.013633098079197 ], [ -71.464555, 45.013637 ], [ -71.465964, 45.011919 ], [ -71.473269, 45.010586 ], [ -71.476676, 45.009179 ], [ -71.478458, 45.007486 ], [ -71.480552, 45.002334 ], [ -71.488547836346001, 45.001287520925402 ], [ -71.489675, 45.00114 ], [ -71.494648, 45.003998 ], [ -71.496864, 45.003947 ], [ -71.501055, 45.006742 ], [ -71.504251, 45.008223 ], [ -71.508129, 45.007937 ], [ -71.513859390190504, 45.004603712775499 ], [ -71.514452, 45.004259 ], [ -71.519996, 45.002417 ], [ -71.524794, 45.001921 ], [ -71.525381697089998, 45.0016448045155 ], [ -71.529305, 44.999801 ], [ -71.529667039440895, 44.999527011412503 ], [ -71.536188, 44.994592 ], [ -71.537091, 44.992611 ], [ -71.533713, 44.991963 ], [ -71.532749, 44.991066 ], [ -71.534008, 44.990414 ], [ -71.538143, 44.98985 ], [ -71.538647, 44.987256 ], [ -71.539989683037703, 44.986160085753703 ], [ -71.541324, 44.985071 ], [ -71.54086, 44.983788 ], [ -71.536602, 44.983372 ], [ -71.532818283385794, 44.978153349610302 ], [ -71.532238, 44.977353 ], [ -71.526607, 44.971265 ], [ -71.522035, 44.968545 ], [ -71.523117, 44.966852 ], [ -71.518947, 44.967869 ], [ -71.51886, 44.966622 ], [ -71.523563, 44.964607 ], [ -71.523376, 44.96396 ], [ -71.520216, 44.963487 ], [ -71.518864, 44.963626 ], [ -71.517674, 44.964383 ], [ -71.516246, 44.964089 ], [ -71.514843, 44.958741 ], [ -71.515857, 44.952758 ], [ -71.518987, 44.950115 ], [ -71.517508, 44.948812 ], [ -71.517288, 44.944692 ], [ -71.514933, 44.944159 ], [ -71.515351695665402, 44.942719691780702 ], [ -71.516183, 44.939862 ], [ -71.517983, 44.938745 ], [ -71.520107, 44.939009 ], [ -71.521127, 44.940357 ], [ -71.522441, 44.940289 ], [ -71.523048, 44.939258 ], [ -71.520128, 44.93664 ], [ -71.517077, 44.935876 ], [ -71.51345, 44.928808 ], [ -71.515605, 44.927992 ], [ -71.515437, 44.926923 ], [ -71.509207, 44.923429 ], [ -71.504483, 44.919062 ], [ -71.500788, 44.914535 ], [ -71.500552, 44.913089 ], [ -71.500548, 44.911956 ], [ -71.499945, 44.911174 ], [ -71.498926, 44.910917 ], [ -71.495326, 44.911794 ], [ -71.494403, 44.911837 ], [ -71.493363, 44.911612 ], [ -71.493268947812595, 44.911204328952898 ], [ -71.493082, 44.910394 ], [ -71.494716, 44.910102 ], [ -71.496017, 44.908898 ], [ -71.495951, 44.90736 ], [ -71.494835, 44.905919 ], [ -71.49491, 44.904299 ], [ -71.495378, 44.903621 ], [ -71.495793, 44.903728 ], [ -71.496609, 44.903603 ], [ -71.497841, 44.904342 ], [ -71.499528, 44.904774 ], [ -71.501088, 44.904433 ], [ -71.502473, 44.90272 ], [ -71.504963272717504, 44.9006947611892 ], [ -71.508642, 44.897703 ], [ -71.5132, 44.894785 ], [ -71.51409, 44.893149 ], [ -71.510669, 44.89043 ], [ -71.515641, 44.885371 ], [ -71.518745, 44.884806 ], [ -71.521915, 44.880405 ], [ -71.521979803135693, 44.880350093577498 ], [ -71.523349, 44.87919 ], [ -71.527343, 44.878277 ], [ -71.528889, 44.876928 ], [ -71.528751, 44.873494 ], [ -71.53433, 44.869465 ], [ -71.539286, 44.86863 ], [ -71.545525, 44.866127 ], [ -71.549741, 44.861458 ], [ -71.549747, 44.859696 ], [ -71.547516, 44.856747 ], [ -71.548358, 44.854686 ], [ -71.553217, 44.851858 ], [ -71.555656, 44.849118 ], [ -71.555482, 44.847006 ], [ -71.551424, 44.84216 ], [ -71.550647, 44.838499 ], [ -71.551114, 44.836965 ], [ -71.553328, 44.835164 ], [ -71.556923, 44.834201 ], [ -71.560811, 44.825221 ], [ -71.561496503264607, 44.824359008540803 ], [ -71.562353, 44.823282 ], [ -71.564533, 44.823548 ], [ -71.568404, 44.822703 ], [ -71.573456, 44.820644 ], [ -71.57489, 44.818109 ], [ -71.576865, 44.815197 ], [ -71.57605, 44.812429 ], [ -71.574135, 44.81162 ], [ -71.568672, 44.807457 ], [ -71.56877, 44.805722 ], [ -71.571888, 44.801415 ], [ -71.573129, 44.797947 ], [ -71.571315, 44.793339 ], [ -71.57972, 44.784725 ], [ -71.584177, 44.784794 ], [ -71.592486, 44.782669 ], [ -71.595164, 44.780152 ], [ -71.595099, 44.775405 ], [ -71.601471, 44.772067 ], [ -71.602229414466905, 44.771022732752101 ], [ -71.604615, 44.767738 ], [ -71.610179, 44.765584 ], [ -71.611767, 44.764345 ], [ -71.612856, 44.758998 ], [ -71.616669, 44.756299 ], [ -71.621157, 44.755772 ], [ -71.625482, 44.753788 ], [ -71.630257, 44.753475 ], [ -71.631883, 44.752463 ], [ -71.632043, 44.750269 ], [ -71.63106, 44.748509 ], [ -71.626986, 44.747014 ], [ -71.625148, 44.74275 ], [ -71.626166, 44.739864 ], [ -71.625013, 44.736299 ], [ -71.626248, 44.72904 ], [ -71.625038, 44.727708 ], [ -71.622234, 44.727538 ], [ -71.619079, 44.729035 ], [ -71.617038, 44.72825 ], [ -71.618732, 44.722471 ], [ -71.612548, 44.719186 ], [ -71.612512, 44.716673 ], [ -71.607551, 44.712317 ], [ -71.603948, 44.707583 ], [ -71.6001, 44.705999 ], [ -71.598792, 44.703274 ], [ -71.600975, 44.699934 ], [ -71.600496, 44.698737 ], [ -71.598656, 44.698005 ], [ -71.594136, 44.696932 ], [ -71.593802, 44.695632 ], [ -71.596497, 44.694609 ], [ -71.597955, 44.691767 ], [ -71.596437, 44.687059 ], [ -71.594224, 44.683815 ], [ -71.594208, 44.68144 ], [ -71.596623, 44.679056 ], [ -71.596089, 44.677637 ], [ -71.586162, 44.67435 ], [ -71.582502, 44.674246 ], [ -71.581463, 44.673204 ], [ -71.582027, 44.672018 ], [ -71.586965, 44.67047 ], [ -71.587339, 44.66877 ], [ -71.585157, 44.666057 ], [ -71.58511, 44.663112 ], [ -71.587198, 44.661475 ], [ -71.587237552770802, 44.6610581564277 ], [ -71.587365, 44.659715 ], [ -71.585748, 44.6579 ], [ -71.581315, 44.65545 ], [ -71.5766, 44.656189 ], [ -71.57449, 44.654832 ], [ -71.576098, 44.652762 ], [ -71.579419, 44.652309 ], [ -71.57881, 44.650982 ], [ -71.571626, 44.649897 ], [ -71.569025, 44.65029 ], [ -71.567708, 44.651536 ], [ -71.567053, 44.653349 ], [ -71.565076, 44.653796 ], [ -71.562806, 44.652356 ], [ -71.561667, 44.646822 ], [ -71.55879, 44.644219 ], [ -71.558068096115505, 44.641874374938098 ], [ -71.557866, 44.641218 ], [ -71.559704, 44.639298 ], [ -71.563599, 44.639049 ], [ -71.563279, 44.636648 ], [ -71.559554, 44.634964 ], [ -71.555791, 44.632047 ], [ -71.55214, 44.630082 ], [ -71.54951, 44.630903 ], [ -71.547226, 44.630355 ], [ -71.546931, 44.62855 ], [ -71.551128, 44.627755 ], [ -71.554837, 44.629631 ], [ -71.55735, 44.628448 ], [ -71.556467, 44.627221 ], [ -71.552945, 44.626747 ], [ -71.54971, 44.625129 ], [ -71.547756, 44.625007 ], [ -71.545978, 44.623118 ], [ -71.546948, 44.622123 ], [ -71.550442, 44.62313 ], [ -71.55415, 44.625419 ], [ -71.555062, 44.624185 ], [ -71.555801, 44.622699 ], [ -71.556531, 44.619575 ], [ -71.5556, 44.614326 ], [ -71.553616, 44.608299 ], [ -71.55386, 44.605598 ], [ -71.555233, 44.604034 ], [ -71.558563, 44.603276 ], [ -71.561903, 44.603128 ], [ -71.5622, 44.601592 ], [ -71.560421, 44.599769 ], [ -71.557279, 44.599381 ], [ -71.551562, 44.601227 ], [ -71.550331, 44.600896 ], [ -71.550634, 44.599591 ], [ -71.554151, 44.597961 ], [ -71.554211, 44.595352 ], [ -71.555402, 44.593842 ], [ -71.553372, 44.593171 ], [ -71.549146, 44.594994 ], [ -71.547253, 44.59684 ], [ -71.546087, 44.597377 ], [ -71.545055, 44.596773 ], [ -71.545463, 44.594624 ], [ -71.547424, 44.591831 ], [ -71.545939, 44.590604 ], [ -71.543918, 44.590985 ], [ -71.540175, 44.59327 ], [ -71.538274, 44.593524 ], [ -71.537976, 44.592018 ], [ -71.539878, 44.589969 ], [ -71.540051, 44.588524 ], [ -71.538449, 44.587479 ], [ -71.535946, 44.587776 ], [ -71.535584114332593, 44.5873389686748 ], [ -71.535397, 44.587113 ], [ -71.537182, 44.585259 ], [ -71.537381, 44.583359 ], [ -71.540463, 44.580841 ], [ -71.544491, 44.578476 ], [ -71.546533, 44.577819 ], [ -71.549405, 44.578171 ], [ -71.550594, 44.580389 ], [ -71.55194, 44.581378 ], [ -71.554444, 44.581336 ], [ -71.554883, 44.579628 ], [ -71.553891, 44.577629 ], [ -71.552243, 44.575447 ], [ -71.548168, 44.572676 ], [ -71.547726, 44.571381 ], [ -71.549374, 44.569641 ], [ -71.552826, 44.569209 ], [ -71.556103, 44.570282 ], [ -71.556802146984694, 44.570276358468099 ], [ -71.557838, 44.570268 ], [ -71.558985, 44.568779 ], [ -71.558469, 44.566116 ], [ -71.559049, 44.564446 ], [ -71.56207, 44.563172 ], [ -71.569599, 44.562777 ], [ -71.574125, 44.564507 ], [ -71.587664, 44.565798 ], [ -71.591521, 44.565155 ], [ -71.593625, 44.563702 ], [ -71.596137, 44.560898 ], [ -71.597797, 44.557172 ], [ -71.598116, 44.555412 ], [ -71.597135, 44.553849 ], [ -71.587324, 44.547425 ], [ -71.580519, 44.54451 ], [ -71.574445, 44.540635 ], [ -71.5722259660226, 44.5384432380501 ], [ -71.572004, 44.538224 ], [ -71.571943, 44.536973 ], [ -71.574531, 44.531745 ], [ -71.578642, 44.526772 ], [ -71.582948, 44.523352 ], [ -71.587085, 44.522362 ], [ -71.592375, 44.523278 ], [ -71.594259, 44.52168 ], [ -71.593458, 44.519639 ], [ -71.591932, 44.517907 ], [ -71.58708, 44.515275 ], [ -71.585798, 44.51378 ], [ -71.584715, 44.510865 ], [ -71.582853, 44.50818 ], [ -71.57829, 44.505418 ], [ -71.576812, 44.504081 ], [ -71.576765, 44.502618 ], [ -71.578138, 44.501641 ], [ -71.581251, 44.501679 ], [ -71.583987, 44.502881 ], [ -71.584801, 44.504398 ], [ -71.586302, 44.506554 ], [ -71.587782, 44.506745 ], [ -71.588438, 44.505799 ], [ -71.587203, 44.504133 ], [ -71.585881, 44.500057 ], [ -71.586972, 44.498526 ], [ -71.589048, 44.4982 ], [ -71.589623, 44.499371 ], [ -71.591429, 44.501336 ], [ -71.593885, 44.501031 ], [ -71.594517, 44.499331 ], [ -71.595213, 44.493409 ], [ -71.59702, 44.490741 ], [ -71.599333, 44.486283 ], [ -71.606184295147202, 44.484882897204798 ], [ -71.609526, 44.4842 ], [ -71.615923, 44.485944 ], [ -71.617843, 44.485841 ], [ -71.620391, 44.482888 ], [ -71.624557, 44.475183 ], [ -71.626952, 44.474267 ], [ -71.631789, 44.474023 ], [ -71.634505, 44.475625 ], [ -71.634871, 44.477441 ], [ -71.633437, 44.478211 ], [ -71.626341, 44.480225 ], [ -71.624663, 44.481744 ], [ -71.625548, 44.48346 ], [ -71.627655, 44.484207 ], [ -71.631007, 44.484323 ], [ -71.632795, 44.48389 ], [ -71.638321, 44.477893 ], [ -71.642308, 44.476501 ], [ -71.644899, 44.475198 ], [ -71.646702, 44.473182 ], [ -71.647373, 44.472127 ], [ -71.647353411554604, 44.471639593389099 ], [ -71.647305, 44.470435 ], [ -71.64556, 44.468926 ], [ -71.639627, 44.466351 ], [ -71.638986, 44.464411 ], [ -71.643522, 44.460591 ], [ -71.646094, 44.459999 ], [ -71.651012, 44.460854 ], [ -71.652553, 44.460518 ], [ -71.656371, 44.455159 ], [ -71.65695, 44.448606 ], [ -71.659707, 44.441465 ], [ -71.660240283739199, 44.440941678860703 ], [ -71.663454, 44.437788 ], [ -71.669186, 44.435897 ], [ -71.677382, 44.435499 ], [ -71.679282, 44.434337 ], [ -71.677427, 44.431484 ], [ -71.675993, 44.428712 ], [ -71.676967, 44.426848 ], [ -71.67806, 44.426552 ], [ -71.680331, 44.427714 ], [ -71.682701, 44.42734 ], [ -71.683943, 44.423978 ], [ -71.688813, 44.421741 ], [ -71.695331, 44.418277 ], [ -71.701056586723496, 44.414561006516003 ], [ -71.702186, 44.413828 ], [ -71.714615, 44.40956 ], [ -71.722616, 44.410872 ], [ -71.731072, 44.410665 ], [ -71.736624, 44.409445 ], [ -71.738643, 44.407597 ], [ -71.738719323144693, 44.407468472156701 ], [ -71.742317, 44.40141 ], [ -71.745959, 44.400942 ], [ -71.749533, 44.401955 ], [ -71.75434, 44.405577 ], [ -71.756091, 44.406401 ], [ -71.761966, 44.407027 ], [ -71.764977, 44.406587 ], [ -71.765688977432305, 44.406307687658 ], [ -71.767888, 44.405445 ], [ -71.772801, 44.403097 ], [ -71.775399, 44.401126 ], [ -71.778613, 44.399799 ], [ -71.790688, 44.40026 ], [ -71.793924, 44.399271 ], [ -71.802353, 44.39338 ], [ -71.803488, 44.39189 ], [ -71.803489, 44.390384 ], [ -71.799899, 44.385951 ], [ -71.800316, 44.384276 ], [ -71.803461, 44.383335 ], [ -71.808828, 44.383862 ], [ -71.81313, 44.382801 ], [ -71.814388, 44.381932 ], [ -71.815773, 44.375464 ], [ -71.815251, 44.374594 ], [ -71.812424, 44.372532 ], [ -71.812235, 44.371492 ], [ -71.812832, 44.370448 ], [ -71.81549, 44.368836 ], [ -71.816289, 44.367403 ], [ -71.814991, 44.363686 ], [ -71.813023, 44.359301 ], [ -71.812413, 44.357325 ], [ -71.812902, 44.355547 ], [ -71.814351, 44.354541 ], [ -71.818838, 44.352939 ], [ -71.826246, 44.352006 ], [ -71.833261, 44.350136 ], [ -71.837764853491294, 44.347719933902098 ], [ -71.933222, 44.441138 ], [ -71.903264, 44.454742 ], [ -71.856691, 44.496275 ], [ -71.908938, 44.547917 ], [ -71.900639, 44.555503 ], [ -71.898277, 44.557881 ], [ -71.842372, 44.610867 ], [ -71.910198, 44.646831 ], [ -71.837067, 44.716376 ], [ -71.857465, 44.726896 ], [ -71.939292, 44.769441 ], [ -71.974825, 44.787232 ] ] ] ] } },
{ "type": "Feature", "properties": { "STATEFP": "50", "COUNTYFP": "027", "COUNTYNS": "01461770", "GEOIDFQ": "0500000US50027", "GEOID": "50027", "NAME": "Windsor", "NAMELSAD": "Windsor County", "STUSPS": "VT", "STATE_NAME": "Vermont", "LSAD": "06", "ALAND": 2510071972.0, "AWATER": 19366112.0 }, "geometry": { "type": "MultiPolygon", "coordinates": [ [ [ [ -72.98015, 43.882924 ], [ -72.974042, 43.881438 ], [ -72.969676, 43.879638 ], [ -72.953189, 43.874858 ], [ -72.902793, 43.892824 ], [ -72.876556, 43.902765 ], [ -72.875084, 43.88358 ], [ -72.874482, 43.87237 ], [ -72.875344, 43.867696 ], [ -72.874176, 43.86406 ], [ -72.865283, 43.861656 ], [ -72.81633, 43.937805 ], [ -72.809996, 43.936089 ], [ -72.803505, 43.945662 ], [ -72.791043, 43.962244 ], [ -72.787016, 43.960847 ], [ -72.791775, 43.953967 ], [ -72.78522, 43.952191 ], [ -72.789959, 43.945315 ], [ -72.771078, 43.939064 ], [ -72.775144, 43.933657 ], [ -72.768901, 43.931613 ], [ -72.773501, 43.924538 ], [ -72.712284, 43.907963 ], [ -72.709306, 43.911243 ], [ -72.702838, 43.909402 ], [ -72.701978, 43.909169 ], [ -72.632918, 43.889965 ], [ -72.604155, 43.882229 ], [ -72.590157, 43.878035 ], [ -72.574443, 43.873348 ], [ -72.573596, 43.873082 ], [ -72.573499, 43.873087 ], [ -72.569811, 43.871947 ], [ -72.506443, 43.852503 ], [ -72.459519, 43.838088 ], [ -72.461565, 43.836851 ], [ -72.460695, 43.836713 ], [ -72.346103, 43.811597 ], [ -72.339343, 43.810447 ], [ -72.339337, 43.810456 ], [ -72.255459, 43.785903 ], [ -72.254722, 43.785687 ], [ -72.221699, 43.77604 ], [ -72.205138520061197, 43.771259813024102 ], [ -72.205143, 43.771141 ], [ -72.2051729288236, 43.771122822144399 ], [ -72.210815, 43.767696 ], [ -72.216491, 43.766507 ], [ -72.218099, 43.765729 ], [ -72.220116, 43.763626 ], [ -72.225373, 43.756363 ], [ -72.230439, 43.749352 ], [ -72.234178, 43.745965 ], [ -72.245068, 43.743093 ], [ -72.261935780498206, 43.735095173048997 ], [ -72.264467, 43.733895 ], [ -72.268389, 43.734292 ], [ -72.271776, 43.733407 ], [ -72.275271, 43.727532 ], [ -72.279855, 43.724633 ], [ -72.282522681978506, 43.722330170687997 ], [ -72.284805, 43.72036 ], [ -72.28695, 43.717252 ], [ -72.292215, 43.711333 ], [ -72.294894, 43.709003 ], [ -72.299564, 43.706277 ], [ -72.300307688654499, 43.703811753387598 ], [ -72.301028, 43.701424 ], [ -72.305133, 43.695321 ], [ -72.305337119990497, 43.692499679725202 ], [ -72.305344179348097, 43.692402106191601 ], [ -72.305988371958705, 43.683498158721598 ], [ -72.30602, 43.683061 ], [ -72.304351, 43.681141 ], [ -72.303092, 43.678078 ], [ -72.303408, 43.674055 ], [ -72.304322, 43.669507 ], [ -72.305771, 43.666535 ], [ -72.309120825673801, 43.662034869297003 ], [ -72.310841, 43.659724 ], [ -72.312887, 43.658444 ], [ -72.31402, 43.656158 ], [ -72.315059, 43.649415 ], [ -72.314747639278906, 43.648671222758999 ], [ -72.313863, 43.646558 ], [ -72.314083, 43.64281 ], [ -72.315247, 43.641164 ], [ -72.319317173603906, 43.6398970394958 ], [ -72.322517, 43.638901 ], [ -72.327395, 43.636774 ], [ -72.329126, 43.635563 ], [ -72.329498211532396, 43.634925221812402 ], [ -72.329614976524596, 43.634725146966296 ], [ -72.32966, 43.634648 ], [ -72.329471, 43.632843 ], [ -72.327362, 43.631174 ], [ -72.327236, 43.630534 ], [ -72.328966, 43.626991 ], [ -72.33236, 43.62507 ], [ -72.334401, 43.61925 ], [ -72.334745, 43.614519 ], [ -72.3327, 43.610313 ], [ -72.329522, 43.608393 ], [ -72.328232, 43.606839 ], [ -72.328087961400797, 43.605782208866799 ], [ -72.327665, 43.602679 ], [ -72.328514, 43.600805 ], [ -72.32962, 43.600201 ], [ -72.329677284081598, 43.600183640558903 ], [ -72.332382, 43.599364 ], [ -72.346179186923607, 43.590211488519301 ], [ -72.349926, 43.587726 ], [ -72.363916, 43.583652 ], [ -72.364094544781807, 43.5835767566671 ], [ -72.373372, 43.579667 ], [ -72.380146, 43.573624 ], [ -72.379861, 43.566598 ], [ -72.382625, 43.564127 ], [ -72.382784, 43.561689 ], [ -72.381187, 43.554915 ], [ -72.380383, 43.54088 ], [ -72.38331, 43.53519 ], [ -72.389097, 43.528266 ], [ -72.3907, 43.527261 ], [ -72.394218, 43.5274 ], [ -72.395949, 43.52388 ], [ -72.395825, 43.52056 ], [ -72.396211742053694, 43.519553594911301 ], [ -72.396396011821395, 43.5190740762499 ], [ -72.398563, 43.513435 ], [ -72.398376, 43.510829 ], [ -72.396305, 43.508062 ], [ -72.389556, 43.503899 ], [ -72.384773, 43.500259 ], [ -72.380894, 43.493394 ], [ -72.380362, 43.491634 ], [ -72.380428, 43.488525 ], [ -72.380462839060897, 43.488298102209001 ], [ -72.381723, 43.480091 ], [ -72.382170999983799, 43.478598517969203 ], [ -72.382951, 43.476 ], [ -72.384491, 43.474195 ], [ -72.384719535530095, 43.474019090988499 ], [ -72.390466449594697, 43.469595560120098 ], [ -72.391526, 43.46878 ], [ -72.3925, 43.467364 ], [ -72.392628, 43.465078 ], [ -72.390567, 43.451225 ], [ -72.391196, 43.449305 ], [ -72.393992, 43.444666 ], [ -72.395659, 43.438541 ], [ -72.395916, 43.430974 ], [ -72.396439728308394, 43.428943519810403 ], [ -72.396503984753394, 43.428694399347499 ], [ -72.399972, 43.415249 ], [ -72.400131, 43.410997 ], [ -72.401542269708202, 43.4036867763106 ], [ -72.401624713554, 43.403259726150402 ], [ -72.403811, 43.391935 ], [ -72.405253, 43.389992 ], [ -72.411109704396196, 43.385774224020501 ], [ -72.413154, 43.384302 ], [ -72.415381, 43.380211 ], [ -72.415978, 43.376531 ], [ -72.415099, 43.365896 ], [ -72.414692, 43.364273 ], [ -72.413377, 43.362741 ], [ -72.403949, 43.358098 ], [ -72.400441, 43.357685 ], [ -72.39217, 43.357865 ], [ -72.390103, 43.356926 ], [ -72.390286366897001, 43.356490138905698 ], [ -72.39092, 43.354984 ], [ -72.395403, 43.350414 ], [ -72.399289, 43.347581 ], [ -72.400981, 43.345775 ], [ -72.406326271158306, 43.338224207326199 ], [ -72.406699128666503, 43.337697504440897 ], [ -72.409037, 43.334395 ], [ -72.410353, 43.331675 ], [ -72.410197, 43.330395 ], [ -72.408696, 43.327674 ], [ -72.402532, 43.32038 ], [ -72.397619, 43.317064 ], [ -72.395805, 43.314617 ], [ -72.395462, 43.312994 ], [ -72.401666, 43.303395 ], [ -72.407842, 43.282892 ], [ -72.41545, 43.271374 ], [ -72.421583, 43.263442 ], [ -72.4276791218808, 43.261225350314803 ], [ -72.427711061083698, 43.261213736697897 ], [ -72.435221, 43.258483 ], [ -72.436378, 43.257454 ], [ -72.438693, 43.252905 ], [ -72.438937, 43.24424 ], [ -72.436654, 43.238319 ], [ -72.434216, 43.234958 ], [ -72.433688684947995, 43.233440482434801 ], [ -72.433684, 43.233427 ], [ -72.433785292783, 43.2330390564128 ], [ -72.43462, 43.233257 ], [ -72.498604, 43.234867 ], [ -72.549143, 43.235897 ], [ -72.549911, 43.235825 ], [ -72.552966, 43.235535 ], [ -72.555483, 43.235296 ], [ -72.676243, 43.224083 ], [ -72.676316, 43.222665 ], [ -72.68544, 43.22258 ], [ -72.730242, 43.233299 ], [ -72.756829, 43.239688 ], [ -72.819619, 43.256006 ], [ -72.819895, 43.299372 ], [ -72.859912, 43.300367 ], [ -72.868647, 43.300529 ], [ -72.864972, 43.348699 ], [ -72.8547, 43.349277 ], [ -72.852384, 43.376279 ], [ -72.821982, 43.37571 ], [ -72.821933, 43.380611 ], [ -72.759627, 43.353767 ], [ -72.75849, 43.353307 ], [ -72.762356, 43.371414 ], [ -72.738403, 43.417036 ], [ -72.731932, 43.434675 ], [ -72.722563, 43.460076 ], [ -72.727367, 43.461062 ], [ -72.724223, 43.468174 ], [ -72.771371, 43.4788 ], [ -72.76914, 43.491511 ], [ -72.78993, 43.494546 ], [ -72.773489, 43.579817 ], [ -72.7715, 43.59109 ], [ -72.757948, 43.587424 ], [ -72.73044, 43.630849 ], [ -72.699795, 43.684577 ], [ -72.819985, 43.716697 ], [ -72.803928, 43.740973 ], [ -72.819262, 43.746313 ], [ -72.782972, 43.804071 ], [ -72.78751, 43.805706 ], [ -72.788697, 43.807299 ], [ -72.787847, 43.808959 ], [ -72.785494, 43.809559 ], [ -72.78435, 43.811084 ], [ -72.784402, 43.813832 ], [ -72.786215, 43.815227 ], [ -72.788532, 43.816053 ], [ -72.792117, 43.816501 ], [ -72.794238, 43.820313 ], [ -72.793725, 43.822053 ], [ -72.791291, 43.822594 ], [ -72.791065, 43.824097 ], [ -72.793561, 43.824395 ], [ -72.79541, 43.825626 ], [ -72.796924, 43.829158 ], [ -72.822387, 43.836451 ], [ -72.830665, 43.83912 ], [ -72.838341, 43.829254 ], [ -72.861361, 43.836222 ], [ -72.873871, 43.839628 ], [ -72.874498, 43.85806 ], [ -72.910378, 43.844554 ], [ -72.927232, 43.838724 ], [ -72.928471, 43.837951 ], [ -72.959744, 43.826077 ], [ -72.972894, 43.866768 ], [ -72.98023, 43.863966 ], [ -72.98015, 43.882924 ] ] ] ] } },
{ "type": "Feature", "properties": { "STATEFP": "50", "COUNTYFP": "015", "COUNTYNS": "01461764", "GEOIDFQ": "0500000US50015", "GEOID": "50015", "NAME": "Lamoille", "NAMELSAD": "Lamoille County", "STUSPS": "VT", "STATE_NAME": "Vermont", "LSAD": "06", "ALAND": 1194643959.0, "AWATER": 12744800.0 }, "geometry": { "type": "MultiPolygon", "coordinates": [ [ [ [ -72.926669, 44.647538 ], [ -72.922639, 44.650115 ], [ -72.920972, 44.649304 ], [ -72.917843, 44.646203 ], [ -72.913515, 44.645849 ], [ -72.909897, 44.646672 ], [ -72.905602, 44.645907 ], [ -72.902971, 44.646355 ], [ -72.902011, 44.647222 ], [ -72.900076, 44.650565 ], [ -72.895725, 44.653863 ], [ -72.893225, 44.655408 ], [ -72.891862, 44.65566 ], [ -72.850793, 44.711124 ], [ -72.79322, 44.690669 ], [ -72.792327, 44.694294 ], [ -72.792385, 44.696113 ], [ -72.791671, 44.697005 ], [ -72.783654, 44.728418 ], [ -72.779389, 44.743832 ], [ -72.774394, 44.74317 ], [ -72.768592, 44.764996 ], [ -72.75855, 44.763641 ], [ -72.755047, 44.777033 ], [ -72.745789, 44.775903 ], [ -72.74685, 44.790089 ], [ -72.729097, 44.804039 ], [ -72.678379, 44.802482 ], [ -72.613597, 44.800417 ], [ -72.616729, 44.795844 ], [ -72.597899, 44.787055 ], [ -72.594404, 44.790299 ], [ -72.579075, 44.780896 ], [ -72.500872, 44.752618 ], [ -72.49959, 44.752275 ], [ -72.422873, 44.724616 ], [ -72.417477, 44.722947 ], [ -72.417315, 44.722893 ], [ -72.423644, 44.714614 ], [ -72.476924, 44.64214 ], [ -72.482793, 44.634103 ], [ -72.371063, 44.593325 ], [ -72.368385, 44.592846 ], [ -72.371759, 44.588227 ], [ -72.37386, 44.584162 ], [ -72.419108, 44.524945 ], [ -72.428477, 44.512558 ], [ -72.429793, 44.512025 ], [ -72.434116, 44.506019 ], [ -72.438843, 44.499979 ], [ -72.467251, 44.461235 ], [ -72.474477, 44.452245 ], [ -72.475933, 44.45001 ], [ -72.481284, 44.44362 ], [ -72.484742, 44.439135 ], [ -72.48509, 44.436769 ], [ -72.493242, 44.425829 ], [ -72.493561, 44.423977 ], [ -72.597285, 44.479385 ], [ -72.59891, 44.477223 ], [ -72.600277, 44.473977 ], [ -72.65434, 44.398297 ], [ -72.68435, 44.410686 ], [ -72.719927, 44.425101 ], [ -72.765559, 44.442806 ], [ -72.804857, 44.451882 ], [ -72.838296, 44.459293 ], [ -72.837223, 44.460718 ], [ -72.803636, 44.506284 ], [ -72.830756, 44.51643 ], [ -72.809956, 44.546714 ], [ -72.827042, 44.550692 ], [ -72.847776, 44.570094 ], [ -72.850245, 44.572088 ], [ -72.858425, 44.579742 ], [ -72.867133, 44.588516 ], [ -72.909961, 44.631197 ], [ -72.923777, 44.633214 ], [ -72.926414, 44.635125 ], [ -72.923968, 44.637405 ], [ -72.925513, 44.639147 ], [ -72.926547, 44.640319 ], [ -72.923758, 44.641942 ], [ -72.927279, 44.645736 ], [ -72.926669, 44.647538 ] ] ] ] } },
{ "type": "Feature", "properties": { "STATEFP": "50", "COUNTYFP": "025", "COUNTYNS": "01461769", "GEOIDFQ": "0500000US50025", "GEOID": "50025", "NAME": "Windham", "NAMELSAD": "Windham County", "STUSPS": "VT", "STATE_NAME": "Vermont", "LSAD": "06", "ALAND": 2035623287.0, "AWATER": 32917039.0 }, "geometry": { "type": "MultiPolygon", "coordinates": [ [ [ [ -73.008133, 42.930556 ], [ -73.00323, 43.021464 ], [ -73.00312, 43.023683 ], [ -73.000598, 43.023565 ], [ -73.001779, 43.075124 ], [ -72.998318, 43.096597 ], [ -72.998696, 43.097488 ], [ -72.99732, 43.115445 ], [ -72.997139, 43.117457 ], [ -72.995968, 43.118699 ], [ -72.948417, 43.117484 ], [ -72.924065, 43.116112 ], [ -72.898276, 43.114648 ], [ -72.888934, 43.114426 ], [ -72.868242, 43.113931 ], [ -72.86632, 43.144924 ], [ -72.864804, 43.166152 ], [ -72.862136, 43.205216 ], [ -72.851629, 43.204833 ], [ -72.849871, 43.234781 ], [ -72.848112, 43.262847 ], [ -72.819619, 43.256006 ], [ -72.756829, 43.239688 ], [ -72.730242, 43.233299 ], [ -72.68544, 43.22258 ], [ -72.676316, 43.222665 ], [ -72.676243, 43.224083 ], [ -72.555483, 43.235296 ], [ -72.552966, 43.235535 ], [ -72.549911, 43.235825 ], [ -72.549143, 43.235897 ], [ -72.498604, 43.234867 ], [ -72.43462, 43.233257 ], [ -72.433785292783, 43.2330390564128 ], [ -72.434466, 43.230432 ], [ -72.435104878919702, 43.229397376646098 ], [ -72.435478063405895, 43.228793028352698 ], [ -72.437656, 43.225266 ], [ -72.4405, 43.219049 ], [ -72.440563, 43.215254 ], [ -72.438594, 43.209013 ], [ -72.437719, 43.20275 ], [ -72.438969, 43.201035 ], [ -72.45028, 43.192485 ], [ -72.449435, 43.18917 ], [ -72.443749, 43.182221 ], [ -72.443405, 43.179729 ], [ -72.444904, 43.177969 ], [ -72.451430916722003, 43.172977426991999 ], [ -72.452556, 43.172117 ], [ -72.451868, 43.170174 ], [ -72.4521, 43.161414 ], [ -72.452093744289201, 43.161342419572598 ], [ -72.451553, 43.155155 ], [ -72.451802, 43.153486 ], [ -72.452801, 43.151977 ], [ -72.456537, 43.149528 ], [ -72.45714, 43.148493 ], [ -72.45689, 43.146558 ], [ -72.451986, 43.138924 ], [ -72.448303, 43.137187 ], [ -72.444214, 43.13737 ], [ -72.441904, 43.136615 ], [ -72.440905, 43.135793 ], [ -72.440872397652299, 43.135376478902401 ], [ -72.440624, 43.132203 ], [ -72.44078, 43.131472 ], [ -72.442746, 43.131152 ], [ -72.442933, 43.130192 ], [ -72.440967, 43.127608 ], [ -72.438274729863295, 43.125345979354499 ], [ -72.435936, 43.123381 ], [ -72.432972, 43.119655 ], [ -72.432661, 43.114077 ], [ -72.433129, 43.112637 ], [ -72.434845, 43.109917 ], [ -72.440587, 43.106145 ], [ -72.442427, 43.10363 ], [ -72.443051, 43.100841 ], [ -72.439214, 43.094852 ], [ -72.435191, 43.086622 ], [ -72.435276853503694, 43.084502448699901 ], [ -72.435316, 43.083536 ], [ -72.43619, 43.08173 ], [ -72.43987, 43.077043 ], [ -72.445202, 43.071352 ], [ -72.450703673736598, 43.066801025669101 ], [ -72.45471, 43.063487 ], [ -72.461465633714894, 43.058972110977003 ], [ -72.463812, 43.057404 ], [ -72.466491, 43.054729 ], [ -72.467363, 43.052648 ], [ -72.466832, 43.049197 ], [ -72.465896, 43.047505 ], [ -72.462248, 43.044214 ], [ -72.460252, 43.040671 ], [ -72.460905, 43.035961 ], [ -72.46299, 43.028531 ], [ -72.462397, 43.02556 ], [ -72.459628533285198, 43.020532940110698 ], [ -72.459572856879106, 43.020431841323301 ], [ -72.458998, 43.019388 ], [ -72.457035, 43.017285 ], [ -72.452984, 43.015731 ], [ -72.444635, 43.010566 ], [ -72.443825, 43.008965 ], [ -72.443762, 43.006245 ], [ -72.444977, 43.004416 ], [ -72.448714, 43.001169 ], [ -72.451797, 43.000577 ], [ -72.456936, 43.001306 ], [ -72.459951, 43.00008 ], [ -72.46294, 42.996943 ], [ -72.464714, 42.993582 ], [ -72.465335, 42.989558 ], [ -72.464026, 42.986107 ], [ -72.461597, 42.984049 ], [ -72.461627, 42.982906 ], [ -72.465985, 42.97847 ], [ -72.473827, 42.972045 ], [ -72.476722, 42.971746 ], [ -72.479245, 42.973597 ], [ -72.481706, 42.973985 ], [ -72.486872, 42.971789 ], [ -72.492597, 42.967648 ], [ -72.504226, 42.965815 ], [ -72.507901, 42.964171 ], [ -72.514840091482299, 42.963510793691299 ], [ -72.518422, 42.96317 ], [ -72.520476561691197, 42.961942248626102 ], [ -72.532186, 42.954945 ], [ -72.534117, 42.952133 ], [ -72.534554, 42.949894 ], [ -72.533901, 42.948591 ], [ -72.531693, 42.94651 ], [ -72.529763, 42.94612 ], [ -72.52855, 42.94532 ], [ -72.527431, 42.943148 ], [ -72.526624, 42.939901 ], [ -72.526346, 42.935717 ], [ -72.526498144831606, 42.934271927984298 ], [ -72.527097, 42.928584 ], [ -72.524242, 42.918501 ], [ -72.52443, 42.915575 ], [ -72.525271, 42.914363 ], [ -72.529191, 42.912719 ], [ -72.530218, 42.911576 ], [ -72.531588, 42.907164 ], [ -72.531469, 42.89795 ], [ -72.532777, 42.896076 ], [ -72.5329339570782, 42.895929622733703 ], [ -72.537287, 42.89187 ], [ -72.540708, 42.889379 ], [ -72.546491, 42.88714 ], [ -72.552025, 42.885631 ], [ -72.552834, 42.884968 ], [ -72.555415, 42.875428 ], [ -72.555131, 42.871058 ], [ -72.556214, 42.86695 ], [ -72.556177362185096, 42.8666992824039 ], [ -72.556112, 42.866252 ], [ -72.555132, 42.865731 ], [ -72.554232, 42.860038 ], [ -72.555057030600906, 42.858117306869602 ], [ -72.556270395012007, 42.855292562325303 ], [ -72.557247, 42.853019 ], [ -72.556576630203395, 42.851911951212699 ], [ -72.556282382898104, 42.851426031166497 ], [ -72.553426, 42.846709 ], [ -72.54855, 42.842021 ], [ -72.547402, 42.837587 ], [ -72.547244, 42.834192 ], [ -72.546050090642396, 42.827814628935997 ], [ -72.545669, 42.825779 ], [ -72.5454185789212, 42.824294640234697 ], [ -72.544773, 42.820468 ], [ -72.543815, 42.819001 ], [ -72.542616, 42.816702 ], [ -72.54146, 42.808948 ], [ -72.5396, 42.804832 ], [ -72.525930308158294, 42.795707934293198 ], [ -72.518354, 42.790651 ], [ -72.515838, 42.78856 ], [ -72.511753056352504, 42.7841216667994 ], [ -72.511746, 42.784114 ], [ -72.508858, 42.779919 ], [ -72.508048, 42.776885 ], [ -72.508372, 42.77461 ], [ -72.510154, 42.773221 ], [ -72.514836, 42.771436 ], [ -72.516731, 42.76867 ], [ -72.516082, 42.765949 ], [ -72.513105, 42.763822 ], [ -72.510871, 42.763752 ], [ -72.507985, 42.764414 ], [ -72.50069, 42.767657 ], [ -72.499249, 42.769054 ], [ -72.498786, 42.771981 ], [ -72.497949, 42.772918 ], [ -72.495343, 42.773286 ], [ -72.491122, 42.772465 ], [ -72.487767, 42.76938 ], [ -72.4864, 42.76698 ], [ -72.484878, 42.76554 ], [ -72.479354, 42.763119 ], [ -72.477615, 42.761245 ], [ -72.475938, 42.757702 ], [ -72.474723, 42.750729 ], [ -72.473071, 42.745916 ], [ -72.467827, 42.741209 ], [ -72.461001, 42.733209 ], [ -72.458488, 42.729094 ], [ -72.458519, 42.726853 ], [ -72.516711182782203, 42.7284676698292 ], [ -72.565356427372805, 42.729817438905101 ], [ -72.570288455082903, 42.729954288838499 ], [ -72.598620323978096, 42.730740418722696 ], [ -72.616353485467997, 42.731232464208297 ], [ -72.674684822182698, 42.732850995168697 ], [ -72.685763488431704, 42.733158397078803 ], [ -72.779257080969302, 42.735752581999897 ], [ -72.791076431289696, 42.736080535815198 ], [ -72.806957788681103, 42.736521198931797 ], [ -72.809113, 42.736581 ], [ -72.857658583506307, 42.737614628776498 ], [ -72.864300520714295, 42.7377560483853 ], [ -72.927190368029599, 42.739095094107597 ], [ -72.930104828662095, 42.739157148575998 ], [ -72.926598, 42.823365 ], [ -72.927403, 42.829827 ], [ -72.92627, 42.856356 ], [ -72.925444, 42.871197 ], [ -72.923333, 42.91516 ], [ -72.92379, 42.927442 ], [ -73.006753, 42.930742 ], [ -73.008133, 42.930556 ] ] ] ] } },
{ "type": "Feature", "properties": { "STATEFP": "50", "COUNTYFP": "001", "COUNTYNS": "01461757", "GEOIDFQ": "0500000US50001", "GEOID": "50001", "NAME": "Addison", "NAMELSAD": "Addison County", "STUSPS": "VT", "STATE_NAME": "Vermont", "LSAD": "06", "ALAND": 1984788915.0, "AWATER": 107311072.0 }, "geometry": { "type": "MultiPolygon", "coordinates": [ [ [ [ -73.43774, 44.045006 ], [ -73.431991, 44.06345 ], [ -73.430207, 44.071716 ], [ -73.429239, 44.079414 ], [ -73.420559090689295, 44.092855766678603 ], [ -73.416319, 44.099422 ], [ -73.413111330590297, 44.1079262028884 ], [ -73.411759267775906, 44.111510804361401 ], [ -73.411316, 44.112686 ], [ -73.411722, 44.11754 ], [ -73.413751, 44.126068 ], [ -73.41578, 44.131523 ], [ -73.415761, 44.132826 ], [ -73.41172, 44.137825 ], [ -73.408118, 44.139373 ], [ -73.403268, 44.144295 ], [ -73.402381, 44.145856 ], [ -73.400380845032501, 44.152751328555397 ], [ -73.399634, 44.155326 ], [ -73.398728, 44.162248 ], [ -73.395532, 44.166122 ], [ -73.395399, 44.166903 ], [ -73.396664, 44.168831 ], [ -73.397385, 44.171596 ], [ -73.396892, 44.173846 ], [ -73.395862, 44.175785 ], [ -73.390383, 44.179486 ], [ -73.389658, 44.181249 ], [ -73.390377943835801, 44.1861593056909 ], [ -73.390805, 44.189072 ], [ -73.390583, 44.190886 ], [ -73.388502, 44.192318 ], [ -73.385326, 44.192597 ], [ -73.383987, 44.193158 ], [ -73.382252, 44.197178 ], [ -73.377693, 44.199453 ], [ -73.375289, 44.199868 ], [ -73.372405, 44.202165 ], [ -73.370678, 44.204546 ], [ -73.362013, 44.208545 ], [ -73.361476, 44.210374 ], [ -73.357908, 44.216193 ], [ -73.355276, 44.219554 ], [ -73.355252, 44.22287 ], [ -73.354747, 44.223599 ], [ -73.350806, 44.225943 ], [ -73.349889, 44.230356 ], [ -73.345535510918893, 44.232754814426997 ], [ -73.342312, 44.234531 ], [ -73.34323, 44.238049 ], [ -73.336778, 44.239557 ], [ -73.334042, 44.240971 ], [ -73.3305, 44.244254 ], [ -73.329322, 44.244504 ], [ -73.324681, 44.243614 ], [ -73.323596, 44.243897 ], [ -73.319802, 44.249547 ], [ -73.316637704993795, 44.257718116061902 ], [ -73.316618, 44.257769 ], [ -73.313422040583106, 44.2641991074088 ], [ -73.270378, 44.260106 ], [ -73.23089, 44.263455 ], [ -73.1968, 44.266634 ], [ -73.16182, 44.271532 ], [ -73.152195, 44.272451 ], [ -73.145249, 44.273375 ], [ -73.133083, 44.275055 ], [ -73.080344, 44.282317 ], [ -73.070587, 44.283833 ], [ -73.070011, 44.279925 ], [ -73.016518, 44.285357 ], [ -73.020371, 44.303743 ], [ -73.010356, 44.301834 ], [ -72.975883, 44.295036 ], [ -72.973757, 44.281809 ], [ -72.973737, 44.281608 ], [ -72.967828, 44.245584 ], [ -72.967714, 44.244901 ], [ -72.965447, 44.231393 ], [ -72.952204, 44.161412 ], [ -72.934077, 44.162824 ], [ -72.932147, 44.155498 ], [ -72.921762, 44.094721 ], [ -72.916778, 44.071886 ], [ -72.910232, 44.072477 ], [ -72.896904, 44.07366 ], [ -72.85182, 44.061309 ], [ -72.848655, 44.060479 ], [ -72.818962, 44.051884 ], [ -72.742241, 44.029637 ], [ -72.754109, 44.012016 ], [ -72.791043, 43.962244 ], [ -72.803505, 43.945662 ], [ -72.809996, 43.936089 ], [ -72.81633, 43.937805 ], [ -72.865283, 43.861656 ], [ -72.874176, 43.86406 ], [ -72.875344, 43.867696 ], [ -72.874482, 43.87237 ], [ -72.875084, 43.88358 ], [ -72.876556, 43.902765 ], [ -72.902793, 43.892824 ], [ -72.953189, 43.874858 ], [ -72.969676, 43.879638 ], [ -72.974042, 43.881438 ], [ -72.98015, 43.882924 ], [ -72.98023, 43.863966 ], [ -72.972894, 43.866768 ], [ -72.959744, 43.826077 ], [ -72.989434, 43.814611 ], [ -73.01709, 43.80486 ], [ -73.026839, 43.842139 ], [ -73.030804, 43.841382 ], [ -73.033083, 43.844189 ], [ -73.030091, 43.844927 ], [ -73.029938, 43.846716 ], [ -73.084438, 43.844863 ], [ -73.106115, 43.844245 ], [ -73.156173, 43.842314 ], [ -73.15558, 43.839666 ], [ -73.218956, 43.837291 ], [ -73.206322, 43.766775 ], [ -73.230767, 43.764527 ], [ -73.362951157432093, 43.7531814596909 ], [ -73.354597, 43.764167 ], [ -73.350707, 43.770463 ], [ -73.350593, 43.771939 ], [ -73.354758, 43.776721 ], [ -73.355545, 43.778468 ], [ -73.357547, 43.785933 ], [ -73.362498, 43.790211 ], [ -73.368184, 43.793346 ], [ -73.376361, 43.798766 ], [ -73.377232, 43.800565 ], [ -73.37827, 43.805995 ], [ -73.379279, 43.808391 ], [ -73.379329826723193, 43.808476322236999 ], [ -73.380804, 43.810951 ], [ -73.383259, 43.81331 ], [ -73.390302, 43.817371 ], [ -73.392492, 43.820779 ], [ -73.392751, 43.822196 ], [ -73.390194, 43.829364 ], [ -73.388389, 43.832404 ], [ -73.381865, 43.837315 ], [ -73.376598, 43.839357 ], [ -73.373688, 43.84261 ], [ -73.373488204388806, 43.842988100368899 ], [ -73.372247, 43.845337 ], [ -73.372462, 43.846266 ], [ -73.373742, 43.847693 ], [ -73.380987, 43.852633 ], [ -73.381855242667299, 43.854580192006502 ], [ -73.382046, 43.855008 ], [ -73.381501, 43.859235 ], [ -73.379334, 43.864648 ], [ -73.37415, 43.874163 ], [ -73.374051, 43.875563 ], [ -73.376312, 43.880292 ], [ -73.383491, 43.890951 ], [ -73.395878, 43.903044 ], [ -73.397256, 43.905668 ], [ -73.400926, 43.917048 ], [ -73.404537867979002, 43.923851517162902 ], [ -73.407742, 43.929887 ], [ -73.407900473269393, 43.9304569050514 ], [ -73.408589, 43.932933 ], [ -73.405525, 43.948813 ], [ -73.406823, 43.967317 ], [ -73.411248, 43.975596 ], [ -73.412613, 43.97998 ], [ -73.412581, 43.98272 ], [ -73.411224, 43.986202 ], [ -73.405977, 44.011485 ], [ -73.405999, 44.016229 ], [ -73.407667551556202, 44.021103280207001 ], [ -73.407739, 44.021312 ], [ -73.410776, 44.026944 ], [ -73.414364, 44.029526 ], [ -73.42016, 44.032004 ], [ -73.42312, 44.032759 ], [ -73.427443193301201, 44.037155031158399 ], [ -73.427987, 44.037708 ], [ -73.430772, 44.038746 ], [ -73.43688, 44.042578 ], [ -73.43774, 44.045006 ] ] ] ] } },
{ "type": "Feature", "properties": { "STATEFP": "50", "COUNTYFP": "003", "COUNTYNS": "01461758", "GEOIDFQ": "0500000US50003", "GEOID": "50003", "NAME": "Bennington", "NAMELSAD": "Bennington County", "STUSPS": "VT", "STATE_NAME": "Vermont", "LSAD": "06", "ALAND": 1746264294.0, "AWATER": 6898408.0 }, "geometry": { "type": "MultiPolygon", "coordinates": [ [ [ [ -73.289304787528806, 42.8040968400041 ], [ -73.286337, 42.808038 ], [ -73.285238923874005, 42.810510899694698 ], [ -73.28375, 42.813864 ], [ -73.287063, 42.82014 ], [ -73.285388, 42.834093 ], [ -73.284311, 42.834954 ], [ -73.278673, 42.83341 ], [ -73.278493738260906, 42.837398808002497 ], [ -73.2784875592411, 42.8375362992698 ], [ -73.275804, 42.897249 ], [ -73.274650524153898, 42.934415405588901 ], [ -73.274466, 42.940361 ], [ -73.274393, 42.942482 ], [ -73.274294, 42.943652 ], [ -73.273343707800905, 42.963076991470899 ], [ -73.270678153254096, 43.017563784469502 ], [ -73.270067715644501, 43.030041783733097 ], [ -73.26978, 43.035923 ], [ -73.266206375905, 43.087156840448699 ], [ -73.265574, 43.096223 ], [ -73.265063777484698, 43.106170776231203 ], [ -73.264231487988198, 43.122397872101203 ], [ -73.261809480779604, 43.169619594035602 ], [ -73.260792906461504, 43.189439679461202 ], [ -73.2593865321831, 43.2168596701502 ], [ -73.258718, 43.229894 ], [ -73.258668064888894, 43.230552806825997 ], [ -73.256493, 43.259249 ], [ -73.255785792744902, 43.2790535000319 ], [ -73.254520257247705, 43.314493319990802 ], [ -73.168551, 43.311376 ], [ -73.122704, 43.308682 ], [ -73.122659, 43.308679 ], [ -73.092569, 43.30693 ], [ -73.046798, 43.307059 ], [ -72.996835, 43.305174 ], [ -72.994988, 43.305133 ], [ -72.98759, 43.305005 ], [ -72.992327, 43.290716 ], [ -72.975885, 43.290551 ], [ -72.975295, 43.304159 ], [ -72.868647, 43.300529 ], [ -72.859912, 43.300367 ], [ -72.819895, 43.299372 ], [ -72.819619, 43.256006 ], [ -72.848112, 43.262847 ], [ -72.849871, 43.234781 ], [ -72.851629, 43.204833 ], [ -72.862136, 43.205216 ], [ -72.864804, 43.166152 ], [ -72.86632, 43.144924 ], [ -72.868242, 43.113931 ], [ -72.888934, 43.114426 ], [ -72.898276, 43.114648 ], [ -72.924065, 43.116112 ], [ -72.948417, 43.117484 ], [ -72.995968, 43.118699 ], [ -72.997139, 43.117457 ], [ -72.99732, 43.115445 ], [ -72.998696, 43.097488 ], [ -72.998318, 43.096597 ], [ -73.001779, 43.075124 ], [ -73.000598, 43.023565 ], [ -73.00312, 43.023683 ], [ -73.00323, 43.021464 ], [ -73.008133, 42.930556 ], [ -73.006753, 42.930742 ], [ -72.92379, 42.927442 ], [ -72.923333, 42.91516 ], [ -72.925444, 42.871197 ], [ -72.92627, 42.856356 ], [ -72.927403, 42.829827 ], [ -72.926598, 42.823365 ], [ -72.930104828662095, 42.739157148575998 ], [ -73.018645354583995, 42.741042346546003 ], [ -73.022903, 42.741133 ], [ -73.023014995548706, 42.741135224142603 ], [ -73.042195196056497, 42.741516127675801 ], [ -73.048442883883098, 42.741640201788897 ], [ -73.079419528784499, 42.7422553733293 ], [ -73.089901607319803, 42.742463539075501 ], [ -73.142670427253194, 42.7435114858866 ], [ -73.163642086057806, 42.743927966357397 ], [ -73.213170274011105, 42.744911556793802 ], [ -73.264957, 42.74594 ], [ -73.276421, 42.746019 ], [ -73.290944, 42.80192 ], [ -73.289304787528806, 42.8040968400041 ] ] ] ] } },
{ "type": "Feature", "properties": { "STATEFP": "50", "COUNTYFP": "021", "COUNTYNS": "01461767", "GEOIDFQ": "0500000US50021", "GEOID": "50021", "NAME": "Rutland", "NAMELSAD": "Rutland County", "STUSPS": "VT", "STATE_NAME": "Vermont", "LSAD": "06", "ALAND": 2410114034.0, "AWATER": 38760900.0 }, "geometry": { "type": "MultiPolygon", "coordinates": [ [ [ [ -73.431229, 43.588285 ], [ -73.430325, 43.590532 ], [ -73.424977, 43.598775 ], [ -73.421616, 43.603023 ], [ -73.422154, 43.606511 ], [ -73.423815, 43.610989 ], [ -73.423708, 43.612356 ], [ -73.417827, 43.620586 ], [ -73.417668, 43.621687 ], [ -73.418319, 43.623325 ], [ -73.42791, 43.634428 ], [ -73.428583, 43.636543 ], [ -73.426463, 43.642598 ], [ -73.425217, 43.64429 ], [ -73.423539, 43.645676 ], [ -73.418763, 43.64788 ], [ -73.415513, 43.65245 ], [ -73.414546, 43.658209 ], [ -73.408061, 43.669438 ], [ -73.407776, 43.672519 ], [ -73.406906562346606, 43.674619942493898 ], [ -73.404126, 43.681339 ], [ -73.403474, 43.684694 ], [ -73.405243, 43.688367 ], [ -73.404739, 43.690213 ], [ -73.402078, 43.693106 ], [ -73.398332, 43.694625 ], [ -73.395517, 43.696831 ], [ -73.393723, 43.6992 ], [ -73.393575023514302, 43.699527722367002 ], [ -73.39179, 43.703481 ], [ -73.385883, 43.711336 ], [ -73.382965, 43.714058 ], [ -73.377756, 43.717712 ], [ -73.370612, 43.725329 ], [ -73.369916, 43.728789 ], [ -73.370724, 43.735571 ], [ -73.370287, 43.742269 ], [ -73.369725, 43.744274 ], [ -73.362951157432093, 43.7531814596909 ], [ -73.230767, 43.764527 ], [ -73.206322, 43.766775 ], [ -73.218956, 43.837291 ], [ -73.15558, 43.839666 ], [ -73.156173, 43.842314 ], [ -73.106115, 43.844245 ], [ -73.084438, 43.844863 ], [ -73.029938, 43.846716 ], [ -73.030091, 43.844927 ], [ -73.033083, 43.844189 ], [ -73.030804, 43.841382 ], [ -73.026839, 43.842139 ], [ -73.01709, 43.80486 ], [ -72.989434, 43.814611 ], [ -72.959744, 43.826077 ], [ -72.928471, 43.837951 ], [ -72.927232, 43.838724 ], [ -72.910378, 43.844554 ], [ -72.874498, 43.85806 ], [ -72.873871, 43.839628 ], [ -72.861361, 43.836222 ], [ -72.838341, 43.829254 ], [ -72.830665, 43.83912 ], [ -72.822387, 43.836451 ], [ -72.796924, 43.829158 ], [ -72.79541, 43.825626 ], [ -72.793561, 43.824395 ], [ -72.791065, 43.824097 ], [ -72.791291, 43.822594 ], [ -72.793725, 43.822053 ], [ -72.794238, 43.820313 ], [ -72.792117, 43.816501 ], [ -72.788532, 43.816053 ], [ -72.786215, 43.815227 ], [ -72.784402, 43.813832 ], [ -72.78435, 43.811084 ], [ -72.785494, 43.809559 ], [ -72.787847, 43.808959 ], [ -72.788697, 43.807299 ], [ -72.78751, 43.805706 ], [ -72.782972, 43.804071 ], [ -72.819262, 43.746313 ], [ -72.803928, 43.740973 ], [ -72.819985, 43.716697 ], [ -72.699795, 43.684577 ], [ -72.73044, 43.630849 ], [ -72.757948, 43.587424 ], [ -72.7715, 43.59109 ], [ -72.773489, 43.579817 ], [ -72.78993, 43.494546 ], [ -72.76914, 43.491511 ], [ -72.771371, 43.4788 ], [ -72.724223, 43.468174 ], [ -72.727367, 43.461062 ], [ -72.722563, 43.460076 ], [ -72.731932, 43.434675 ], [ -72.738403, 43.417036 ], [ -72.762356, 43.371414 ], [ -72.75849, 43.353307 ], [ -72.759627, 43.353767 ], [ -72.821933, 43.380611 ], [ -72.821982, 43.37571 ], [ -72.852384, 43.376279 ], [ -72.8547, 43.349277 ], [ -72.864972, 43.348699 ], [ -72.868647, 43.300529 ], [ -72.975295, 43.304159 ], [ -72.975885, 43.290551 ], [ -72.992327, 43.290716 ], [ -72.98759, 43.305005 ], [ -72.994988, 43.305133 ], [ -72.996835, 43.305174 ], [ -73.046798, 43.307059 ], [ -73.092569, 43.30693 ], [ -73.122659, 43.308679 ], [ -73.122704, 43.308682 ], [ -73.168551, 43.311376 ], [ -73.254520257247705, 43.314493319990802 ], [ -73.253169494529402, 43.352319827148897 ], [ -73.253156930181504, 43.352671676802899 ], [ -73.253145387803599, 43.352994907400898 ], [ -73.253084, 43.354714 ], [ -73.252832, 43.363493 ], [ -73.252775038221102, 43.365941635459201 ], [ -73.252674, 43.370285 ], [ -73.252582, 43.370997 ], [ -73.251445912253402, 43.398019095682301 ], [ -73.251162583262797, 43.404758137729999 ], [ -73.251000543571607, 43.408612287248097 ], [ -73.250563794761305, 43.419000453282202 ], [ -73.248762225280799, 43.461851177643098 ], [ -73.248401, 43.470443 ], [ -73.247755408167805, 43.491870867410398 ], [ -73.247136550873194, 43.512411387583597 ], [ -73.247070242908194, 43.514612218218701 ], [ -73.247061, 43.514919 ], [ -73.24672, 43.518875 ], [ -73.247631, 43.51924 ], [ -73.247698, 43.523173 ], [ -73.246821, 43.52578 ], [ -73.243366, 43.527726 ], [ -73.241891, 43.529418 ], [ -73.24139, 43.532345 ], [ -73.241589, 43.534973 ], [ -73.242042, 43.534925 ], [ -73.245674574961498, 43.540466216042901 ], [ -73.246585, 43.541855 ], [ -73.247812, 43.542814 ], [ -73.250132, 43.543429 ], [ -73.250408, 43.550425 ], [ -73.24842, 43.552577 ], [ -73.248641, 43.553857 ], [ -73.252602, 43.556851 ], [ -73.258631, 43.564949 ], [ -73.264099, 43.568884 ], [ -73.26938, 43.571973 ], [ -73.279726, 43.574241 ], [ -73.280952, 43.575407 ], [ -73.281296, 43.577579 ], [ -73.284912, 43.579272 ], [ -73.289862641365701, 43.5788391633129 ], [ -73.293536, 43.578518 ], [ -73.294621, 43.57897 ], [ -73.295344, 43.580235 ], [ -73.29444, 43.582494 ], [ -73.292113, 43.584509 ], [ -73.292364, 43.585104 ], [ -73.296924, 43.587323 ], [ -73.293242, 43.592558 ], [ -73.292801, 43.593861 ], [ -73.292502717317703, 43.5960017633574 ], [ -73.292202, 43.59816 ], [ -73.292232, 43.60255 ], [ -73.293741, 43.605203 ], [ -73.29802, 43.610028 ], [ -73.300285, 43.610806 ], [ -73.302015383599297, 43.623905129447003 ], [ -73.302076, 43.624364 ], [ -73.302552, 43.625708 ], [ -73.304125, 43.627057 ], [ -73.306234, 43.628018 ], [ -73.307682, 43.627492 ], [ -73.310606, 43.624114 ], [ -73.312809, 43.624602 ], [ -73.317566, 43.627355 ], [ -73.323893, 43.627629 ], [ -73.327702, 43.625913 ], [ -73.328139991875403, 43.625917749273 ], [ -73.342181, 43.62607 ], [ -73.347621, 43.622509 ], [ -73.358593, 43.625065 ], [ -73.35911, 43.624598 ], [ -73.365562, 43.62344 ], [ -73.367167, 43.623622 ], [ -73.368899, 43.62471 ], [ -73.371889, 43.624489 ], [ -73.372486, 43.622751 ], [ -73.36987, 43.619711 ], [ -73.369933, 43.619093 ], [ -73.374557, 43.614677 ], [ -73.376036, 43.612596 ], [ -73.372375, 43.606014 ], [ -73.372469, 43.604848 ], [ -73.373443, 43.603292 ], [ -73.377395, 43.600421 ], [ -73.377748, 43.599656 ], [ -73.377213, 43.598572 ], [ -73.380271, 43.597905 ], [ -73.380722, 43.598154 ], [ -73.38135, 43.598505 ], [ -73.38349, 43.597366 ], [ -73.383446, 43.596778 ], [ -73.382449, 43.594159 ], [ -73.381715, 43.592963 ], [ -73.382414, 43.591577 ], [ -73.38409, 43.591415 ], [ -73.386282, 43.591252 ], [ -73.387039, 43.589463 ], [ -73.386253, 43.588411 ], [ -73.38432, 43.587334 ], [ -73.38293, 43.587076 ], [ -73.382425, 43.586062 ], [ -73.383426, 43.584727 ], [ -73.385251, 43.583263 ], [ -73.384496, 43.581553 ], [ -73.382549, 43.579193 ], [ -73.383369, 43.57677 ], [ -73.384188, 43.575512 ], [ -73.386126, 43.574799 ], [ -73.38798, 43.574697 ], [ -73.389741, 43.574683 ], [ -73.391427, 43.57361 ], [ -73.391931, 43.572723 ], [ -73.391344, 43.570851 ], [ -73.391836763890296, 43.570102254867997 ], [ -73.39196, 43.569915 ], [ -73.395169, 43.569619 ], [ -73.395767, 43.568087 ], [ -73.398125, 43.568065 ], [ -73.400295, 43.568889 ], [ -73.405629, 43.571179 ], [ -73.416964, 43.57773 ], [ -73.420378, 43.581489 ], [ -73.426663, 43.582974 ], [ -73.426699956296702, 43.582993105637399 ], [ -73.428636, 43.583994 ], [ -73.430947, 43.587036 ], [ -73.431229, 43.588285 ] ] ] ] } },
{ "type": "Feature", "properties": { "STATEFP": "50", "COUNTYFP": "011", "COUNTYNS": "01461762", "GEOIDFQ": "0500000US50011", "GEOID": "50011", "NAME": "Franklin", "NAMELSAD": "Franklin County", "STUSPS": "VT", "STATE_NAME": "Vermont", "LSAD": "06", "ALAND": 1634181032.0, "AWATER": 150651912.0 }, "geometry": { "type": "MultiPolygon", "coordinates": [ [ [ [ -73.258886, 44.774088 ], [ -73.257089, 44.780245 ], [ -73.257252, 44.781877 ], [ -73.255912, 44.783162 ], [ -73.25314, 44.788214 ], [ -73.245746, 44.799579 ], [ -73.242913, 44.803317 ], [ -73.23703, 44.809654 ], [ -73.230062, 44.814686 ], [ -73.224128, 44.81815 ], [ -73.216874, 44.820612 ], [ -73.21082, 44.822092 ], [ -73.207962, 44.824595 ], [ -73.207047, 44.829217 ], [ -73.203221, 44.833631 ], [ -73.202594, 44.836142 ], [ -73.203876, 44.840132 ], [ -73.206765, 44.843859 ], [ -73.207554, 44.846095 ], [ -73.207055, 44.851948 ], [ -73.205335, 44.857349 ], [ -73.204063, 44.859632 ], [ -73.203509, 44.861795 ], [ -73.203331, 44.865986 ], [ -73.201993, 44.868063 ], [ -73.198305, 44.871839 ], [ -73.196432, 44.87542 ], [ -73.196145, 44.880888 ], [ -73.19567, 44.882969 ], [ -73.193888, 44.886821 ], [ -73.193439, 44.887822 ], [ -73.191994, 44.892517 ], [ -73.191275, 44.90279 ], [ -73.191317, 44.905603 ], [ -73.193021, 44.909177 ], [ -73.195348, 44.910582 ], [ -73.200507, 44.910709 ], [ -73.205697, 44.911097 ], [ -73.211647, 44.913089 ], [ -73.215945, 44.915254 ], [ -73.223816, 44.917864 ], [ -73.226125, 44.919598 ], [ -73.231033, 44.927917 ], [ -73.232964, 44.932018 ], [ -73.23425, 44.937008 ], [ -73.23795, 44.940639 ], [ -73.239494, 44.942796 ], [ -73.24041, 44.945268 ], [ -73.240944, 44.948886 ], [ -73.240378, 44.951289 ], [ -73.239129, 44.953215 ], [ -73.2369, 44.954953 ], [ -73.233649, 44.95665 ], [ -73.229711, 44.959308 ], [ -73.226726, 44.96244 ], [ -73.22473, 44.964901 ], [ -73.220676, 44.971211 ], [ -73.219936, 44.972861 ], [ -73.217037, 44.977006 ], [ -73.21235, 44.982705 ], [ -73.205101, 44.992238 ], [ -73.200787, 44.998727 ], [ -73.193046, 45.011772 ], [ -73.192336508759396, 45.013613457324396 ], [ -73.170414988541907, 45.014001033544702 ], [ -73.085972, 45.015494 ], [ -73.084969, 45.014751 ], [ -73.065098, 45.014786 ], [ -73.059685, 45.015869 ], [ -73.052438, 45.015721 ], [ -73.0484187808553, 45.014797531830297 ], [ -73.048386, 45.01479 ], [ -73.015539, 45.015072 ], [ -73.014766, 45.01498 ], [ -72.993144755070603, 45.014571886103802 ], [ -72.968039, 45.014098 ], [ -72.93644, 45.014267 ], [ -72.936365, 45.014656 ], [ -72.930599, 45.015152 ], [ -72.845633, 45.016659 ], [ -72.832202246528894, 45.0165044992576 ], [ -72.777306, 45.015873 ], [ -72.701838182067505, 45.0155682906625 ], [ -72.67477, 45.015459 ], [ -72.58988, 45.013237 ], [ -72.588005827096794, 45.013023698991802 ], [ -72.586752, 45.012881 ], [ -72.582371, 45.011543 ], [ -72.555912, 45.008304 ], [ -72.553880154638605, 45.008265461859096 ], [ -72.552117, 45.00085 ], [ -72.552008, 45.000581 ], [ -72.536498, 44.926114 ], [ -72.541383, 44.925977 ], [ -72.53328, 44.834081 ], [ -72.579075, 44.780896 ], [ -72.594404, 44.790299 ], [ -72.597899, 44.787055 ], [ -72.616729, 44.795844 ], [ -72.613597, 44.800417 ], [ -72.678379, 44.802482 ], [ -72.729097, 44.804039 ], [ -72.74685, 44.790089 ], [ -72.745789, 44.775903 ], [ -72.755047, 44.777033 ], [ -72.75855, 44.763641 ], [ -72.768592, 44.764996 ], [ -72.774394, 44.74317 ], [ -72.779389, 44.743832 ], [ -72.783654, 44.728418 ], [ -72.791671, 44.697005 ], [ -72.792385, 44.696113 ], [ -72.792327, 44.694294 ], [ -72.79322, 44.690669 ], [ -72.850793, 44.711124 ], [ -72.891862, 44.65566 ], [ -72.893225, 44.655408 ], [ -72.895725, 44.653863 ], [ -72.900076, 44.650565 ], [ -72.902011, 44.647222 ], [ -72.902971, 44.646355 ], [ -72.905602, 44.645907 ], [ -72.909897, 44.646672 ], [ -72.913515, 44.645849 ], [ -72.917843, 44.646203 ], [ -72.920972, 44.649304 ], [ -72.922639, 44.650115 ], [ -72.926669, 44.647538 ], [ -72.927279, 44.645736 ], [ -72.923758, 44.641942 ], [ -72.926547, 44.640319 ], [ -72.925513, 44.639147 ], [ -72.923968, 44.637405 ], [ -72.926414, 44.635125 ], [ -72.923777, 44.633214 ], [ -72.99421, 44.64433 ], [ -72.994325, 44.644357 ], [ -73.009292, 44.646502 ], [ -73.037835, 44.651281 ], [ -73.038028, 44.651157 ], [ -73.085975, 44.669648 ], [ -73.104351, 44.676719 ], [ -73.127617, 44.68531 ], [ -73.128196, 44.685525 ], [ -73.159038, 44.696903 ], [ -73.228856, 44.722806 ], [ -73.228854, 44.722866 ], [ -73.250134, 44.750216 ], [ -73.255297, 44.758073 ], [ -73.257971, 44.763586 ], [ -73.258836, 44.768083 ], [ -73.259009, 44.771398 ], [ -73.258886, 44.774088 ] ] ] ] } },
{ "type": "Feature", "properties": { "STATEFP": "50", "COUNTYFP": "019", "COUNTYNS": "01461766", "GEOIDFQ": "0500000US50019", "GEOID": "50019", "NAME": "Orleans", "NAMELSAD": "Orleans County", "STUSPS": "VT", "STATE_NAME": "Vermont", "LSAD": "06", "ALAND": 1798880704.0, "AWATER": 71408888.0 }, "geometry": { "type": "MultiPolygon", "coordinates": [ [ [ [ -72.53328, 44.834081 ], [ -72.541383, 44.925977 ], [ -72.536498, 44.926114 ], [ -72.552008, 45.000581 ], [ -72.552117, 45.00085 ], [ -72.553880154638605, 45.008265461859096 ], [ -72.532503, 45.00786 ], [ -72.481033, 45.00887 ], [ -72.448865, 45.008537 ], [ -72.433297917471293, 45.007899484984002 ], [ -72.418126118569106, 45.007278157923999 ], [ -72.401298, 45.006589 ], [ -72.400892896802702, 45.006581591871701 ], [ -72.348583, 45.005625 ], [ -72.329233400136104, 45.004719070928203 ], [ -72.310073, 45.003822 ], [ -72.291866, 45.004496 ], [ -72.270869, 45.004186 ], [ -72.246725280823497, 45.004623314087397 ], [ -72.242698384955901, 45.004696253069099 ], [ -72.160506, 45.006185 ], [ -72.141981654099396, 45.005995719415097 ], [ -72.109921681888395, 45.0056681326638 ], [ -72.103058, 45.005598 ], [ -72.088286033372398, 45.005821804481698 ], [ -72.087679270997498, 45.005830997309097 ], [ -72.052169, 45.006369 ], [ -72.051327089893306, 45.006384501955999 ], [ -72.051274924743595, 45.0063854624646 ], [ -72.051240100972606, 45.006386103669101 ], [ -72.029739, 45.006782 ], [ -72.023292, 45.006792 ], [ -71.986705, 45.007872 ], [ -71.947201, 45.008359 ], [ -71.915009, 45.007791 ], [ -71.899319218792598, 45.008178680301697 ], [ -71.911939, 44.944603 ], [ -71.914156, 44.93301 ], [ -71.920145, 44.901525 ], [ -71.902822, 44.892235 ], [ -71.877857, 44.878762 ], [ -71.91995, 44.836895 ], [ -71.929316, 44.829639 ], [ -71.974825, 44.787232 ], [ -71.939292, 44.769441 ], [ -71.999565, 44.711043 ], [ -72.011454, 44.698833 ], [ -72.11436, 44.749812 ], [ -72.095108, 44.700081 ], [ -72.089296, 44.685081 ], [ -72.145957, 44.704498 ], [ -72.146569, 44.703481 ], [ -72.149959, 44.697856 ], [ -72.199261, 44.628282 ], [ -72.202487, 44.624097 ], [ -72.207123, 44.616733 ], [ -72.23724, 44.576715 ], [ -72.237339, 44.576577 ], [ -72.241562, 44.570884 ], [ -72.261671, 44.543761 ], [ -72.262875, 44.542489 ], [ -72.282231, 44.549738 ], [ -72.302425, 44.557481 ], [ -72.366517, 44.580781 ], [ -72.37386, 44.584162 ], [ -72.371759, 44.588227 ], [ -72.368385, 44.592846 ], [ -72.371063, 44.593325 ], [ -72.482793, 44.634103 ], [ -72.476924, 44.64214 ], [ -72.423644, 44.714614 ], [ -72.417315, 44.722893 ], [ -72.417477, 44.722947 ], [ -72.422873, 44.724616 ], [ -72.49959, 44.752275 ], [ -72.500872, 44.752618 ], [ -72.579075, 44.780896 ], [ -72.53328, 44.834081 ] ] ] ] } },
{ "type": "Feature", "properties": { "STATEFP": "50", "COUNTYFP": "007", "COUNTYNS": "01461760", "GEOIDFQ": "0500000US50007", "GEOID": "50007", "NAME": "Chittenden", "NAMELSAD": "Chittenden County", "STUSPS": "VT", "STATE_NAME": "Vermont", "LSAD": "06", "ALAND": 1390433438.0, "AWATER": 217071279.0 }, "geometry": { "type": "MultiPolygon", "coordinates": [ [ [ [ -73.362631919147802, 44.5643154520412 ], [ -73.350852, 44.567097 ], [ -73.338769, 44.570342 ], [ -73.326768, 44.573061 ], [ -73.315185, 44.576251 ], [ -73.305228, 44.579274 ], [ -73.30313, 44.579738 ], [ -73.297337, 44.581715 ], [ -73.287135, 44.585504 ], [ -73.279319, 44.588593 ], [ -73.270559, 44.592553 ], [ -73.263701, 44.596195 ], [ -73.261944, 44.597532 ], [ -73.257339, 44.602687 ], [ -73.255965, 44.604882 ], [ -73.254502, 44.610676 ], [ -73.254796, 44.615334 ], [ -73.25586, 44.622626 ], [ -73.256282, 44.629676 ], [ -73.256027, 44.63144 ], [ -73.254857, 44.634997 ], [ -73.253186, 44.638468 ], [ -73.251113, 44.641511 ], [ -73.249514, 44.642404 ], [ -73.242753, 44.64401 ], [ -73.237707, 44.645892 ], [ -73.233838, 44.648381 ], [ -73.23287, 44.651425 ], [ -73.233575, 44.668111 ], [ -73.233561, 44.671594 ], [ -73.232729, 44.675111 ], [ -73.228909, 44.685615 ], [ -73.228406, 44.688262 ], [ -73.228534, 44.703077 ], [ -73.2294, 44.708102 ], [ -73.229637, 44.713155 ], [ -73.229279, 44.720405 ], [ -73.228856, 44.722806 ], [ -73.159038, 44.696903 ], [ -73.128196, 44.685525 ], [ -73.127617, 44.68531 ], [ -73.104351, 44.676719 ], [ -73.085975, 44.669648 ], [ -73.038028, 44.651157 ], [ -73.037835, 44.651281 ], [ -73.009292, 44.646502 ], [ -72.994325, 44.644357 ], [ -72.99421, 44.64433 ], [ -72.923777, 44.633214 ], [ -72.909961, 44.631197 ], [ -72.867133, 44.588516 ], [ -72.858425, 44.579742 ], [ -72.850245, 44.572088 ], [ -72.847776, 44.570094 ], [ -72.827042, 44.550692 ], [ -72.809956, 44.546714 ], [ -72.830756, 44.51643 ], [ -72.803636, 44.506284 ], [ -72.837223, 44.460718 ], [ -72.838296, 44.459293 ], [ -72.804857, 44.451882 ], [ -72.830604, 44.415425 ], [ -72.839829, 44.403452 ], [ -72.802375, 44.38858 ], [ -72.825282, 44.359886 ], [ -72.825957, 44.359025 ], [ -72.828368, 44.360432 ], [ -72.832659, 44.358743 ], [ -72.835316, 44.359994 ], [ -72.843827, 44.362206 ], [ -72.849353, 44.362962 ], [ -72.855549, 44.365586 ], [ -72.861251, 44.3669 ], [ -72.880378, 44.32985 ], [ -72.905958, 44.280554 ], [ -72.89498, 44.278097 ], [ -72.906598, 44.254514 ], [ -72.922295, 44.222735 ], [ -72.952204, 44.161412 ], [ -72.965447, 44.231393 ], [ -72.967714, 44.244901 ], [ -72.967828, 44.245584 ], [ -72.973737, 44.281608 ], [ -72.973757, 44.281809 ], [ -72.975883, 44.295036 ], [ -73.010356, 44.301834 ], [ -73.020371, 44.303743 ], [ -73.016518, 44.285357 ], [ -73.070011, 44.279925 ], [ -73.070587, 44.283833 ], [ -73.080344, 44.282317 ], [ -73.133083, 44.275055 ], [ -73.145249, 44.273375 ], [ -73.152195, 44.272451 ], [ -73.16182, 44.271532 ], [ -73.1968, 44.266634 ], [ -73.23089, 44.263455 ], [ -73.270378, 44.260106 ], [ -73.313422040583106, 44.2641991074088 ], [ -73.312852, 44.265346 ], [ -73.311025, 44.27424 ], [ -73.312299, 44.280025 ], [ -73.316838, 44.287683 ], [ -73.322267, 44.301523 ], [ -73.324229, 44.310023 ], [ -73.324545, 44.319247 ], [ -73.323845509902995, 44.325326652659399 ], [ -73.323835, 44.325418 ], [ -73.323997, 44.333842 ], [ -73.325127, 44.338534 ], [ -73.326959263908407, 44.343376056116703 ], [ -73.327335, 44.344369 ], [ -73.334637, 44.356877 ], [ -73.334939, 44.364441 ], [ -73.333575, 44.372288 ], [ -73.330369, 44.375987 ], [ -73.322551702125196, 44.381535081189497 ], [ -73.322548272837807, 44.381537515018302 ], [ -73.320954, 44.382669 ], [ -73.317029, 44.385978 ], [ -73.315016, 44.388513 ], [ -73.312418, 44.39471 ], [ -73.310491, 44.402601 ], [ -73.296031, 44.428339 ], [ -73.2942139115586, 44.436035739045899 ], [ -73.293855, 44.437556 ], [ -73.293613, 44.440559 ], [ -73.295216, 44.445884 ], [ -73.300114, 44.454711 ], [ -73.298725, 44.463957 ], [ -73.298939, 44.471304 ], [ -73.299342318885493, 44.473584073360897 ], [ -73.299885, 44.476652 ], [ -73.304418, 44.485739 ], [ -73.304921, 44.492209 ], [ -73.306707, 44.500334 ], [ -73.312871, 44.507246 ], [ -73.319265, 44.51196 ], [ -73.320836, 44.513631 ], [ -73.3211050164238, 44.514940367869798 ], [ -73.321416, 44.516454 ], [ -73.321111, 44.519857 ], [ -73.322026, 44.525289 ], [ -73.323935, 44.52712 ], [ -73.328512, 44.528478 ], [ -73.329458, 44.529203 ], [ -73.330588, 44.531034 ], [ -73.330893, 44.534269 ], [ -73.331595, 44.535924 ], [ -73.338995, 44.543302 ], [ -73.3393, 44.544477 ], [ -73.33863, 44.546844 ], [ -73.338751, 44.548046 ], [ -73.342932, 44.551907 ], [ -73.350027, 44.555392 ], [ -73.355186, 44.556918 ], [ -73.356788, 44.557918 ], [ -73.360088, 44.562546 ], [ -73.361607256928707, 44.563602736522398 ], [ -73.362631919147802, 44.5643154520412 ] ] ] ] } },
{ "type": "Feature", "properties": { "STATEFP": "50", "COUNTYFP": "013", "COUNTYNS": "01461763", "GEOIDFQ": "0500000US50013", "GEOID": "50013", "NAME": "Grand Isle", "NAMELSAD": "Grand Isle County", "STUSPS": "VT", "STATE_NAME": "Vermont", "LSAD": "06", "ALAND": 211782350.0, "AWATER": 288954848.0 }, "geometry": { "type": "MultiPolygon", "coordinates": [ [ [ [ -73.389966, 44.61962 ], [ -73.387346, 44.623672 ], [ -73.386497, 44.626924 ], [ -73.385899, 44.631044 ], [ -73.386431229621806, 44.632929014833799 ], [ -73.387169, 44.635542 ], [ -73.386783, 44.636369 ], [ -73.379748, 44.64036 ], [ -73.378561, 44.641475 ], [ -73.383157, 44.645764 ], [ -73.384483, 44.646683 ], [ -73.383974, 44.647605 ], [ -73.380906, 44.648871 ], [ -73.377973, 44.652918 ], [ -73.378014, 44.653846 ], [ -73.378968, 44.65518 ], [ -73.379074, 44.656772 ], [ -73.377209, 44.658142 ], [ -73.375931, 44.660315 ], [ -73.374134, 44.66234 ], [ -73.373063, 44.662713 ], [ -73.37059, 44.662518 ], [ -73.369669, 44.663478 ], [ -73.370065, 44.666071 ], [ -73.37272, 44.668739 ], [ -73.37101, 44.672763 ], [ -73.371821290266396, 44.675193525272398 ], [ -73.37198, 44.675669 ], [ -73.371943745943895, 44.676009576424697 ], [ -73.371843, 44.676956 ], [ -73.371089, 44.67753 ], [ -73.370409015891894, 44.677702274324297 ], [ -73.367209, 44.678513 ], [ -73.367414, 44.681292 ], [ -73.369685, 44.683758 ], [ -73.370142, 44.684853 ], [ -73.365297, 44.687546 ], [ -73.361308, 44.694523 ], [ -73.361323, 44.695369 ], [ -73.364661, 44.696394 ], [ -73.365977, 44.697559 ], [ -73.365783750181507, 44.6988278681129 ], [ -73.36556, 44.700297 ], [ -73.365068, 44.725646 ], [ -73.365561, 44.741786 ], [ -73.363791, 44.745254 ], [ -73.357671, 44.751018 ], [ -73.354361, 44.755296 ], [ -73.353919337092904, 44.756305270274801 ], [ -73.351892425962205, 44.760937085898902 ], [ -73.348694, 44.768246 ], [ -73.347072, 44.772988 ], [ -73.344254, 44.776282 ], [ -73.335713, 44.782086 ], [ -73.333771, 44.785192 ], [ -73.333154, 44.788759 ], [ -73.333862434657703, 44.798254207010999 ], [ -73.333933, 44.7992 ], [ -73.33443, 44.802188 ], [ -73.335443, 44.804602 ], [ -73.3502, 44.816394 ], [ -73.353472, 44.820386 ], [ -73.354945, 44.8215 ], [ -73.35808, 44.82331 ], [ -73.365678, 44.826451 ], [ -73.368056621515095, 44.8280601203749 ], [ -73.369647, 44.829136 ], [ -73.371329, 44.830742 ], [ -73.375345, 44.836307 ], [ -73.378717, 44.837358 ], [ -73.379452, 44.83801 ], [ -73.381359, 44.845021 ], [ -73.381397, 44.848805 ], [ -73.379822, 44.857037 ], [ -73.375709, 44.860745 ], [ -73.371967, 44.862414 ], [ -73.369103, 44.86668 ], [ -73.366459, 44.87504 ], [ -73.363056673497297, 44.8882495527549 ], [ -73.362229, 44.891463 ], [ -73.360327, 44.897236 ], [ -73.35808, 44.901325 ], [ -73.356218, 44.904492 ], [ -73.353657, 44.907346 ], [ -73.347837, 44.911309 ], [ -73.342786608632196, 44.913802307163202 ], [ -73.341106, 44.914632 ], [ -73.339534200278607, 44.916885134626398 ], [ -73.338979, 44.917681 ], [ -73.338482, 44.924112 ], [ -73.339603, 44.94337 ], [ -73.339190366931604, 44.947545204724896 ], [ -73.337906, 44.960541 ], [ -73.338243, 44.96475 ], [ -73.338734, 44.965886 ], [ -73.34474, 44.970468 ], [ -73.350218, 44.976222 ], [ -73.352886, 44.980644 ], [ -73.353716755816393, 44.982960087586001 ], [ -73.354112, 44.984062 ], [ -73.354633, 44.987352 ], [ -73.353429, 44.990165 ], [ -73.353355420324107, 44.990258966762902 ], [ -73.350188, 44.994304 ], [ -73.3482238892326, 44.998901754197398 ], [ -73.343124, 45.01084 ], [ -73.249323, 45.012181 ], [ -73.241061, 45.012752 ], [ -73.192336508759396, 45.013613457324396 ], [ -73.193046, 45.011772 ], [ -73.200787, 44.998727 ], [ -73.205101, 44.992238 ], [ -73.21235, 44.982705 ], [ -73.217037, 44.977006 ], [ -73.219936, 44.972861 ], [ -73.220676, 44.971211 ], [ -73.22473, 44.964901 ], [ -73.226726, 44.96244 ], [ -73.229711, 44.959308 ], [ -73.233649, 44.95665 ], [ -73.2369, 44.954953 ], [ -73.239129, 44.953215 ], [ -73.240378, 44.951289 ], [ -73.240944, 44.948886 ], [ -73.24041, 44.945268 ], [ -73.239494, 44.942796 ], [ -73.23795, 44.940639 ], [ -73.23425, 44.937008 ], [ -73.232964, 44.932018 ], [ -73.231033, 44.927917 ], [ -73.226125, 44.919598 ], [ -73.223816, 44.917864 ], [ -73.215945, 44.915254 ], [ -73.211647, 44.913089 ], [ -73.205697, 44.911097 ], [ -73.200507, 44.910709 ], [ -73.195348, 44.910582 ], [ -73.193021, 44.909177 ], [ -73.191317, 44.905603 ], [ -73.191275, 44.90279 ], [ -73.191994, 44.892517 ], [ -73.193439, 44.887822 ], [ -73.193888, 44.886821 ], [ -73.19567, 44.882969 ], [ -73.196145, 44.880888 ], [ -73.196432, 44.87542 ], [ -73.198305, 44.871839 ], [ -73.201993, 44.868063 ], [ -73.203331, 44.865986 ], [ -73.203509, 44.861795 ], [ -73.204063, 44.859632 ], [ -73.205335, 44.857349 ], [ -73.207055, 44.851948 ], [ -73.207554, 44.846095 ], [ -73.206765, 44.843859 ], [ -73.203876, 44.840132 ], [ -73.202594, 44.836142 ], [ -73.203221, 44.833631 ], [ -73.207047, 44.829217 ], [ -73.207962, 44.824595 ], [ -73.21082, 44.822092 ], [ -73.216874, 44.820612 ], [ -73.224128, 44.81815 ], [ -73.230062, 44.814686 ], [ -73.23703, 44.809654 ], [ -73.242913, 44.803317 ], [ -73.245746, 44.799579 ], [ -73.25314, 44.788214 ], [ -73.255912, 44.783162 ], [ -73.257252, 44.781877 ], [ -73.257089, 44.780245 ], [ -73.258886, 44.774088 ], [ -73.259009, 44.771398 ], [ -73.258836, 44.768083 ], [ -73.257971, 44.763586 ], [ -73.255297, 44.758073 ], [ -73.250134, 44.750216 ], [ -73.228854, 44.722866 ], [ -73.228856, 44.722806 ], [ -73.229279, 44.720405 ], [ -73.229637, 44.713155 ], [ -73.2294, 44.708102 ], [ -73.228534, 44.703077 ], [ -73.228406, 44.688262 ], [ -73.228909, 44.685615 ], [ -73.232729, 44.675111 ], [ -73.233561, 44.671594 ], [ -73.233575, 44.668111 ], [ -73.23287, 44.651425 ], [ -73.233838, 44.648381 ], [ -73.237707, 44.645892 ], [ -73.242753, 44.64401 ], [ -73.249514, 44.642404 ], [ -73.251113, 44.641511 ], [ -73.253186, 44.638468 ], [ -73.254857, 44.634997 ], [ -73.256027, 44.63144 ], [ -73.256282, 44.629676 ], [ -73.25586, 44.622626 ], [ -73.254796, 44.615334 ], [ -73.254502, 44.610676 ], [ -73.255965, 44.604882 ], [ -73.257339, 44.602687 ], [ -73.261944, 44.597532 ], [ -73.263701, 44.596195 ], [ -73.270559, 44.592553 ], [ -73.279319, 44.588593 ], [ -73.287135, 44.585504 ], [ -73.297337, 44.581715 ], [ -73.30313, 44.579738 ], [ -73.305228, 44.579274 ], [ -73.315185, 44.576251 ], [ -73.326768, 44.573061 ], [ -73.338769, 44.570342 ], [ -73.350852, 44.567097 ], [ -73.362631919147802, 44.5643154520412 ], [ -73.367275, 44.567545 ], [ -73.374389, 44.575455 ], [ -73.375666, 44.582038 ], [ -73.377794, 44.585128 ], [ -73.381848, 44.589316 ], [ -73.38164, 44.590583 ], [ -73.377897, 44.593848 ], [ -73.376806, 44.595455 ], [ -73.376332, 44.597218 ], [ -73.376849, 44.599598 ], [ -73.380726, 44.605239 ], [ -73.382932, 44.612184 ], [ -73.38982, 44.61721 ], [ -73.390231, 44.618353 ], [ -73.389966, 44.61962 ] ] ] ] } },
{ "type": "Feature", "properties": { "STATEFP": "50", "COUNTYFP": "017", "COUNTYNS": "01461765", "GEOIDFQ": "0500000US50017", "GEOID": "50017", "NAME": "Orange", "NAMELSAD": "Orange County", "STUSPS": "VT", "STATE_NAME": "Vermont", "LSAD": "06", "ALAND": 1779343340.0, "AWATER": 12005265.0 }, "geometry": { "type": "MultiPolygon", "coordinates": [ [ [ [ -72.787016, 43.960847 ], [ -72.791043, 43.962244 ], [ -72.754109, 44.012016 ], [ -72.742241, 44.029637 ], [ -72.682874, 44.01281 ], [ -72.634476, 44.089312 ], [ -72.629096, 44.087836 ], [ -72.626366, 44.092786 ], [ -72.626176, 44.092997 ], [ -72.586558, 44.16026 ], [ -72.583818, 44.159575 ], [ -72.563985, 44.154782 ], [ -72.559708, 44.162913 ], [ -72.521938, 44.152059 ], [ -72.521237, 44.151865 ], [ -72.507046, 44.147937 ], [ -72.459929, 44.134597 ], [ -72.455538, 44.133344 ], [ -72.444433, 44.129202 ], [ -72.443376, 44.1288 ], [ -72.437413, 44.151153 ], [ -72.434559, 44.162097 ], [ -72.424023, 44.202894 ], [ -72.419197, 44.220781 ], [ -72.36888, 44.203888 ], [ -72.305201, 44.183087 ], [ -72.220036, 44.189233 ], [ -72.174365, 44.192661 ], [ -72.170691, 44.191972 ], [ -72.166327, 44.190774 ], [ -72.083448, 44.168031 ], [ -72.070377, 44.16445 ], [ -72.043569551921394, 44.157078021496503 ], [ -72.043505, 44.156918 ], [ -72.042381, 44.156581 ], [ -72.040167, 44.157023 ], [ -72.038921, 44.156422 ], [ -72.039658407972397, 44.155688018644597 ], [ -72.041073, 44.15428 ], [ -72.041218296862098, 44.1540672845655 ], [ -72.042476, 44.152226 ], [ -72.042827, 44.150967 ], [ -72.042258266380401, 44.142944609492098 ], [ -72.041881, 44.137623 ], [ -72.041103, 44.136113 ], [ -72.03744, 44.133396 ], [ -72.033794, 44.132344 ], [ -72.033412, 44.1311 ], [ -72.035976, 44.12846 ], [ -72.036922, 44.125271 ], [ -72.038839, 44.124628 ], [ -72.04063, 44.125363 ], [ -72.042537, 44.125035 ], [ -72.04643, 44.123911 ], [ -72.052342, 44.119891 ], [ -72.052530468765497, 44.119049587064303 ], [ -72.053707, 44.113797 ], [ -72.055141, 44.110417 ], [ -72.053117983964796, 44.103554193966303 ], [ -72.052391, 44.101088 ], [ -72.050997, 44.098848 ], [ -72.048334, 44.096905 ], [ -72.044909, 44.096402 ], [ -72.043132, 44.097241 ], [ -72.042583, 44.099171 ], [ -72.042263, 44.101353 ], [ -72.04005, 44.103352 ], [ -72.037471, 44.103352 ], [ -72.033046, 44.101781 ], [ -72.030897, 44.099719 ], [ -72.030909, 44.096562 ], [ -72.032359, 44.091527 ], [ -72.033689, 44.09014 ], [ -72.036021, 44.088963 ], [ -72.039912, 44.088712 ], [ -72.043483, 44.088902 ], [ -72.045146, 44.08785 ], [ -72.044383, 44.085996 ], [ -72.041316, 44.084554 ], [ -72.038204, 44.083035 ], [ -72.033245, 44.08151 ], [ -72.031657, 44.079602 ], [ -72.031841, 44.078542 ], [ -72.0321579058715, 44.078348244782099 ], [ -72.034175, 44.077115 ], [ -72.038036, 44.076543 ], [ -72.040279, 44.077603 ], [ -72.041362, 44.078877 ], [ -72.043056, 44.079266 ], [ -72.046369, 44.078231 ], [ -72.051141, 44.077256 ], [ -72.052494, 44.076716 ], [ -72.052902, 44.075345 ], [ -72.051235, 44.073789 ], [ -72.049117, 44.072355 ], [ -72.048244, 44.070355 ], [ -72.048931, 44.069012 ], [ -72.053482, 44.06473 ], [ -72.055309, 44.060773 ], [ -72.057293, 44.058339 ], [ -72.059338, 44.057683 ], [ -72.065415, 44.058344 ], [ -72.067612, 44.058034 ], [ -72.067626798281395, 44.058003046767702 ], [ -72.06915, 44.054817 ], [ -72.067868, 44.053525 ], [ -72.062573, 44.051771 ], [ -72.061856, 44.050611 ], [ -72.062496, 44.049344 ], [ -72.065625, 44.049146 ], [ -72.07417, 44.045835 ], [ -72.07832, 44.043378 ], [ -72.079434, 44.040578 ], [ -72.078244, 44.037771 ], [ -72.074841, 44.032987 ], [ -72.075391, 44.031522 ], [ -72.078274, 44.029989 ], [ -72.079079964954801, 44.029695578972898 ], [ -72.079144858241804, 44.029671953807998 ], [ -72.080411, 44.029211 ], [ -72.081864, 44.026952 ], [ -72.081673, 44.023638 ], [ -72.082913, 44.021581 ], [ -72.085477, 44.021261 ], [ -72.090283, 44.02403 ], [ -72.093256, 44.024017 ], [ -72.095258, 44.021894 ], [ -72.095868, 44.019682 ], [ -72.095193, 44.016666 ], [ -72.090504, 44.012736 ], [ -72.089807, 44.011274 ], [ -72.090059, 44.009903 ], [ -72.09123, 44.009125 ], [ -72.093257, 44.009376 ], [ -72.093411, 44.01087 ], [ -72.095247, 44.01358 ], [ -72.097593, 44.015226 ], [ -72.102475, 44.014882 ], [ -72.105283, 44.013059 ], [ -72.105726, 44.011098 ], [ -72.103576, 44.004231 ], [ -72.104367, 44.002157 ], [ -72.11038, 43.999304 ], [ -72.116985, 43.99448 ], [ -72.116706, 43.991954 ], [ -72.11218, 43.986845 ], [ -72.112628, 43.982473 ], [ -72.112697684216101, 43.9779955437482 ], [ -72.112699, 43.977911 ], [ -72.113189, 43.97392 ], [ -72.114423, 43.970274 ], [ -72.114726, 43.968332 ], [ -72.112943, 43.967222 ], [ -72.110149, 43.967249 ], [ -72.107343, 43.969557 ], [ -72.105146, 43.969885 ], [ -72.097989, 43.968542 ], [ -72.091104, 43.966443 ], [ -72.091413, 43.965452 ], [ -72.095563, 43.964583 ], [ -72.100492, 43.963186 ], [ -72.101224, 43.961378 ], [ -72.098955, 43.958879 ], [ -72.099088, 43.957381 ], [ -72.099125012503706, 43.957336057728199 ], [ -72.104437, 43.950886 ], [ -72.106293, 43.949474 ], [ -72.110872, 43.947654 ], [ -72.116911, 43.947493 ], [ -72.11862, 43.946044 ], [ -72.1192, 43.943411 ], [ -72.116926, 43.934393 ], [ -72.117384, 43.93196 ], [ -72.118147, 43.923606 ], [ -72.120421, 43.919593 ], [ -72.123936, 43.917039 ], [ -72.132158161425096, 43.913324040244497 ], [ -72.132851, 43.913011 ], [ -72.135481, 43.909568 ], [ -72.145041, 43.905288 ], [ -72.151324, 43.901704 ], [ -72.155724, 43.89712 ], [ -72.158585, 43.892762 ], [ -72.159216, 43.888313 ], [ -72.161636, 43.886756 ], [ -72.167224, 43.886113 ], [ -72.169626635881798, 43.886164104597803 ], [ -72.170562, 43.886184 ], [ -72.172714, 43.884254 ], [ -72.173576, 43.87967 ], [ -72.171904, 43.876149 ], [ -72.16978, 43.873425 ], [ -72.169425680988496, 43.872608533981001 ], [ -72.1690171831725, 43.871667222409201 ], [ -72.167907, 43.869109 ], [ -72.174712, 43.866569 ], [ -72.179386, 43.866181 ], [ -72.182846, 43.865524 ], [ -72.184788, 43.863393 ], [ -72.187916, 43.856126 ], [ -72.187379, 43.853612 ], [ -72.182864, 43.845109 ], [ -72.182203, 43.834032 ], [ -72.183337, 43.830699 ], [ -72.186238, 43.826931 ], [ -72.188522, 43.823288 ], [ -72.188949, 43.821319 ], [ -72.187469, 43.817337 ], [ -72.184184, 43.812524 ], [ -72.184052434025304, 43.811851946778098 ], [ -72.183333, 43.808177 ], [ -72.184847, 43.804698 ], [ -72.190754, 43.800807 ], [ -72.192932, 43.795898 ], [ -72.195084, 43.792328 ], [ -72.197708, 43.789597 ], [ -72.202316, 43.787346 ], [ -72.205536, 43.784584 ], [ -72.204788, 43.780556 ], [ -72.205138520061197, 43.771259813024102 ], [ -72.221699, 43.77604 ], [ -72.254722, 43.785687 ], [ -72.255459, 43.785903 ], [ -72.339337, 43.810456 ], [ -72.339343, 43.810447 ], [ -72.346103, 43.811597 ], [ -72.460695, 43.836713 ], [ -72.461565, 43.836851 ], [ -72.459519, 43.838088 ], [ -72.506443, 43.852503 ], [ -72.569811, 43.871947 ], [ -72.573499, 43.873087 ], [ -72.573596, 43.873082 ], [ -72.574443, 43.873348 ], [ -72.590157, 43.878035 ], [ -72.604155, 43.882229 ], [ -72.632918, 43.889965 ], [ -72.701978, 43.909169 ], [ -72.702838, 43.909402 ], [ -72.709306, 43.911243 ], [ -72.712284, 43.907963 ], [ -72.773501, 43.924538 ], [ -72.768901, 43.931613 ], [ -72.775144, 43.933657 ], [ -72.771078, 43.939064 ], [ -72.789959, 43.945315 ], [ -72.78522, 43.952191 ], [ -72.791775, 43.953967 ], [ -72.787016, 43.960847 ] ] ] ] } },
{ "type": "Feature", "properties": { "STATEFP": "50", "COUNTYFP": "023", "COUNTYNS": "01461768", "GEOIDFQ": "0500000US50023", "GEOID": "50023", "NAME": "Washington", "NAMELSAD": "Washington County", "STUSPS": "VT", "STATE_NAME": "Vermont", "LSAD": "06", "ALAND": 1779477067.0, "AWATER": 21517931.0 }, "geometry": { "type": "MultiPolygon", "coordinates": [ [ [ [ -72.952204, 44.161412 ], [ -72.922295, 44.222735 ], [ -72.906598, 44.254514 ], [ -72.89498, 44.278097 ], [ -72.905958, 44.280554 ], [ -72.880378, 44.32985 ], [ -72.861251, 44.3669 ], [ -72.855549, 44.365586 ], [ -72.849353, 44.362962 ], [ -72.843827, 44.362206 ], [ -72.835316, 44.359994 ], [ -72.832659, 44.358743 ], [ -72.828368, 44.360432 ], [ -72.825957, 44.359025 ], [ -72.825282, 44.359886 ], [ -72.802375, 44.38858 ], [ -72.839829, 44.403452 ], [ -72.830604, 44.415425 ], [ -72.804857, 44.451882 ], [ -72.765559, 44.442806 ], [ -72.719927, 44.425101 ], [ -72.68435, 44.410686 ], [ -72.65434, 44.398297 ], [ -72.600277, 44.473977 ], [ -72.59891, 44.477223 ], [ -72.597285, 44.479385 ], [ -72.493561, 44.423977 ], [ -72.493242, 44.425829 ], [ -72.48509, 44.436769 ], [ -72.484742, 44.439135 ], [ -72.481284, 44.44362 ], [ -72.475933, 44.45001 ], [ -72.474477, 44.452245 ], [ -72.467251, 44.461235 ], [ -72.438843, 44.499979 ], [ -72.434116, 44.506019 ], [ -72.434683, 44.505239 ], [ -72.426252, 44.502979 ], [ -72.325905, 44.4645 ], [ -72.32138, 44.463159 ], [ -72.317544, 44.461152 ], [ -72.223806, 44.424888 ], [ -72.223142, 44.423801 ], [ -72.226197, 44.42233 ], [ -72.228189, 44.422204 ], [ -72.228973, 44.421007 ], [ -72.22822, 44.419315 ], [ -72.225199, 44.420727 ], [ -72.225219, 44.421682 ], [ -72.221932, 44.422836 ], [ -72.220926, 44.422073 ], [ -72.219462, 44.418139 ], [ -72.221118, 44.418413 ], [ -72.220162, 44.416481 ], [ -72.222649, 44.416056 ], [ -72.222042, 44.414241 ], [ -72.218874, 44.412886 ], [ -72.217078, 44.411311 ], [ -72.225435, 44.400048 ], [ -72.227784, 44.396897 ], [ -72.270128, 44.340385 ], [ -72.282026, 44.329272 ], [ -72.285883, 44.326306 ], [ -72.316834, 44.298781 ], [ -72.316652, 44.272228 ], [ -72.335094, 44.247515 ], [ -72.336869, 44.246215 ], [ -72.36888, 44.203888 ], [ -72.419197, 44.220781 ], [ -72.424023, 44.202894 ], [ -72.434559, 44.162097 ], [ -72.437413, 44.151153 ], [ -72.443376, 44.1288 ], [ -72.444433, 44.129202 ], [ -72.455538, 44.133344 ], [ -72.459929, 44.134597 ], [ -72.507046, 44.147937 ], [ -72.521237, 44.151865 ], [ -72.521938, 44.152059 ], [ -72.559708, 44.162913 ], [ -72.563985, 44.154782 ], [ -72.583818, 44.159575 ], [ -72.586558, 44.16026 ], [ -72.626176, 44.092997 ], [ -72.626366, 44.092786 ], [ -72.629096, 44.087836 ], [ -72.634476, 44.089312 ], [ -72.682874, 44.01281 ], [ -72.742241, 44.029637 ], [ -72.818962, 44.051884 ], [ -72.848655, 44.060479 ], [ -72.85182, 44.061309 ], [ -72.896904, 44.07366 ], [ -72.910232, 44.072477 ], [ -72.916778, 44.071886 ], [ -72.921762, 44.094721 ], [ -72.932147, 44.155498 ], [ -72.934077, 44.162824 ], [ -72.952204, 44.161412 ] ] ] ] } },
{ "type": "Feature", "properties": { "STATEFP": "50", "COUNTYFP": "005", "COUNTYNS": "01461759", "GEOIDFQ": "0500000US50005", "GEOID": "50005", "NAME": "Caledonia", "NAMELSAD": "Caledonia County", "STUSPS": "VT", "STATE_NAME": "Vermont", "LSAD": "06", "ALAND": 1681454164.0, "AWATER": 22351439.0 }, "geometry": { "type": "MultiPolygon", "coordinates": [ [ [ [ -72.434116, 44.506019 ], [ -72.429793, 44.512025 ], [ -72.428477, 44.512558 ], [ -72.419108, 44.524945 ], [ -72.37386, 44.584162 ], [ -72.366517, 44.580781 ], [ -72.302425, 44.557481 ], [ -72.282231, 44.549738 ], [ -72.262875, 44.542489 ], [ -72.261671, 44.543761 ], [ -72.241562, 44.570884 ], [ -72.237339, 44.576577 ], [ -72.23724, 44.576715 ], [ -72.207123, 44.616733 ], [ -72.202487, 44.624097 ], [ -72.199261, 44.628282 ], [ -72.149959, 44.697856 ], [ -72.146569, 44.703481 ], [ -72.145957, 44.704498 ], [ -72.089296, 44.685081 ], [ -72.095108, 44.700081 ], [ -72.11436, 44.749812 ], [ -72.011454, 44.698833 ], [ -71.999565, 44.711043 ], [ -71.939292, 44.769441 ], [ -71.857465, 44.726896 ], [ -71.837067, 44.716376 ], [ -71.910198, 44.646831 ], [ -71.842372, 44.610867 ], [ -71.898277, 44.557881 ], [ -71.900639, 44.555503 ], [ -71.908938, 44.547917 ], [ -71.856691, 44.496275 ], [ -71.903264, 44.454742 ], [ -71.933222, 44.441138 ], [ -71.837764853491294, 44.347719933902098 ], [ -71.844319, 44.344204 ], [ -71.845015554428997, 44.3439247578766 ], [ -71.852628, 44.340873 ], [ -71.861941, 44.340109 ], [ -71.86991, 44.336962 ], [ -71.872472, 44.336628 ], [ -71.87583, 44.337801 ], [ -71.890357, 44.343119 ], [ -71.902332, 44.347499 ], [ -71.909416, 44.348398 ], [ -71.917434, 44.346535 ], [ -71.925088, 44.342024 ], [ -71.92911, 44.337577 ], [ -71.935395, 44.33577 ], [ -71.939049, 44.335844 ], [ -71.945163, 44.337744 ], [ -71.958047, 44.337427 ], [ -71.963133, 44.336556 ], [ -71.98112, 44.3375 ], [ -71.984617, 44.336243 ], [ -71.984624608959194, 44.336222520610697 ], [ -71.984645680707402, 44.336165806344397 ], [ -71.986484, 44.331218 ], [ -71.988306, 44.329768 ], [ -71.992716, 44.328631 ], [ -72.003881, 44.32409 ], [ -72.013514, 44.321078 ], [ -72.018901, 44.320216 ], [ -72.025783, 44.322054 ], [ -72.029061, 44.322398 ], [ -72.032816, 44.320446 ], [ -72.033806, 44.317349 ], [ -72.031902, 44.315653 ], [ -72.032317, 44.306677 ], [ -72.032725, 44.302471 ], [ -72.034818214196505, 44.3004558838999 ], [ -72.039506, 44.295943 ], [ -72.042812, 44.29552 ], [ -72.044506, 44.294963 ], [ -72.046302, 44.291983 ], [ -72.053160162457004, 44.290541939917603 ], [ -72.053355, 44.290501 ], [ -72.057425466972106, 44.287361767462798 ], [ -72.05888, 44.28624 ], [ -72.065434, 44.277235 ], [ -72.068432, 44.271296 ], [ -72.067135, 44.268237 ], [ -72.064544, 44.267997 ], [ -72.060039, 44.269855 ], [ -72.058559, 44.269077 ], [ -72.058475, 44.267886 ], [ -72.058969, 44.265911 ], [ -72.059444, 44.264896 ], [ -72.060543, 44.264491 ], [ -72.061174, 44.263377 ], [ -72.05978, 44.256885 ], [ -72.059180220961693, 44.255853359336399 ], [ -72.05399, 44.246926 ], [ -72.050112, 44.244046 ], [ -72.04846, 44.241212 ], [ -72.047889, 44.238493 ], [ -72.050548, 44.232974 ], [ -72.053582, 44.22604 ], [ -72.0539, 44.222703 ], [ -72.052502, 44.218876 ], [ -72.052947184687795, 44.217937976614998 ], [ -72.05537, 44.212833 ], [ -72.058285, 44.211803 ], [ -72.059536, 44.210315 ], [ -72.058066, 44.206067 ], [ -72.058987, 44.202114 ], [ -72.060067, 44.200446 ], [ -72.063561, 44.198457 ], [ -72.064577, 44.196949 ], [ -72.066166, 44.189773 ], [ -72.061338, 44.184951 ], [ -72.057496, 44.179444 ], [ -72.053021, 44.167903 ], [ -72.051523, 44.166219 ], [ -72.048969, 44.165039 ], [ -72.047593, 44.161801 ], [ -72.046568, 44.161403 ], [ -72.045111, 44.161749 ], [ -72.042359, 44.161701 ], [ -72.042387, 44.160817 ], [ -72.044004, 44.158155 ], [ -72.043569551921394, 44.157078021496503 ], [ -72.070377, 44.16445 ], [ -72.083448, 44.168031 ], [ -72.166327, 44.190774 ], [ -72.170691, 44.191972 ], [ -72.174365, 44.192661 ], [ -72.220036, 44.189233 ], [ -72.305201, 44.183087 ], [ -72.36888, 44.203888 ], [ -72.336869, 44.246215 ], [ -72.335094, 44.247515 ], [ -72.316652, 44.272228 ], [ -72.316834, 44.298781 ], [ -72.285883, 44.326306 ], [ -72.282026, 44.329272 ], [ -72.270128, 44.340385 ], [ -72.227784, 44.396897 ], [ -72.225435, 44.400048 ], [ -72.217078, 44.411311 ], [ -72.218874, 44.412886 ], [ -72.222042, 44.414241 ], [ -72.222649, 44.416056 ], [ -72.220162, 44.416481 ], [ -72.221118, 44.418413 ], [ -72.219462, 44.418139 ], [ -72.220926, 44.422073 ], [ -72.221932, 44.422836 ], [ -72.225219, 44.421682 ], [ -72.225199, 44.420727 ], [ -72.22822, 44.419315 ], [ -72.228973, 44.421007 ], [ -72.228189, 44.422204 ], [ -72.226197, 44.42233 ], [ -72.223142, 44.423801 ], [ -72.223806, 44.424888 ], [ -72.317544, 44.461152 ], [ -72.32138, 44.463159 ], [ -72.325905, 44.4645 ], [ -72.426252, 44.502979 ], [ -72.434683, 44.505239 ], [ -72.434116, 44.506019 ] ] ] ] } }
]
}
